{
"type": "FeatureCollection",
"name": "agricultura_ATINGIDOS_rio_grande___cenario_maio_2024",
"crs": { "type": "name", "properties": { "name": "urn:ogc:def:crs:OGC:1.3:CRS84" } },
"features": [
{ "type": "Feature", "properties": { "tipo_cultura": "Arroz", "classe": 40 }, "geometry": { "type": "Polygon", "coordinates": [ [ [ -52.091675937201082, -32.047746665699016 ], [ -52.091427285372973, -32.047498013870907 ], [ -52.091418036716988, -32.047490423695095 ], [ -52.091416863994411, -32.047502330547232 ], [ -52.091416863994411, -32.047742349022691 ], [ -52.091418185417318, -32.047755765654671 ], [ -52.091431602049298, -32.047757087077578 ], [ -52.091671620524757, -32.047757087077578 ], [ -52.091683527376894, -32.047755914355001 ], [ -52.091675937201082, -32.047746665699016 ] ] ] } },
{ "type": "Feature", "properties": { "tipo_cultura": "Outras Lavouras Temporarias", "classe": 41 }, "geometry": { "type": "Polygon", "coordinates": [ [ [ -52.176570323299998, -32.063913102900003 ], [ -52.176314079, -32.063400614400003 ], [ -52.176308637600002, -32.063391921600001 ], [ -52.176307658299997, -32.063402130100002 ], [ -52.176307658299997, -32.063912024099999 ], [ -52.176308979700003, -32.063925440799999 ], [ -52.176322396400003, -32.063926762199998 ], [ -52.176561881399998, -32.063926762199998 ], [ -52.176574988200002, -32.063925424300002 ], [ -52.176570323299998, -32.063913102900003 ] ] ] } }
]
}
