{
"type": "FeatureCollection",
"name": "agricultura_ATINGIDOS_rio_grande___cenario_maio_2024_50",
"crs": { "type": "name", "properties": { "name": "urn:ogc:def:crs:OGC:1.3:CRS84" } },
"features": [
{ "type": "Feature", "properties": { "tipo_cultura": "Arroz", "classe": 40 }, "geometry": { "type": "MultiPolygon", "coordinates": [ [ [ [ -52.091675937201082, -32.047746665699016 ], [ -52.091427285372973, -32.047498013870907 ], [ -52.091418036716988, -32.047490423695095 ], [ -52.091416863994411, -32.047502330547232 ], [ -52.091416863994411, -32.047742349022691 ], [ -52.091418185417318, -32.047755765654671 ], [ -52.091431602049298, -32.047757087077578 ], [ -52.091671620524757, -32.047757087077578 ], [ -52.091683527376894, -32.047755914355001 ], [ -52.091675937201082, -32.047746665699016 ] ] ], [ [ [ -52.10299830153707, -32.154463283586011 ], [ -52.102742057255533, -32.153950795022936 ], [ -52.102736615914829, -32.153942102213492 ], [ -52.102735636574316, -32.153952310740195 ], [ -52.102735636574316, -32.154462204776088 ], [ -52.102736957997223, -32.154475621408068 ], [ -52.102750374629203, -32.154476942830975 ], [ -52.102989859659445, -32.154476942830975 ], [ -52.103002966442872, -32.154475604962492 ], [ -52.10299830153707, -32.154463283586011 ] ] ], [ [ [ -52.105689655633348, -32.15419702686718 ], [ -52.105441003805232, -32.153948375039064 ], [ -52.105431755149247, -32.153940784863252 ], [ -52.105430582426671, -32.153952691715389 ], [ -52.105430582426671, -32.154192710190856 ], [ -52.105431903849578, -32.154206126822835 ], [ -52.105445320481557, -32.154207448245742 ], [ -52.105685338957024, -32.154207448245742 ], [ -52.105697245809161, -32.154206275523165 ], [ -52.105689655633348, -32.15419702686718 ] ] ], [ [ [ -52.156902622866788, -32.132917659702088 ], [ -52.156900667332401, -32.13291121721263 ], [ -52.156883491011826, -32.132869780558373 ], [ -52.156872002574829, -32.13281208561645 ], [ -52.156871994028329, -32.132753257983197 ], [ -52.156883465700957, -32.132695559705624 ], [ -52.156900692683287, -32.132653966673047 ], [ -52.156902624526559, -32.132647598239252 ], [ -52.156904048206719, -32.132633143371983 ], [ -52.156904048206719, -32.131314456547258 ], [ -52.156902818349927, -32.13130135337299 ], [ -52.156890474493245, -32.131296788843763 ], [ -52.15442215243133, -32.130638569627251 ], [ -52.152445940797811, -32.131113114275529 ], [ -52.153058728256966, -32.131521639248298 ], [ -52.153102488434413, -32.131557178481422 ], [ -52.153138827290128, -32.131600276947601 ], [ -52.153166461662686, -32.131649412796783 ], [ -52.154203365787488, -32.133982447077585 ], [ -52.154210135174466, -32.133994483521576 ], [ -52.1542208547801, -32.134003189303542 ], [ -52.154883996168934, -32.134445283562769 ], [ -52.154929540554861, -32.134482589175697 ], [ -52.154966922339973, -32.134528071062057 ], [ -52.154994701910262, -32.134579977663947 ], [ -52.155011809443657, -32.134636310000545 ], [ -52.15501758611007, -32.13469489865107 ], [ -52.15501758611007, -32.135080155057324 ], [ -52.155091900355991, -32.135167602676873 ], [ -52.15518573212794, -32.135342827279231 ], [ -52.155541848459997, -32.135342827279231 ], [ -52.155555475802167, -32.135341486131217 ], [ -52.155559463447673, -32.135328386443575 ], [ -52.155675834790792, -32.134746529728005 ], [ -52.155692951998645, -32.134690301883019 ], [ -52.155720703790983, -32.134638490616119 ], [ -52.155758024940141, -32.134593084656359 ], [ -52.155803482907231, -32.134555826870809 ], [ -52.155855332828935, -32.134528147366197 ], [ -52.155911584492458, -32.134511108595497 ], [ -52.155970078728103, -32.134505364576654 ], [ -52.156028570287049, -32.134511135788692 ], [ -52.15608481402321, -32.1345282007088 ], [ -52.156095705917132, -32.134532712278983 ], [ -52.156110101067362, -32.134529497984744 ], [ -52.156889222958611, -32.134269790687654 ], [ -52.156902530027558, -32.134263754696654 ], [ -52.156904048206719, -32.134249221754686 ], [ -52.156904048206719, -32.132932122804881 ], [ -52.156902622866788, -32.132917659702088 ] ] ], [ [ [ -52.152877070592133, -32.130226547803467 ], [ -52.152861547969856, -32.130224135624012 ], [ -52.152845866108471, -32.130225057379697 ], [ -52.152132970783441, -32.130343873267208 ], [ -52.152075331923584, -32.1303478397204 ], [ -52.152018001609576, -32.130340683882764 ], [ -52.151963106140535, -32.130322671154062 ], [ -52.15191268151068, -32.130294469600557 ], [ -52.151868597897199, -32.13025712517743 ], [ -52.151832490298098, -32.130212022935758 ], [ -52.151805697892435, -32.130160835653008 ], [ -52.151789214372108, -32.130105461792084 ], [ -52.151783651087243, -32.130047955090056 ], [ -52.151783651087243, -32.129698179044162 ], [ -52.151782227407082, -32.129683724176893 ], [ -52.151780490482047, -32.129677998302419 ], [ -52.151764460742285, -32.129640053525058 ], [ -52.151752680117298, -32.129586715288063 ], [ -52.15175076621847, -32.12953212510908 ], [ -52.151758782496877, -32.129478092804561 ], [ -52.151776463190565, -32.129426409695895 ], [ -52.151788352487884, -32.129399842202119 ], [ -52.151984768449076, -32.128810594318537 ], [ -52.152010519920786, -32.128753822098446 ], [ -52.152047448754317, -32.128703597756505 ], [ -52.152093960353092, -32.128662089992787 ], [ -52.152148046334247, -32.12863109112326 ], [ -52.15220737125113, -32.128611939687126 ], [ -52.152269373438493, -32.128605462648338 ], [ -52.152445401662163, -32.128605462648338 ], [ -52.152501839745113, -32.128610819232001 ], [ -52.152556262392643, -32.12862669769639 ], [ -52.152606726141656, -32.128652531012683 ], [ -52.152651428903532, -32.128687396658755 ], [ -52.152688774317717, -32.12873004956294 ], [ -52.152717428758628, -32.128778966566237 ], [ -52.152736368960213, -32.12883240081517 ], [ -52.152744918557303, -32.128888444142923 ], [ -52.152742772239016, -32.128945095210995 ], [ -52.152730006651581, -32.129000330978144 ], [ -52.152596747187346, -32.129400109370856 ], [ -52.152593975602976, -32.129412241802925 ], [ -52.152606284869684, -32.129410408897357 ], [ -52.153656321817408, -32.129147899660424 ], [ -52.153668856116305, -32.129143470330085 ], [ -52.153670113183892, -32.129130236003668 ], [ -52.153670113183892, -32.128350172765757 ], [ -52.153668921877447, -32.128337620912497 ], [ -52.153656637419729, -32.128340459984486 ], [ -52.153037524985002, -32.128546830796061 ], [ -52.152983695302908, -32.128559405599688 ], [ -52.152928472240006, -32.128561890289632 ], [ -52.152873730779035, -32.128554200503487 ], [ -52.152821329550953, -32.128536597331724 ], [ -52.152773047729049, -32.128509678452957 ], [ -52.152730524620843, -32.128474357841 ], [ -52.152276321249175, -32.128020154469333 ], [ -52.152237760840585, -32.127972805016121 ], [ -52.152209587109674, -32.127918628298637 ], [ -52.152207691786458, -32.127911927363876 ], [ -52.152200990851703, -32.12791003204066 ], [ -52.15214681413422, -32.127881858309749 ], [ -52.152099464681008, -32.127843297901158 ], [ -52.152063567051037, -32.127807400271188 ], [ -52.152053145672475, -32.127798847666831 ], [ -52.152042724293914, -32.127807400271188 ], [ -52.152026288536362, -32.127823836028739 ], [ -52.151980827571911, -32.127861144878075 ], [ -52.151928961531716, -32.127888867854139 ], [ -52.151872683598612, -32.127905939578504 ], [ -52.151814156502006, -32.127911703994386 ], [ -52.1517556294054, -32.127905939578504 ], [ -52.151699351472296, -32.127888867854139 ], [ -52.1516474854321, -32.127861144878075 ], [ -52.15160202446765, -32.127823836028739 ], [ -52.151564715618314, -32.127778375064288 ], [ -52.151536992642249, -32.127726509024093 ], [ -52.151519920917885, -32.127670231090988 ], [ -52.151514156502003, -32.127611703994383 ], [ -52.151514156502003, -32.127272126432793 ], [ -52.151512950287007, -32.127259356101057 ], [ -52.151500128956734, -32.127259743165311 ], [ -52.149542178256347, -32.127504487002867 ], [ -52.149486927788416, -32.127506260743097 ], [ -52.149432289832298, -32.127497867048376 ], [ -52.149380119504642, -32.127479590908919 ], [ -52.149332188139013, -32.127452052852533 ], [ -52.149290123143928, -32.127416187875895 ], [ -52.149255352747666, -32.127373213698718 ], [ -52.148827962815467, -32.126732128800413 ], [ -52.14881855058222, -32.126720796277141 ], [ -52.148804039540813, -32.126723335154203 ], [ -52.146946073373897, -32.127254182630466 ], [ -52.146933947835684, -32.127258894342788 ], [ -52.146932748552992, -32.127271847744986 ], [ -52.146932748552992, -32.128156561543776 ], [ -52.146927417733728, -32.128212864953269 ], [ -52.146911614726854, -32.128267167407436 ], [ -52.146885901152167, -32.128317539062479 ], [ -52.146851190839151, -32.128362189770478 ], [ -52.146808717350488, -32.128399532699071 ], [ -52.146759990142804, -32.128428240725569 ], [ -52.146706740922333, -32.128447293601312 ], [ -52.146650862102213, -32.128456014210045 ], [ -52.146594339548379, -32.128454092631841 ], [ -52.14653918200429, -32.128441597157277 ], [ -52.146487349702596, -32.128418971860462 ], [ -52.146440684700849, -32.128387020817186 ], [ -52.146400845416977, -32.128346879529019 ], [ -52.146383338003957, -32.128325546684529 ], [ -52.146134309038871, -32.12807651771945 ], [ -52.146123939235309, -32.128067945699527 ], [ -52.146112868869942, -32.12807083740757 ], [ -52.146076254553954, -32.12808388177308 ], [ -52.14601543159538, -32.128092280584397 ], [ -52.145954172595289, -32.12808812038859 ], [ -52.145895043606295, -32.128071575450356 ], [ -52.145840521457849, -32.128043338813683 ], [ -52.145792890005417, -32.128004593271228 ], [ -52.145788484838299, -32.12800018810411 ], [ -52.145752824272897, -32.127957167948416 ], [ -52.145725760485519, -32.127908280719673 ], [ -52.145708232412083, -32.127855222484094 ], [ -52.145700848161781, -32.127799834014461 ], [ -52.145703863919671, -32.127744036927396 ], [ -52.145717175058728, -32.127689767015859 ], [ -52.145740319769729, -32.127638907089846 ], [ -52.145772495083001, -32.127593221655225 ], [ -52.145812584726201, -32.127554295696932 ], [ -52.145849811635046, -32.127529684932171 ], [ -52.145852737101954, -32.127527284063525 ], [ -52.145844348833492, -32.127517062928831 ], [ -52.145595697005376, -32.127268411100715 ], [ -52.145586345071102, -32.127260736166605 ], [ -52.145575092861463, -32.127317304844503 ], [ -52.145552587140052, -32.127371638462371 ], [ -52.145519913896756, -32.127420537426573 ], [ -52.145478328745995, -32.127462122577327 ], [ -52.1454294297818, -32.127494795820624 ], [ -52.145375096163924, -32.127517301542042 ], [ -52.145317415902852, -32.127528774859321 ], [ -52.145317102464489, -32.127528805730307 ], [ -52.145315781041582, -32.12754222236228 ], [ -52.145315781041582, -32.127782240837739 ], [ -52.145317102464489, -32.127795657469711 ], [ -52.145317415902852, -32.127795688340697 ], [ -52.145375096163924, -32.127807161657977 ], [ -52.1454294297818, -32.127829667379395 ], [ -52.145478328745995, -32.127862340622691 ], [ -52.145519913896756, -32.127903925773445 ], [ -52.145552587140052, -32.127952824737648 ], [ -52.145575092861463, -32.128007158355516 ], [ -52.145586566178743, -32.128064838616595 ], [ -52.145586597049729, -32.128065152054958 ], [ -52.145600013681701, -32.128066473477865 ], [ -52.145638854600655, -32.128066473477865 ], [ -52.14569946776485, -32.128072660536823 ], [ -52.145757580814248, -32.128090966515693 ], [ -52.145810796756422, -32.128120636346679 ], [ -52.145856920590234, -32.128160446236492 ], [ -52.145894049843157, -32.128208754144232 ], [ -52.14592065304268, -32.128263567510736 ], [ -52.145935632885042, -32.128322625445811 ], [ -52.145938371495795, -32.128383491983278 ], [ -52.145928755915293, -32.128443656557444 ], [ -52.145907182757959, -32.128500637556513 ], [ -52.145861599834546, -32.128591803403339 ], [ -52.14585693492873, -32.128604124779855 ], [ -52.145870041712158, -32.128605462648338 ], [ -52.14637902132764, -32.128605462648338 ], [ -52.146393022304565, -32.128604083672471 ], [ -52.146400845416977, -32.128594551182417 ], [ -52.146440684700849, -32.128554409894249 ], [ -52.146487349702596, -32.128522458850973 ], [ -52.14653918200429, -32.128499833554159 ], [ -52.146594339548379, -32.128487338079594 ], [ -52.146650862102213, -32.128485416501391 ], [ -52.146706740922333, -32.128494137110124 ], [ -52.146759990142804, -32.128513189985867 ], [ -52.146808717350488, -32.128541898012365 ], [ -52.146851190839151, -32.128579240940958 ], [ -52.146885901152167, -32.128623891648957 ], [ -52.146911614726854, -32.128674263303999 ], [ -52.146927417733728, -32.128728565758166 ], [ -52.146932748552992, -32.12878486916766 ], [ -52.146932748552992, -32.128860741418436 ], [ -52.146934005620579, -32.128873975744852 ], [ -52.146946539919476, -32.128878405075191 ], [ -52.147944151189662, -32.129127807892736 ], [ -52.14800721853122, -32.129151360929853 ], [ -52.148063445822054, -32.129188384258903 ], [ -52.149617680997828, -32.130483580238717 ], [ -52.149628092706081, -32.130490824618541 ], [ -52.149640728940781, -32.130491924744987 ], [ -52.150759251720146, -32.130491924744987 ], [ -52.150819864884348, -32.130498111803945 ], [ -52.150877977933739, -32.130516417782815 ], [ -52.15093119387592, -32.130546087613808 ], [ -52.150977317709732, -32.130585897503622 ], [ -52.151014446962655, -32.130634205411361 ], [ -52.151041050162178, -32.130689018777865 ], [ -52.151056030004533, -32.130748076712941 ], [ -52.151058768615286, -32.130808943250415 ], [ -52.151049153034776, -32.13086910782458 ], [ -52.151027579877443, -32.130926088823649 ], [ -52.150981996954016, -32.131017254670489 ], [ -52.150977332048214, -32.131029576046977 ], [ -52.150990438831634, -32.13103091391546 ], [ -52.15200149120173, -32.13103091391546 ], [ -52.153778763282517, -32.130466999187568 ], [ -52.152877070592133, -32.130226547803467 ] ], [ [ -52.151517908368298, -32.128350975528285 ], [ -52.151757834561671, -32.129310680301764 ], [ -52.151766511583681, -32.129370477261283 ], [ -52.151763030083231, -32.129430800111301 ], [ -52.151747531291925, -32.129489201776913 ], [ -52.151720643938397, -32.129543313118603 ], [ -52.151683458743115, -32.129590939039389 ], [ -52.151637484171893, -32.129630147531842 ], [ -52.151584585243036, -32.129659348052463 ], [ -52.151526907870398, -32.129677356044141 ], [ -52.151466791811629, -32.129683440989275 ], [ -52.150989905386417, -32.129683440989275 ], [ -52.150976488754438, -32.129684762412182 ], [ -52.150975167331531, -32.129698179044162 ], [ -52.150975167331531, -32.130006514548363 ], [ -52.150968980272573, -32.130067127712557 ], [ -52.150950674293703, -32.130125240761956 ], [ -52.15092100446271, -32.13017845670413 ], [ -52.150881194572897, -32.130224580537948 ], [ -52.150832886665164, -32.130261709790872 ], [ -52.150778073298653, -32.130288312990388 ], [ -52.150719015363578, -32.13030329283275 ], [ -52.150658148826111, -32.130306031443503 ], [ -52.150597984251945, -32.130296415862993 ], [ -52.150541003252876, -32.13027484270566 ], [ -52.149524035741472, -32.129766358949951 ], [ -52.149477080679318, -32.129737187345633 ], [ -52.149436275135947, -32.129699895684489 ], [ -52.149403004577614, -32.12965575012629 ], [ -52.149378398636017, -32.129606249540444 ], [ -52.14936329275406, -32.129553074615053 ], [ -52.149358199820121, -32.129498030792654 ], [ -52.149358199820121, -32.128366473477868 ], [ -52.149363964236002, -32.128307946381263 ], [ -52.149381035960367, -32.128251668448158 ], [ -52.149408758936431, -32.128199802407963 ], [ -52.149446067785767, -32.128154341443512 ], [ -52.149491528750218, -32.128117032594176 ], [ -52.149543394790413, -32.128089309618112 ], [ -52.149599672723518, -32.128072237893747 ], [ -52.149658199820124, -32.128066473477865 ], [ -52.150151945520939, -32.128066473477865 ], [ -52.15016610588296, -32.128065078803942 ], [ -52.150177104954388, -32.128056052099303 ], [ -52.150574567938961, -32.127658589114731 ], [ -52.150617091047167, -32.127623268502774 ], [ -52.150665372869071, -32.127596349624007 ], [ -52.150717774097153, -32.127578746452244 ], [ -52.150772515558124, -32.127571056666099 ], [ -52.150827738621025, -32.127573541356043 ], [ -52.15088156830312, -32.127586116159669 ], [ -52.151457897833609, -32.127778226003166 ], [ -52.151513444010291, -32.127803263128165 ], [ -52.151562786030851, -32.127839006664367 ], [ -52.151603888682011, -32.127883982295991 ], [ -52.15163505660027, -32.12793633491048 ], [ -52.151655004200649, -32.127993905116419 ], [ -52.151662908703265, -32.128054318312088 ], [ -52.151658444070648, -32.128115082630792 ], [ -52.151641794455756, -32.128173691723063 ], [ -52.151613646606251, -32.12822772813616 ], [ -52.151575161538162, -32.128274963026939 ], [ -52.151525094977934, -32.128325029587167 ], [ -52.151515830012158, -32.128336431598569 ], [ -52.151517908368298, -32.128350975528285 ] ] ], [ [ [ -52.152606872897834, -32.127527484307393 ], [ -52.153385474295796, -32.127527484307393 ], [ -52.153398880603127, -32.127526127321488 ], [ -52.153396945565696, -32.127512792175573 ], [ -52.153134571855041, -32.126463297332933 ], [ -52.153130142524702, -32.126450763034036 ], [ -52.153116908198285, -32.126449505966448 ], [ -52.152606872897834, -32.126449505966448 ], [ -52.152593456265855, -32.126450827389355 ], [ -52.152592134842948, -32.126464244021335 ], [ -52.152592134842948, -32.127512746252506 ], [ -52.152593456265862, -32.127526162884479 ], [ -52.152606872897834, -32.127527484307393 ] ] ], [ [ [ -52.153668756197987, -32.12133084684249 ], [ -52.153655421052072, -32.121332781879921 ], [ -52.152605926209432, -32.121595155590583 ], [ -52.152593391910536, -32.121599584920922 ], [ -52.152592134842948, -32.121612819247339 ], [ -52.152592134842948, -32.122391815687806 ], [ -52.15259347271143, -32.122404922471226 ], [ -52.152605794087947, -32.12240025756541 ], [ -52.153657726096718, -32.121874291561021 ], [ -52.153668901098484, -32.121867348907458 ], [ -52.153670113183892, -32.121854248833031 ], [ -52.153670113183892, -32.121344253149822 ], [ -52.153668756197987, -32.12133084684249 ] ] ], [ [ [ -52.153390197220091, -32.120240709127458 ], [ -52.153141545391982, -32.119992057299349 ], [ -52.153132296735997, -32.119984467123537 ], [ -52.15313112401342, -32.119996373975674 ], [ -52.15313112401342, -32.120236392451133 ], [ -52.153132445436327, -32.120249809083113 ], [ -52.153145862068307, -32.12025113050602 ], [ -52.153385880543766, -32.12025113050602 ], [ -52.153397787395903, -32.120249957783443 ], [ -52.153390197220091, -32.120240709127458 ] ] ], [ [ [ -52.153659691805331, -32.118354247030808 ], [ -52.153411039977215, -32.118105595202699 ], [ -52.15340179132123, -32.118098005026887 ], [ -52.153400618598653, -32.118109911879024 ], [ -52.153400618598653, -32.118349930354483 ], [ -52.15340194002156, -32.118363346986463 ], [ -52.153415356653539, -32.11836466840937 ], [ -52.153655375129006, -32.11836466840937 ], [ -52.153667281981143, -32.118363495686793 ], [ -52.153659691805331, -32.118354247030808 ] ] ], [ [ [ -52.156904048206719, -32.126704262496794 ], [ -52.156904048206719, -32.125116771095158 ], [ -52.156902726783812, -32.125103354463178 ], [ -52.156889310151833, -32.125102033040271 ], [ -52.156380686219848, -32.125102033040271 ], [ -52.15636615327788, -32.125103551219432 ], [ -52.15636011728688, -32.125116858288379 ], [ -52.15609988276794, -32.125897561845193 ], [ -52.156096880259149, -32.125910340585477 ], [ -52.156103139279999, -32.125921879039453 ], [ -52.15662636969509, -32.126706724662085 ], [ -52.156635293120559, -32.126717618785023 ], [ -52.156649307404578, -32.126719000551681 ], [ -52.156889310151833, -32.126719000551681 ], [ -52.156902726783812, -32.126717679128774 ], [ -52.156904048206719, -32.126704262496794 ] ] ], [ [ [ -52.174410774868491, -32.135601900485902 ], [ -52.174162123040375, -32.135353248657793 ], [ -52.174151901905681, -32.135344860389331 ], [ -52.174149501037014, -32.135347785856268 ], [ -52.174124890272246, -32.135385012765106 ], [ -52.174085964313953, -32.135425102408298 ], [ -52.174040278879332, -32.135457277721564 ], [ -52.173989418953326, -32.135480422432565 ], [ -52.173935149041796, -32.135493733571614 ], [ -52.173879351954724, -32.135496749329498 ], [ -52.173823963485098, -32.135489365079195 ], [ -52.173770905249526, -32.13547183700576 ], [ -52.17372201802079, -32.135444773218381 ], [ -52.173678997865096, -32.13540911265298 ], [ -52.17362313386991, -32.135353248657793 ], [ -52.173613885213925, -32.135345658481981 ], [ -52.173612712491348, -32.135357565334118 ], [ -52.173612712491348, -32.135597583809577 ], [ -52.173614033914255, -32.135611000441557 ], [ -52.173627450546235, -32.135612321864464 ], [ -52.173867469021694, -32.135612321864464 ], [ -52.173881923888963, -32.135610898184304 ], [ -52.173888288086921, -32.135608967625963 ], [ -52.173929868965992, -32.135591744261909 ], [ -52.173987549227071, -32.135580270944622 ], [ -52.174046359511273, -32.135580270944615 ], [ -52.174104039772352, -32.135591744261895 ], [ -52.174145620651487, -32.135608967625963 ], [ -52.174151984849431, -32.135610898184304 ], [ -52.1741664397167, -32.135612321864464 ], [ -52.174406458192166, -32.135612321864464 ], [ -52.174418365044303, -32.135611149141887 ], [ -52.174410774868491, -32.135601900485902 ] ] ], [ [ [ -52.186268536618869, -32.14584269472487 ], [ -52.186019884790753, -32.145594042896754 ], [ -52.186010636134768, -32.145586452720941 ], [ -52.186009463412191, -32.145598359573079 ], [ -52.186009463412191, -32.145838378048545 ], [ -52.186010784835098, -32.145851794680524 ], [ -52.186024201467077, -32.145853116103432 ], [ -52.186264219942544, -32.145853116103432 ], [ -52.186276126794681, -32.145851943380855 ], [ -52.186268536618869, -32.14584269472487 ] ] ], [ [ [ -52.234777561961323, -32.064185835398405 ], [ -52.234528910133207, -32.063937183570289 ], [ -52.234517911061786, -32.06392815686565 ], [ -52.234516853893375, -32.063928052743655 ], [ -52.234459173632303, -32.063916579426376 ], [ -52.234404840014435, -32.063894073704958 ], [ -52.234355941050232, -32.063861400461661 ], [ -52.234314355899478, -32.063819815310907 ], [ -52.234281682656182, -32.063770916346705 ], [ -52.234259176934764, -32.063716582728837 ], [ -52.234247703617484, -32.063658902467765 ], [ -52.234247672746498, -32.063658589029401 ], [ -52.234234256114526, -32.063657267606494 ], [ -52.233724743053827, -32.063657267606494 ], [ -52.233711326421847, -32.063658589029401 ], [ -52.23371000499894, -32.063672005661381 ], [ -52.23371000499894, -32.06418151872208 ], [ -52.233711428679101, -32.064195973589349 ], [ -52.233713744549846, -32.06420360799207 ], [ -52.233730924650082, -32.064245546554396 ], [ -52.23374214966185, -32.064305647147862 ], [ -52.233740956847249, -32.064366775368981 ], [ -52.233727395748943, -32.064426392303126 ], [ -52.23371834283089, -32.064446245914596 ], [ -52.233711400854389, -32.064465830674514 ], [ -52.233714496920328, -32.064479227126363 ], [ -52.233974557834813, -32.065259409869803 ], [ -52.233980593825812, -32.06527271693875 ], [ -52.23399512676778, -32.065274235117911 ], [ -52.234068903414276, -32.065274235117911 ], [ -52.234129277386209, -32.065280372933358 ], [ -52.234187180929496, -32.065298535227832 ], [ -52.234198487129817, -32.06530480872032 ], [ -52.234236505324539, -32.065279272550285 ], [ -52.234247632226939, -32.065273325097046 ], [ -52.234248994169413, -32.065259497063025 ], [ -52.234248994169413, -32.06449625677697 ], [ -52.234254758585294, -32.064437729680364 ], [ -52.234271830309659, -32.064381451747259 ], [ -52.234299553285723, -32.064329585707064 ], [ -52.234336862135059, -32.064284124742613 ], [ -52.23438232309951, -32.064246815893277 ], [ -52.234434189139705, -32.064219092917213 ], [ -52.23449046707281, -32.064202021192848 ], [ -52.234548994169415, -32.064196256776967 ], [ -52.234773245284998, -32.064196256776967 ], [ -52.234785152137135, -32.06419508405439 ], [ -52.234777561961323, -32.064185835398405 ] ] ], [ [ [ -52.234248994169413, -32.065827581368069 ], [ -52.234248994169413, -32.066337475403962 ], [ -52.23425031559232, -32.066350892035942 ], [ -52.234263732224299, -32.066352213458849 ], [ -52.234503217254542, -32.066352213458849 ], [ -52.234516324037969, -32.066350875590366 ], [ -52.234511659132167, -32.066338554213885 ], [ -52.23425541485063, -32.065826065650811 ], [ -52.234249973509925, -32.065817372841366 ], [ -52.234248994169413, -32.065827581368069 ] ] ] ] } },
{ "type": "Feature", "properties": { "tipo_cultura": "Outras Lavouras Temporarias", "classe": 41 }, "geometry": { "type": "MultiPolygon", "coordinates": [ [ [ [ -52.129941748299998, -32.160938392200002 ], [ -52.129429259799998, -32.160682147899998 ], [ -52.129416938399999, -32.160677483 ], [ -52.129415600500003, -32.160690589799998 ], [ -52.129415600500003, -32.160728897299997 ], [ -52.129409413499999, -32.160789510400001 ], [ -52.129391107499998, -32.160847623499997 ], [ -52.129361437599997, -32.1609008394 ], [ -52.129321627800003, -32.160946963299999 ], [ -52.129273319799999, -32.160984092500001 ], [ -52.129218506500003, -32.1610106957 ], [ -52.129159448499998, -32.161025675499999 ], [ -52.129098582, -32.161028414199997 ], [ -52.129038417399997, -32.161018798599997 ], [ -52.128981436399997, -32.160997225400003 ], [ -52.128890270600003, -32.160951642500002 ], [ -52.128877949200003, -32.160946977599998 ], [ -52.128876611300001, -32.160960084400003 ], [ -52.128876611300001, -32.161199569399997 ], [ -52.1288779327, -32.161212986099997 ], [ -52.1288913494, -32.161214307500003 ], [ -52.129401243399997, -32.161214307500003 ], [ -52.129414389499999, -32.1612130464 ], [ -52.129415617600003, -32.161204084200001 ], [ -52.129430126599999, -32.1611444479 ], [ -52.129456468800001, -32.161089012399998 ], [ -52.129493541499997, -32.161040098100003 ], [ -52.129539793, -32.160999752199999 ], [ -52.129593287600002, -32.160969663400003 ], [ -52.129651786099998, -32.160951091199998 ], [ -52.12971284, -32.160944812899999 ], [ -52.129940232599999, -32.160944812899999 ], [ -52.1299504411, -32.160943833600001 ], [ -52.129941748299998, -32.160938392200002 ] ] ], [ [ [ -52.1383020922, -32.121315449599997 ], [ -52.138045847900003, -32.120802961 ], [ -52.138040406499996, -32.120794268200001 ], [ -52.138039427199999, -32.120804476799997 ], [ -52.138039427199999, -32.1213143708 ], [ -52.138040748599998, -32.1213277875 ], [ -52.138054165299998, -32.121329108799998 ], [ -52.1382936503, -32.121329108799998 ], [ -52.138306757099997, -32.121327771 ], [ -52.1383020922, -32.121315449599997 ] ] ], [ [ [ -52.165517453600003, -32.138835835499997 ], [ -52.165009891, -32.138328272899997 ], [ -52.164972407900002, -32.138282551 ], [ -52.1644581507, -32.137511165100001 ], [ -52.16444939, -32.137500488 ], [ -52.164436219499997, -32.137504645600004 ], [ -52.162575544900001, -32.138302077500001 ], [ -52.162564255200003, -32.138308138200003 ], [ -52.162557542099997, -32.138319052500002 ], [ -52.162300792099998, -32.138832552399997 ], [ -52.162295987699999, -32.1388452554 ], [ -52.162308964399998, -32.138849261799997 ], [ -52.163626935300002, -32.139112856 ], [ -52.1636407835, -32.139114232099999 ], [ -52.163649602600003, -32.139103466900004 ], [ -52.164091342, -32.138440857699997 ], [ -52.164128647699997, -32.138395313300002 ], [ -52.164174129499997, -32.138357931500003 ], [ -52.164226036099997, -32.1383301519 ], [ -52.164282368499997, -32.1383130444 ], [ -52.164340957100002, -32.1383072677 ], [ -52.164691890299999, -32.1383072677 ], [ -52.164754538099999, -32.138313881899997 ], [ -52.164814423599999, -32.138333432700001 ], [ -52.164868906, -32.138365058200002 ], [ -52.164915582900001, -32.138407363699997 ], [ -52.164952396300002, -32.138458483900003 ], [ -52.164977722800003, -32.1385161647 ], [ -52.164989844099999, -32.138574945099997 ], [ -52.1649899879, -32.138575419299997 ], [ -52.1649905206, -32.138575471800003 ], [ -52.165048200900003, -32.138586945100002 ], [ -52.165102534500001, -32.138609450799997 ], [ -52.1651514335, -32.138642124 ], [ -52.1651930186, -32.138683709200002 ], [ -52.165225691899998, -32.1387326081 ], [ -52.1652481976, -32.138786941799999 ], [ -52.165259670899999, -32.138844622 ], [ -52.165259701799997, -32.138844935500003 ], [ -52.165273118400002, -32.138846256900003 ], [ -52.165513136900003, -32.138846256900003 ], [ -52.165525043800002, -32.1388450842 ], [ -52.165517453600003, -32.138835835499997 ] ] ], [ [ [ -52.176570323299998, -32.063913102900003 ], [ -52.176314079, -32.063400614400003 ], [ -52.176308637600002, -32.063391921600001 ], [ -52.176307658299997, -32.063402130100002 ], [ -52.176307658299997, -32.063912024099999 ], [ -52.176308979700003, -32.063925440799999 ], [ -52.176322396400003, -32.063926762199998 ], [ -52.176561881399998, -32.063926762199998 ], [ -52.176574988200002, -32.063925424300002 ], [ -52.176570323299998, -32.063913102900003 ] ] ], [ [ [ -52.207558608900001, -32.051789084500001 ], [ -52.207333959899998, -32.0515644356 ], [ -52.207302719300003, -32.051527716599999 ], [ -52.207277763800001, -32.0514864676 ], [ -52.207036234599997, -32.0510034092 ], [ -52.2070292919, -32.050992234100001 ], [ -52.207016191900003, -32.0509910221 ], [ -52.206236288200003, -32.0509910221 ], [ -52.206223133899996, -32.050992317 ], [ -52.206225662, -32.051018200100003 ], [ -52.206225689, -32.051076249399998 ], [ -52.206214535800001, -32.051133217199997 ], [ -52.20619262, -32.0511869706 ], [ -52.206160762099998, -32.051235496799997 ], [ -52.206120154899999, -32.051276979199997 ], [ -52.206072318899999, -32.051309864399997 ], [ -52.206019045, -32.0513329212 ], [ -52.205962327899996, -32.051345286299998 ], [ -52.2059042912, -32.051346496800001 ], [ -52.205847107799997, -32.051336507400002 ], [ -52.2057929188, -32.051315692 ], [ -52.205726111799997, -32.051282288499998 ], [ -52.205684862799998, -32.051257333 ], [ -52.205648143799998, -32.0512260924 ], [ -52.205419339800002, -32.050997288399998 ], [ -52.205405611700002, -32.050986767099999 ], [ -52.205405576, -32.050986737800002 ], [ -52.203537887099998, -32.049919487 ], [ -52.2035263191, -32.049914144900001 ], [ -52.203513624700001, -32.049913043799997 ], [ -52.202476134, -32.049913043799997 ], [ -52.202413486200001, -32.0499064296 ], [ -52.2023536007, -32.049886878700001 ], [ -52.202299118299997, -32.049855253300002 ], [ -52.202252441399999, -32.049812947699998 ], [ -52.202215628, -32.049761827499999 ], [ -52.202190301500003, -32.049704146800003 ], [ -52.202178180399997, -32.049645367300002 ], [ -52.202177839400001, -32.049644243300001 ], [ -52.202168717100001, -32.0496331278 ], [ -52.201920065300001, -32.049384476 ], [ -52.201910713399997, -32.049376801 ], [ -52.2018994612, -32.049433369699997 ], [ -52.201876955499998, -32.049487703300002 ], [ -52.2018442822, -32.049536602300002 ], [ -52.2018026971, -32.049578187400002 ], [ -52.2017537981, -32.0496108607 ], [ -52.201699464500003, -32.049633366400002 ], [ -52.2016417842, -32.049644839700001 ], [ -52.201641470799999, -32.049644870599998 ], [ -52.201640149399999, -32.049658287200003 ], [ -52.201640149399999, -32.049898305699998 ], [ -52.201641470699997, -32.049911722399997 ], [ -52.201654887399997, -32.049913043799997 ], [ -52.201894905899998, -32.049913043799997 ], [ -52.201909360800002, -32.049911620099998 ], [ -52.201921821900001, -32.04990784 ], [ -52.201959386200002, -32.049892706199998 ], [ -52.202023092200001, -32.049881953400003 ], [ -52.202087623099999, -32.0498850898 ], [ -52.202149986099997, -32.049901969799997 ], [ -52.202207288799997, -32.0499318106 ], [ -52.202976090200004, -32.050444344900001 ], [ -52.202988126, -32.050450852499999 ], [ -52.203001152100001, -32.050455039600003 ], [ -52.2051781527, -32.050938817499997 ], [ -52.205233159599999, -32.050956756600002 ], [ -52.2052837, -32.050984921400001 ], [ -52.205327893800003, -32.0510222642 ], [ -52.205364097299999, -32.051067396100002 ], [ -52.205390963900001, -32.051118638299997 ], [ -52.205407494299997, -32.051174084899998 ], [ -52.205413073499997, -32.0512316736 ], [ -52.205413073499997, -32.051245778599998 ], [ -52.205414394899996, -32.051259195199997 ], [ -52.205414708399999, -32.051259226100001 ], [ -52.205472388700002, -32.051270699500002 ], [ -52.2055267223, -32.051293205199997 ], [ -52.2055756213, -32.0513258784 ], [ -52.205617206399999, -32.051367463600002 ], [ -52.205649879600003, -32.051416362499999 ], [ -52.2056723854, -32.051470696099997 ], [ -52.205683858699999, -32.0515283764 ], [ -52.205683889600003, -32.051528689900003 ], [ -52.205697306200001, -32.051530011300002 ], [ -52.206207200199998, -32.051530011300002 ], [ -52.206221161899997, -32.051528671900002 ], [ -52.206246361200002, -32.051515610400003 ], [ -52.206246409, -32.051515702700001 ], [ -52.206252976599998, -32.051511528 ], [ -52.206310869100001, -32.051489758 ], [ -52.206371995600001, -32.0514803226 ], [ -52.206433757900001, -32.051483623 ], [ -52.206493530800003, -32.051499518900002 ], [ -52.206548773599998, -32.051527334500001 ], [ -52.206597138200003, -32.051565887599999 ], [ -52.206636568900002, -32.051613539400002 ], [ -52.206741779600002, -32.051771355600003 ], [ -52.206771620399998, -32.051828658300003 ], [ -52.206788500400002, -32.051891021300001 ], [ -52.206791636799998, -32.051955552199999 ], [ -52.206780884099999, -32.052019258199998 ], [ -52.206765750300001, -32.052056822 ], [ -52.206761970199999, -32.052069283599998 ], [ -52.2067605465, -32.052083738500002 ], [ -52.2067605465, -32.052307989600003 ], [ -52.206754782099999, -32.052366516699998 ], [ -52.206737710299997, -32.052422794599998 ], [ -52.206709987399996, -32.0524746607 ], [ -52.206672678499999, -32.052520121599997 ], [ -52.206627217499999, -32.052557430500002 ], [ -52.2065753515, -32.052585153499997 ], [ -52.206519073599999, -32.052602225199998 ], [ -52.206460546499997, -32.052607989599998 ], [ -52.205158473399997, -32.052607989599998 ], [ -52.205151711600003, -32.052608662700003 ], [ -52.205158270699997, -32.052610438199999 ], [ -52.206746266, -32.052875104100004 ], [ -52.206759289499999, -32.052876000399998 ], [ -52.2067605465, -32.052863006800003 ], [ -52.2067605465, -32.052635490500002 ], [ -52.206767160600002, -32.052572842700002 ], [ -52.206786711500001, -32.052512957200001 ], [ -52.206818337, -32.052458474799998 ], [ -52.206860642499997, -32.0524117979 ], [ -52.206911762700003, -32.052374984499998 ], [ -52.2069694435, -32.052349658 ], [ -52.207028223199998, -32.052337536899998 ], [ -52.207028698099997, -32.052337392799998 ], [ -52.207028750500001, -32.052336860200001 ], [ -52.2070402238, -32.052279179899998 ], [ -52.207062729500002, -32.0522248463 ], [ -52.2070954028, -32.0521759473 ], [ -52.2071369879, -32.0521343622 ], [ -52.2071858869, -32.052101688900002 ], [ -52.207240220499997, -32.0520791832 ], [ -52.2072979008, -32.052067709900001 ], [ -52.207298214200001, -32.052067679 ], [ -52.207298245099999, -32.052067365600003 ], [ -52.207309718399998, -32.0520096853 ], [ -52.2073322241, -32.051955351700002 ], [ -52.207364897399998, -32.051906452700003 ], [ -52.207406482499998, -32.051864867600003 ], [ -52.207455381499997, -32.051832194299998 ], [ -52.207509715100002, -32.051809688600002 ], [ -52.207566283799999, -32.051798436399999 ], [ -52.207558608900001, -32.051789084500001 ] ] ], [ [ [ -52.210520629299999, -32.049367633899998 ], [ -52.209994481499997, -32.04910456 ], [ -52.209544935, -32.048879786800001 ], [ -52.209490893599998, -32.048845079400003 ], [ -52.209445478299997, -32.048799664199997 ], [ -52.209410771, -32.048745622699997 ], [ -52.209192588800001, -32.048309258400003 ], [ -52.209185289399997, -32.048297662700001 ], [ -52.209157697800002, -32.048302374099997 ], [ -52.209103242099999, -32.048306628100001 ], [ -52.209048917600001, -32.048300938 ], [ -52.208996525300002, -32.048285492200002 ], [ -52.208947802, -32.048260802900003 ], [ -52.2089043629, -32.048227688499999 ], [ -52.2088676479, -32.048187246799998 ], [ -52.208838874199998, -32.048140818299999 ], [ -52.208653202100002, -32.047769474200003 ], [ -52.2086462595, -32.047758299100003 ], [ -52.208633159400001, -32.047757087100003 ], [ -52.207853262900002, -32.047757087100003 ], [ -52.207839846200002, -32.047758408500002 ], [ -52.207838524800003, -32.0477718251 ], [ -52.207838524800003, -32.047999080799997 ], [ -52.2078319106, -32.048061728599997 ], [ -52.207812359800002, -32.048121614 ], [ -52.207780734300002, -32.048176096399999 ], [ -52.207738428799999, -32.048222773399999 ], [ -52.207687308600001, -32.0482595868 ], [ -52.207629627800003, -32.048284913300002 ], [ -52.207570847200003, -32.048297034599997 ], [ -52.207570372299998, -32.048297178699997 ], [ -52.207559640500001, -32.048352372700002 ], [ -52.207538792500003, -32.0484046033 ], [ -52.207508562800001, -32.0484520252 ], [ -52.207470013699997, -32.048492972 ], [ -52.2074244999, -32.048526004899998 ], [ -52.207373620799999, -32.048549962899997 ], [ -52.207319164300003, -32.048564004200003 ], [ -52.207299936699997, -32.048567077199998 ], [ -52.2072858764, -32.048572400499999 ], [ -52.206984486800003, -32.048723095299998 ], [ -52.206928878600003, -32.048744299399999 ], [ -52.206870178800003, -32.048754109299999 ], [ -52.206810697599998, -32.048752138700003 ], [ -52.2067527759, -32.048738465200003 ], [ -52.206698693, -32.048713627 ], [ -52.2066505775, -32.048678601500001 ], [ -52.206610322700001, -32.048634767099998 ], [ -52.205981661099997, -32.047796551600001 ], [ -52.205952108799998, -32.047748239 ], [ -52.205932162899998, -32.047695233200002 ], [ -52.205922534199999, -32.0476394234 ], [ -52.205923565900001, -32.047582798500002 ], [ -52.205935221200001, -32.0475273765 ], [ -52.205947082800002, -32.047499032499999 ], [ -52.205950639, -32.047487309300003 ], [ -52.2059507584, -32.0474860976 ], [ -52.205961800499999, -32.047429851899999 ], [ -52.205983338400003, -32.047376732899998 ], [ -52.206014586, -32.047328679700001 ], [ -52.206054402500001, -32.047287446699997 ], [ -52.206101334300001, -32.047254539 ], [ -52.206153668299997, -32.047231158 ], [ -52.206209493899998, -32.0472181572 ], [ -52.206220502900003, -32.0472166829 ], [ -52.206226373500002, -32.047203649300002 ], [ -52.206486528799999, -32.0464231833 ], [ -52.206489529300001, -32.046410161700003 ], [ -52.206478922899997, -32.046402033500001 ], [ -52.204348109500003, -32.045070275199997 ], [ -52.204335014199998, -32.045063846200001 ], [ -52.204321368400002, -32.045069004600002 ], [ -52.203808811099996, -32.045325283300002 ], [ -52.203797269699997, -32.045332491400004 ], [ -52.203794719800001, -32.045342253199998 ], [ -52.203789166100002, -32.045376605599998 ], [ -52.203769935499999, -32.045429559200002 ], [ -52.203741143599999, -32.045477983799998 ], [ -52.203703805799996, -32.0455201714 ], [ -52.203659238900002, -32.0455546345 ], [ -52.203609014599998, -32.0455801576 ], [ -52.203554904, -32.045595840499999 ], [ -52.203498815499998, -32.045601130400001 ], [ -52.203002360299998, -32.045601130400001 ], [ -52.202988943699999, -32.045602451800001 ], [ -52.2029876223, -32.045615868500001 ], [ -52.2029876223, -32.045856409199999 ], [ -52.202988879300001, -32.045869643499998 ], [ -52.203001413599999, -32.045874072799997 ], [ -52.204050908500001, -32.0461364465 ], [ -52.204064986500001, -32.046138489400001 ], [ -52.204065606199997, -32.046137762699999 ], [ -52.204098594199998, -32.046090287699997 ], [ -52.204143351500001, -32.046047936900003 ], [ -52.204195817299997, -32.046015623599999 ], [ -52.2042537783, -32.045994711200002 ], [ -52.204314789400001, -32.045986081800002 ], [ -52.2043762765, -32.045990099500003 ], [ -52.204435645799997, -32.046006594700003 ], [ -52.204490392700002, -32.046034871700002 ], [ -52.204538207600002, -32.0460737374 ], [ -52.204863663, -32.046399192800003 ], [ -52.204874662100003, -32.046408219500002 ], [ -52.204888822400001, -32.046409614200002 ], [ -52.205233667, -32.046409614200002 ], [ -52.205289970400003, -32.046414945 ], [ -52.2053442729, -32.046430748 ], [ -52.205394644499997, -32.046456461600002 ], [ -52.205439295300003, -32.046491171900001 ], [ -52.205476638199997, -32.046533645399997 ], [ -52.205505346199999, -32.0465823726 ], [ -52.2055243991, -32.0466356218 ], [ -52.2055331197, -32.046691500599998 ], [ -52.205531198099997, -32.046748023200003 ], [ -52.205518702600003, -32.046803180700003 ], [ -52.205496077299998, -32.046855013 ], [ -52.205464126300001, -32.046901678 ], [ -52.205423985, -32.046941517299999 ], [ -52.205414452500001, -32.046949340399998 ], [ -52.205413073499997, -32.046963341400001 ], [ -52.205413073499997, -32.047203359900003 ], [ -52.205414394899996, -32.047216776500001 ], [ -52.205414708399999, -32.047216807399998 ], [ -52.205472388700002, -32.047228280699997 ], [ -52.2055267223, -32.047250786399999 ], [ -52.2055756213, -32.047283459600003 ], [ -52.205617206399999, -32.047325044799997 ], [ -52.205649879600003, -32.047373943799997 ], [ -52.2056723854, -32.047428277400002 ], [ -52.205683858699999, -32.047485957600003 ], [ -52.205683911199998, -32.047486490300003 ], [ -52.2057086031, -32.047493980600002 ], [ -52.205715428700003, -32.047495349 ], [ -52.205770492399999, -32.047518450399998 ], [ -52.205819889899999, -32.047551999900001 ], [ -52.205861664300002, -32.0475946683 ], [ -52.205894160299998, -32.047644765199998 ], [ -52.205916090599999, -32.047700305699998 ], [ -52.205926586300002, -32.047759089499998 ], [ -52.205925231599998, -32.047818787499999 ], [ -52.205912080200001, -32.047877034599999 ], [ -52.205695482599999, -32.048526827300002 ], [ -52.205680709299997, -32.048560057400003 ], [ -52.205683677899998, -32.048564426200002 ], [ -52.205696273400001, -32.048572423499998 ], [ -52.2072858764, -32.049367225 ], [ -52.2072981978, -32.049371889900002 ], [ -52.207299535600001, -32.049358783099997 ], [ -52.207299535600001, -32.048865570799997 ], [ -52.207305300100003, -32.048807043700002 ], [ -52.207322371799997, -32.048750765800001 ], [ -52.207350094799999, -32.048698899800002 ], [ -52.207387403600002, -32.048653438800002 ], [ -52.207432864600001, -32.048616129899997 ], [ -52.207484730600001, -32.048588407 ], [ -52.207541008500002, -32.048571335200002 ], [ -52.207599535600004, -32.048565570800001 ], [ -52.207823786799999, -32.048565570800001 ], [ -52.207837422600001, -32.048564227900002 ], [ -52.2078375667, -32.048563752699998 ], [ -52.2078496878, -32.048504973199996 ], [ -52.207875014300001, -32.048447292500001 ], [ -52.2079118276, -32.048396172300002 ], [ -52.207958504600001, -32.048353866699998 ], [ -52.208012987, -32.048322241299999 ], [ -52.208072872400002, -32.0483026904 ], [ -52.208135520299997, -32.048296076200003 ], [ -52.208347008600001, -32.048296076200003 ], [ -52.208405535700003, -32.048301840699999 ], [ -52.208461813600003, -32.048318912399999 ], [ -52.208513679600003, -32.048346635400002 ], [ -52.208559140600002, -32.048383944199998 ], [ -52.2085964495, -32.048429405199997 ], [ -52.2086241724, -32.048481271199996 ], [ -52.208641244200003, -32.048537549199999 ], [ -52.208647008600003, -32.048596076199999 ], [ -52.208647008600003, -32.048820327400001 ], [ -52.20864833, -32.048833744 ], [ -52.208661746600001, -32.048835065399999 ], [ -52.209158496800001, -32.048835065399999 ], [ -52.209221144700003, -32.048841679600002 ], [ -52.209281030100001, -32.0488612304 ], [ -52.209335512499997, -32.0488928559 ], [ -52.209382189499998, -32.048935161400003 ], [ -52.209419002899999, -32.048986281700003 ], [ -52.2094443294, -32.049043962399999 ], [ -52.209456450700003, -32.049102742899997 ], [ -52.209456594499997, -32.049103217 ], [ -52.209470230400001, -32.04910456 ], [ -52.209697486, -32.04910456 ], [ -52.209760133899998, -32.0491111742 ], [ -52.209820019299997, -32.049130725 ], [ -52.2098745017, -32.049162350499998 ], [ -52.2099211787, -32.049204656 ], [ -52.209957992, -32.049255776199999 ], [ -52.209983318600003, -32.049313457 ], [ -52.2099954396, -32.049372236499998 ], [ -52.2099955837, -32.0493727116 ], [ -52.210009219600003, -32.049374054600001 ], [ -52.2105191136, -32.049374054600001 ], [ -52.210529322100001, -32.049373075299997 ], [ -52.210520629299999, -32.049367633899998 ] ] ], [ [ [ -52.205131564200002, -32.048557561 ], [ -52.2051104409, -32.048543478799999 ], [ -52.205066577700002, -32.048507838299997 ], [ -52.205030177300003, -32.048464603600003 ], [ -52.205002531799998, -32.048415309 ], [ -52.204984622200001, -32.048361704199998 ], [ -52.204977084299998, -32.048305691700001 ], [ -52.204980185499998, -32.0482492593 ], [ -52.2049938157, -32.04819441 ], [ -52.2050174914, -32.048143090499998 ], [ -52.205050372, -32.048097122100003 ], [ -52.205091290699997, -32.048058136400002 ], [ -52.205138795300002, -32.0480275169 ], [ -52.205140815900002, -32.048026469600003 ], [ -52.205130737600001, -32.048020161 ], [ -52.204618249, -32.047763916699999 ], [ -52.204605292499998, -32.047759011300002 ], [ -52.204597536, -32.047772923399997 ], [ -52.204565059099998, -32.047819984100002 ], [ -52.204524243400002, -32.047860028199999 ], [ -52.204476571400001, -32.047891601 ], [ -52.204423775, -32.047913555500003 ], [ -52.204367772200001, -32.047925094199996 ], [ -52.204310597400003, -32.0479257979 ], [ -52.204254327599998, -32.047915641 ], [ -52.204201006799998, -32.0478949926 ], [ -52.204152572200002, -32.047864602700002 ], [ -52.204110783200001, -32.047825575300003 ], [ -52.204077157900002, -32.047779328200001 ], [ -52.204064876499999, -32.047758521200002 ], [ -52.204051617200001, -32.047759883799998 ], [ -52.203771035800003, -32.047816 ], [ -52.203714541700002, -32.047821816700001 ], [ -52.203657963600001, -32.047816882299998 ], [ -52.203603329300002, -32.047801373600002 ], [ -52.203552596800002, -32.047775846500002 ], [ -52.203546486100002, -32.047771145200002 ], [ -52.203513770100002, -32.047750666399999 ], [ -52.203001281500001, -32.047494422100002 ], [ -52.202988960200003, -32.047489757199997 ], [ -52.2029876223, -32.047502864 ], [ -52.2029876223, -32.047571812199998 ], [ -52.202981857899999, -32.047630339299999 ], [ -52.202964786099997, -32.0476866172 ], [ -52.202937063199997, -32.0477384832 ], [ -52.202899754299999, -32.047783944199999 ], [ -52.202854293400001, -32.047821253099997 ], [ -52.2028024273, -32.047848976 ], [ -52.202746149399999, -32.047866047799999 ], [ -52.202687622299997, -32.0478718122 ], [ -52.202629095200002, -32.047866047799999 ], [ -52.202572817300002, -32.047848976 ], [ -52.2025209512, -32.047821253099997 ], [ -52.202475490200001, -32.047783944199999 ], [ -52.202459054499997, -32.047767508500002 ], [ -52.202449805800001, -32.047759918300002 ], [ -52.202448633099998, -32.0477718251 ], [ -52.202448633099998, -32.048011843600001 ], [ -52.202449954499997, -32.048025260199999 ], [ -52.202450169700001, -32.048025281400001 ], [ -52.202507992400001, -32.048036798 ], [ -52.202562446100004, -32.048059400900001 ], [ -52.202611427500003, -32.048092217300002 ], [ -52.202653045, -32.048133979500001 ], [ -52.202685691, -32.048183074699999 ], [ -52.202708104700001, -32.048237606599997 ], [ -52.2027193443, -32.048295080499997 ], [ -52.202731919100003, -32.048299524100003 ], [ -52.203782507900002, -32.048562171299999 ], [ -52.203812946, -32.048566821500003 ], [ -52.2038735442, -32.0485826954 ], [ -52.203929524800003, -32.048610807599999 ], [ -52.203978446900003, -32.048649932300002 ], [ -52.204018177599998, -32.048698363600003 ], [ -52.204046984500003, -32.0487539899 ], [ -52.204063611499997, -32.0488143858 ], [ -52.204066769199997, -32.048833460899999 ], [ -52.204079750600002, -32.048831527899999 ], [ -52.205129570099999, -32.048569073 ], [ -52.2051407931, -32.048565088300002 ], [ -52.205131564200002, -32.048557561 ] ] ], [ [ [ -52.2072913644, -32.045319379 ], [ -52.206769067, -32.044535932800002 ], [ -52.206759897700003, -32.044524830199997 ], [ -52.206745644500003, -32.044526877499997 ], [ -52.2056965437, -32.044789152699998 ], [ -52.2056848864, -32.044793288800001 ], [ -52.205692754499999, -32.044802833 ], [ -52.206211135899999, -32.045321214399998 ], [ -52.206222135, -32.045330241099997 ], [ -52.206236295399997, -32.045331635799997 ], [ -52.207284804700002, -32.045331635799997 ], [ -52.207297246899998, -32.045330411 ], [ -52.2072913644, -32.045319379 ] ] ], [ [ [ -52.207823786799999, -32.038863765800002 ], [ -52.206775284499997, -32.038863765800002 ], [ -52.206761867899999, -32.0388650871 ], [ -52.2067605465, -32.038878503799999 ], [ -52.2067605465, -32.038917344700003 ], [ -52.206754359400001, -32.038977957900002 ], [ -52.2067360534, -32.039036071 ], [ -52.2067063836, -32.039089286900001 ], [ -52.206666573699998, -32.039135410699998 ], [ -52.206618265800003, -32.03917254 ], [ -52.206563452399998, -32.039199143200001 ], [ -52.206504394500001, -32.039214123 ], [ -52.206443528, -32.039216861600003 ], [ -52.206383363400001, -32.039207246099998 ], [ -52.2063263824, -32.039185672899997 ], [ -52.206235216499998, -32.03914009 ], [ -52.2062228952, -32.0391354251 ], [ -52.206221557299997, -32.039148531899997 ], [ -52.206221557299997, -32.039388016899998 ], [ -52.206222878699997, -32.039401433599998 ], [ -52.206236295399997, -32.039402754900003 ], [ -52.2067461894, -32.039402754900003 ], [ -52.206759708200003, -32.039401458 ], [ -52.206765921600002, -32.0393905743 ], [ -52.206777496599997, -32.039364688399999 ], [ -52.206809264199997, -32.039318897699999 ], [ -52.206848953399998, -32.039279773099999 ], [ -52.206895194499999, -32.039248664799999 ], [ -52.206946391700001, -32.039226646499998 ], [ -52.207000778199998, -32.039214477800002 ], [ -52.207056477, -32.039212578899999 ], [ -52.207111566, -32.039221015199999 ], [ -52.207823832700001, -32.039399081900001 ], [ -52.207837167800001, -32.039401017 ], [ -52.207838524800003, -32.039387610600002 ], [ -52.207838524800003, -32.038878503799999 ], [ -52.207837203399997, -32.0388650871 ], [ -52.207823786799999, -32.038863765800002 ] ] ], [ [ [ -52.211870522200002, -32.0450517198 ], [ -52.211621870400002, -32.044803068 ], [ -52.211612621699999, -32.044795477800001 ], [ -52.211611449, -32.0448073847 ], [ -52.211611449, -32.044860912200001 ], [ -52.211605690200003, -32.0449194113 ], [ -52.2115886347, -32.044975664500001 ], [ -52.211560937400002, -32.045027512099999 ], [ -52.211523661699999, -32.045072963499997 ], [ -52.211478238700003, -32.045110273799999 ], [ -52.211426412199998, -32.045138010499997 ], [ -52.211370172, -32.045155108800003 ], [ -52.211311677200001, -32.045160912100002 ], [ -52.211253173800003, -32.0451551978 ], [ -52.211196907599998, -32.045138185100001 ], [ -52.211145039, -32.045110527299997 ], [ -52.211084376199999, -32.045070085500001 ], [ -52.211074464100001, -32.045064765399999 ], [ -52.211076988800002, -32.045075728 ], [ -52.211095636800003, -32.045131672099998 ], [ -52.211108599399999, -32.045188414800002 ], [ -52.211110360900001, -32.045246592600002 ], [ -52.211100855200002, -32.045304015699998 ], [ -52.21108044, -32.045358522400001 ], [ -52.211049883800001, -32.045408061 ], [ -52.211010336800001, -32.045450766899997 ], [ -52.210963287600002, -32.045485032599998 ], [ -52.210910507199998, -32.045509568100002 ], [ -52.210853982400003, -32.04552345 ], [ -52.210795840899998, -32.045526155600001 ], [ -52.210738271099999, -32.045517583200002 ], [ -52.210107000599997, -32.045359765599997 ], [ -52.210054854900001, -32.045341483500003 ], [ -52.2100069468, -32.045313947499999 ], [ -52.209964901799999, -32.0452780918 ], [ -52.209930146200001, -32.045235132899997 ], [ -52.2094640965, -32.044536058299997 ], [ -52.209454987800001, -32.044525051699999 ], [ -52.209441618500001, -32.044530089 ], [ -52.2092862971, -32.044607749699999 ], [ -52.209230086600002, -32.044629116599999 ], [ -52.209170744, -32.0446388437 ], [ -52.209110653499998, -32.044636540100001 ], [ -52.209052229699999, -32.0446222984 ], [ -52.20899782, -32.044596690799999 ], [ -52.208949610499999, -32.044560746199998 ], [ -52.208923616699998, -32.044531661400001 ], [ -52.208915664199999, -32.044524244400002 ], [ -52.208903661800001, -32.044516731400002 ], [ -52.208391173199999, -32.044260487099997 ], [ -52.208378851900001, -32.0442558222 ], [ -52.208377514, -32.044268929 ], [ -52.208377514, -32.044508414 ], [ -52.208378835399998, -32.044521830699999 ], [ -52.208392252, -32.044523152099998 ], [ -52.208619342900001, -32.044523152099998 ], [ -52.208680949600001, -32.044529545800003 ], [ -52.208739930299998, -32.044548454599997 ], [ -52.208793771, -32.044579072399998 ], [ -52.208840176599999, -32.044620094199999 ], [ -52.208877169099999, -32.044669771300001 ], [ -52.208903171800003, -32.044725986300001 ], [ -52.208917076200002, -32.044786343 ], [ -52.208917787099999, -32.044792093300003 ], [ -52.208926547399997, -32.044802690899999 ], [ -52.209572090800002, -32.045448234299997 ], [ -52.209611353, -32.045496656399997 ], [ -52.2096397599, -32.045552147599999 ], [ -52.209656085, -32.045612311600003 ], [ -52.209659623199997, -32.045674550699999 ], [ -52.209650221899999, -32.0457361773 ], [ -52.209628286899999, -32.045794530400002 ], [ -52.209462322, -32.046126460300002 ], [ -52.209457657100003, -32.046138781700002 ], [ -52.209470763799999, -32.046140119599997 ], [ -52.211057721800003, -32.046140119599997 ], [ -52.211071224100003, -32.046138789700002 ], [ -52.211081547299997, -32.046085295 ], [ -52.211101865899998, -32.0460337596 ], [ -52.211131313599999, -32.045986838600001 ], [ -52.211168886400003, -32.045946132 ], [ -52.211213303199997, -32.045913027700003 ], [ -52.211263049499998, -32.045888654499997 ], [ -52.211316429100002, -32.045873843499997 ], [ -52.211341586400003, -32.045869312400001 ], [ -52.211354729699998, -32.045864237300002 ], [ -52.211868188799997, -32.0456075078 ], [ -52.211878622699999, -32.045600985900002 ], [ -52.211869078299998, -32.045593220199997 ], [ -52.2118478147, -32.045579044500002 ], [ -52.211804198, -32.045543646 ], [ -52.2117679451, -32.045500737 ], [ -52.211740326799998, -32.0454518218 ], [ -52.211722311599999, -32.045398615499998 ], [ -52.2117145311, -32.045342983399998 ], [ -52.211717258100002, -32.0452868761 ], [ -52.211730396900002, -32.045232260799999 ], [ -52.211753486900001, -32.045181052300002 ], [ -52.211785718599998, -32.045135045899997 ], [ -52.211825961899997, -32.045095854800003 ], [ -52.211872805699997, -32.045064853 ], [ -52.211878710199997, -32.045061697 ], [ -52.211870522200002, -32.0450517198 ] ] ], [ [ [ -52.210253554700003, -32.040470311900002 ], [ -52.210004902900003, -32.040221660100002 ], [ -52.2099956542, -32.040214069900003 ], [ -52.209994481499997, -32.0402259767 ], [ -52.209994481499997, -32.040465995200002 ], [ -52.209995802900004, -32.040479411900002 ], [ -52.210009219600003, -32.040480733300001 ], [ -52.210249238, -32.040480733300001 ], [ -52.210261144900002, -32.040479560599998 ], [ -52.210253554700003, -32.040470311900002 ] ] ], [ [ [ -52.2172641489, -32.041841579100002 ], [ -52.216200255099999, -32.043969366500001 ], [ -52.216194704499998, -32.043984410299998 ], [ -52.2161961013, -32.044000384500002 ], [ -52.216393840499997, -32.044989080500002 ], [ -52.216399640200002, -32.045043959300003 ], [ -52.216395289700003, -32.045098972 ], [ -52.216380936299998, -32.0451522571 ], [ -52.216357065499999, -32.045202011500002 ], [ -52.216324485100003, -32.0452465519 ], [ -52.216284297599998, -32.045284371 ], [ -52.216237862699998, -32.045314189099997 ], [ -52.216198837900002, -32.045330076900001 ], [ -52.2161942189, -32.045332545800001 ], [ -52.216192857, -32.045346373900003 ], [ -52.216192857, -32.045586392300002 ], [ -52.2161941783, -32.045599809 ], [ -52.216207595, -32.045601130400001 ], [ -52.216447613500002, -32.045601130400001 ], [ -52.216460458199997, -32.045599865299998 ], [ -52.2164582224, -32.045592494600001 ], [ -52.2164412853, -32.045550803300003 ], [ -52.216430281900003, -32.045488893600002 ], [ -52.216432425100002, -32.0454260502 ], [ -52.2164476206, -32.045365033899998 ], [ -52.216463613400002, -32.045332266700001 ], [ -52.216462351499999, -32.045331635799997 ], [ -52.216995417, -32.044265504800002 ], [ -52.217000216800002, -32.044253325500001 ], [ -52.217002803500002, -32.044240492699998 ], [ -52.217269184199999, -32.0418430661 ], [ -52.217269290799997, -32.041833436300003 ], [ -52.2172641489, -32.041841579100002 ] ] ], [ [ [ -52.218079319099999, -32.041004984399997 ], [ -52.218079319099999, -32.0402259767 ], [ -52.2180779977, -32.040212560100002 ], [ -52.218064581, -32.040211238700003 ], [ -52.217989096, -32.040211238700003 ], [ -52.217932517500003, -32.0402058552 ], [ -52.217877969699998, -32.040189897899999 ], [ -52.217827410200002, -32.040163939499998 ], [ -52.217782653599997, -32.040128911799997 ], [ -52.217745306200001, -32.040086071700003 ], [ -52.217716708499999, -32.040036956800002 ], [ -52.217697886700002, -32.03998333 ], [ -52.2176895164, -32.039927115799998 ], [ -52.217691898, -32.039870331700001 ], [ -52.2177049461, -32.039815015899997 ], [ -52.217728192300001, -32.039763153400003 ], [ -52.217760802299999, -32.039716605700001 ], [ -52.217801605799998, -32.039677043399998 ], [ -52.217808383600001, -32.0396716172 ], [ -52.217807444400002, -32.039657969099999 ], [ -52.217542636399997, -32.038069121 ], [ -52.217539438499998, -32.038057032499999 ], [ -52.217527781100003, -32.038061556400002 ], [ -52.217014536900002, -32.038318178499999 ], [ -52.21700262, -32.038325681800004 ], [ -52.216999510699999, -32.038339416399999 ], [ -52.216733599599998, -32.040466705699998 ], [ -52.216733212500003, -32.040479527099997 ], [ -52.216745982799999, -32.040480733300001 ], [ -52.217034270600003, -32.040480733300001 ], [ -52.217090708699999, -32.0404860899 ], [ -52.217145131300001, -32.040501968299999 ], [ -52.217195595100002, -32.0405278016 ], [ -52.217240297799997, -32.040562667300001 ], [ -52.217277643199999, -32.040605320200001 ], [ -52.217306297699999, -32.040654237200002 ], [ -52.217325237899999, -32.0407076714 ], [ -52.217333787500003, -32.040763714800001 ], [ -52.217331641199998, -32.040820365800002 ], [ -52.2173188756, -32.0408756016 ], [ -52.217275327199999, -32.0410062467 ], [ -52.217272488200003, -32.041018531100001 ], [ -52.21728504, -32.041019722400002 ], [ -52.218064581, -32.041019722400002 ], [ -52.2180779977, -32.041018401099997 ], [ -52.218079319099999, -32.041004984399997 ] ] ], [ [ [ -52.222919800200003, -32.0407398065 ], [ -52.222671148400003, -32.0404911547 ], [ -52.222660032900002, -32.0404820324 ], [ -52.222658908900002, -32.040481691399997 ], [ -52.2226001294, -32.040469570299997 ], [ -52.222542448699997, -32.040444243800003 ], [ -52.222491328399997, -32.040407430400002 ], [ -52.222449022900001, -32.040360753500003 ], [ -52.222417397400001, -32.0403062711 ], [ -52.222397846600003, -32.0402463856 ], [ -52.2223912324, -32.0401837378 ], [ -52.2223912324, -32.039957015600002 ], [ -52.222389894499997, -32.0399439089 ], [ -52.222377573199999, -32.039948573700002 ], [ -52.221864630299997, -32.040205045100002 ], [ -52.2218534553, -32.040211987799999 ], [ -52.221852243199997, -32.040225087899998 ], [ -52.221852243199997, -32.040815478 ], [ -52.221846472, -32.0408740393 ], [ -52.221829380400003, -32.040930347500002 ], [ -52.221801626, -32.0409822361 ], [ -52.221764276599998, -32.0410277087 ], [ -52.221718769299997, -32.041065015699999 ], [ -52.221666855, -32.0410927219 ], [ -52.221610530900001, -32.041109761100003 ], [ -52.221551964299998, -32.0411154779 ], [ -52.221493408400001, -32.041109652199999 ], [ -52.221058219900002, -32.041022614500001 ], [ -52.221045056800001, -32.041021304899999 ], [ -52.221043759499999, -32.0410344692 ], [ -52.221043759499999, -32.042267195400001 ], [ -52.2210368844, -32.042331053200002 ], [ -52.221016574099998, -32.0423919841 ], [ -52.220983759500001, -32.042447195400001 ], [ -52.220244937499999, -32.0434322913 ], [ -52.220236949399997, -32.043445731600002 ], [ -52.220235275699999, -32.0434612767 ], [ -52.220235275699999, -32.044508947399997 ], [ -52.220236467, -32.044521499200002 ], [ -52.220248751500002, -32.044518660100003 ], [ -52.221837794700001, -32.0439889791 ], [ -52.221849348299997, -32.043983775199997 ], [ -52.221839571, -32.043975714699997 ], [ -52.221177349400001, -32.043534233700001 ], [ -52.221131805, -32.043496928099998 ], [ -52.221094423300002, -32.043451446200002 ], [ -52.221066643699999, -32.043399539600003 ], [ -52.221049536199999, -32.043343207200003 ], [ -52.221043759499999, -32.043284618599998 ], [ -52.221043759499999, -32.042852917700003 ], [ -52.221050236499998, -32.042790915499999 ], [ -52.221069388, -32.042731590599999 ], [ -52.221100386800003, -32.0426775046 ], [ -52.221141894600002, -32.042630993 ], [ -52.221192118899999, -32.042594064200003 ], [ -52.221248891199998, -32.042568312699999 ], [ -52.221837418, -32.042372137100003 ], [ -52.221850725099998, -32.042366101200003 ], [ -52.221852243199997, -32.042351568199997 ], [ -52.221852243199997, -32.0418587116 ], [ -52.2218580077, -32.041800184499998 ], [ -52.2218750794, -32.041743906599997 ], [ -52.221902802400002, -32.041692040500003 ], [ -52.221940111199999, -32.041646579599998 ], [ -52.221985572199998, -32.0416092707 ], [ -52.222037438199997, -32.0415815478 ], [ -52.2220937162, -32.041564476 ], [ -52.2221522432, -32.041558711599997 ], [ -52.222645988899998, -32.041558711599997 ], [ -52.222659405599998, -32.041557390199998 ], [ -52.222660727, -32.0415439736 ], [ -52.222660727, -32.041047223299998 ], [ -52.222667341200001, -32.040984575499998 ], [ -52.222686892, -32.040924690099999 ], [ -52.222718517499999, -32.040870207700003 ], [ -52.222760823, -32.040823530700003 ], [ -52.2228119432, -32.040786717300001 ], [ -52.222869624, -32.0407613908 ], [ -52.2229276877, -32.040749417299999 ], [ -52.222919800200003, -32.0407398065 ] ] ], [ [ [ -52.221302832699998, -32.054753524900001 ], [ -52.221054180899998, -32.054504873100001 ], [ -52.221044932200002, -32.054497282900002 ], [ -52.221043759499999, -32.054509189800001 ], [ -52.221043759499999, -32.054749208200001 ], [ -52.221045080899998, -32.0547626249 ], [ -52.221058497500003, -32.0547639463 ], [ -52.221298516, -32.0547639463 ], [ -52.221310422899997, -32.054762773599997 ], [ -52.221302832699998, -32.054753524900001 ] ] ], [ [ [ -52.223731943899999, -32.043997685800001 ], [ -52.2235521287, -32.044357316099997 ], [ -52.223522957100002, -32.044404271200001 ], [ -52.2234856655, -32.044445076700001 ], [ -52.2234415199, -32.0444783473 ], [ -52.2233920193, -32.044502953200002 ], [ -52.223338844399997, -32.0445180591 ], [ -52.223283800600001, -32.044523152099998 ], [ -52.222675998500002, -32.044523152099998 ], [ -52.222662891699997, -32.044524489899999 ], [ -52.222667556600001, -32.044536811299999 ], [ -52.223065552100003, -32.045332802200001 ], [ -52.2230865704, -32.045387728400001 ], [ -52.223096469200001, -32.045445699600002 ], [ -52.2230948682, -32.045504488100001 ], [ -52.2230818289, -32.045561834600001 ], [ -52.223057852399997, -32.045615535499998 ], [ -52.2230238601, -32.045663526799999 ], [ -52.222981158300001, -32.045703964499999 ], [ -52.222931388, -32.045735294499998 ], [ -52.222673568399998, -32.045864204300003 ], [ -52.222664875500001, -32.045869645700002 ], [ -52.222675084099997, -32.045870625 ], [ -52.223453887799998, -32.045870625 ], [ -52.223467960699999, -32.045869183599997 ], [ -52.223471377800003, -32.045855456 ], [ -52.2237365672, -32.04399913 ], [ -52.223736952800003, -32.043989773200003 ], [ -52.223731943899999, -32.043997685800001 ] ] ], [ [ [ -52.226701125799998, -32.043970023200004 ], [ -52.226435788099998, -32.042112659200001 ], [ -52.226432753499999, -32.0421003939 ], [ -52.226422966599998, -32.042108385299997 ], [ -52.226258418299999, -32.042272933699998 ], [ -52.226212937299998, -32.042310255899999 ], [ -52.2261610467, -32.042337984 ], [ -52.226104742300002, -32.0423550513 ], [ -52.2260461897, -32.042360801599997 ], [ -52.2259876408, -32.042355013700003 ], [ -52.225931347500001, -32.04233791 ], [ -52.225879474700001, -32.042310148600002 ], [ -52.225834017700002, -32.042272797099997 ], [ -52.225796724799999, -32.042227292 ], [ -52.225769030099997, -32.042175383599997 ], [ -52.225751999, -32.042119068300003 ], [ -52.225746286400003, -32.042060512 ], [ -52.225752112099997, -32.042001966800001 ], [ -52.225891769900002, -32.041303677499997 ], [ -52.225893079499997, -32.041290514400004 ], [ -52.225879915199997, -32.041289217 ], [ -52.2248308884, -32.041289217 ], [ -52.224817494500002, -32.041290488199998 ], [ -52.2248148941, -32.041294927499997 ], [ -52.224779023799996, -32.041343984500003 ], [ -52.224734003, -32.041384806 ], [ -52.224681679100001, -32.041415716700001 ], [ -52.224624199300003, -32.0414354483 ], [ -52.2245639223, -32.041443190899997 ], [ -52.224503321699999, -32.041438626900003 ], [ -52.224444884299999, -32.0414219436 ], [ -52.2243910081, -32.041393825500002 ], [ -52.224343904100003, -32.041355426599999 ], [ -52.224018621299997, -32.0410301438 ], [ -52.224009372600001, -32.041022553600001 ], [ -52.224008199899998, -32.041034460500001 ], [ -52.224008199899998, -32.041531210700001 ], [ -52.224001585800004, -32.041593858600002 ], [ -52.223982034899997, -32.041653744 ], [ -52.223950409499999, -32.041708226399997 ], [ -52.223908103900001, -32.041754903399998 ], [ -52.223856983700003, -32.041791716799999 ], [ -52.223799303, -32.0418170433 ], [ -52.2237405232, -32.041829164399999 ], [ -52.223740048300002, -32.041829308399997 ], [ -52.223738705300001, -32.041842944300001 ], [ -52.223738705300001, -32.042621418499998 ], [ -52.223740043200003, -32.0426345252 ], [ -52.223752364600003, -32.042629860300003 ], [ -52.224277694500003, -32.042367195399997 ], [ -52.224278216400002, -32.042368239200002 ], [ -52.224295049699997, -32.042359773199998 ], [ -52.224263052, -32.042343393 ], [ -52.224214629899997, -32.042304130799998 ], [ -52.224122854299999, -32.0422123552 ], [ -52.224086734300002, -32.042168659799998 ], [ -52.224059479399997, -32.042118949399999 ], [ -52.224042063100001, -32.042064999200001 ], [ -52.224035107200002, -32.042008735899998 ], [ -52.224038860100002, -32.041952168500003 ], [ -52.224053187899997, -32.041897317199997 ], [ -52.224077578900001, -32.041846140700002 ], [ -52.224111162100002, -32.041800466600002 ], [ -52.224152738100003, -32.041761926 ], [ -52.224200822299998, -32.041731895 ], [ -52.224545797899999, -32.041559407199998 ], [ -52.224598974899997, -32.041538873599997 ], [ -52.224655075900003, -32.041528769300001 ], [ -52.224712075399999, -32.041529459099998 ], [ -52.224767915500003, -32.041540918 ], [ -52.22482058, -32.041562732400003 ], [ -52.2248681676, -32.041594114600002 ], [ -52.224908960100002, -32.041633931600003 ], [ -52.224941484600002, -32.041680745800001 ], [ -52.224964567, -32.041732867 ], [ -52.225003899400001, -32.041850864200001 ], [ -52.225017221599998, -32.041910527200002 ], [ -52.225018172600002, -32.041971652100003 ], [ -52.225006713100001, -32.042031700700001 ], [ -52.2249833188, -32.042088179499999 ], [ -52.224948961099997, -32.042138743400002 ], [ -52.224905066799998, -32.0421812927 ], [ -52.2248534585, -32.042214060699997 ], [ -52.224560926, -32.042360326900003 ], [ -52.224547097699997, -32.042365525 ], [ -52.224561953799999, -32.042370886500002 ], [ -52.225401317600003, -32.042580727500003 ], [ -52.225458615900003, -32.042601428499999 ], [ -52.225510550499997, -32.042633278399997 ], [ -52.225554979599998, -32.042674963800003 ], [ -52.225590071, -32.042724765599999 ], [ -52.225614377600003, -32.042780629799999 ], [ -52.225626896800001, -32.042840252700003 ], [ -52.225627112399998, -32.042901175399997 ], [ -52.225625167399997, -32.042920922599997 ], [ -52.225625167399997, -32.043160941099998 ], [ -52.225626510399998, -32.043174577 ], [ -52.2256269843, -32.043174720800003 ], [ -52.225685765100003, -32.043186842099999 ], [ -52.225743445799999, -32.0432121686 ], [ -52.225794566, -32.043248982 ], [ -52.225836871600002, -32.0432956589 ], [ -52.225868497, -32.043350141300003 ], [ -52.2258880479, -32.043410026799997 ], [ -52.225894662, -32.043472674599997 ], [ -52.225894662, -32.043969424799997 ], [ -52.225895983400001, -32.043982841499997 ], [ -52.225909400100001, -32.043984162900003 ], [ -52.2266888626, -32.043984162900003 ], [ -52.226701729799998, -32.043982934799999 ], [ -52.226701125799998, -32.043970023200004 ] ] ], [ [ [ -52.232621605299997, -32.052328073600002 ], [ -52.232372953499997, -32.052079421800002 ], [ -52.232363601499998, -32.052071746899998 ], [ -52.232352349300001, -32.052128315600001 ], [ -52.232329843599999, -32.052182649199999 ], [ -52.232297170300001, -32.052231548100004 ], [ -52.232255585200001, -32.052273133299998 ], [ -52.232206686200001, -32.052305806500001 ], [ -52.232152352599996, -32.052328312299998 ], [ -52.232094672300001, -32.052339785599997 ], [ -52.2320943589, -32.052339816500002 ], [ -52.2320930375, -32.0523532331 ], [ -52.2320930375, -32.052593251600001 ], [ -52.2320943589, -32.052606668199999 ], [ -52.232107775499998, -32.052607989599998 ], [ -52.232347794, -32.052607989599998 ], [ -52.232361210599997, -32.052606668199999 ], [ -52.232361241500001, -32.052606354799998 ], [ -52.2323727148, -32.052548674500002 ], [ -52.232395220599997, -32.052494340899997 ], [ -52.232427893800001, -32.052445441899998 ], [ -52.232469479, -32.052403856799998 ], [ -52.2325183779, -32.0523711835 ], [ -52.232572711499998, -32.052348677799998 ], [ -52.232629280200001, -32.052337425600001 ], [ -52.232621605299997, -32.052328073600002 ] ] ], [ [ [ -52.254176322, -32.059075859700002 ], [ -52.253396958899998, -32.059075859700002 ], [ -52.253383858799999, -32.059077071700003 ], [ -52.253376916199997, -32.0590882467 ], [ -52.253120444799997, -32.059601189600002 ], [ -52.2531157799, -32.0596135109 ], [ -52.253128886600003, -32.059614848800003 ], [ -52.253908249699997, -32.059614848800003 ], [ -52.253921349800002, -32.059613636800002 ], [ -52.253928292399998, -32.059602461700003 ], [ -52.2541847639, -32.059089518900002 ], [ -52.254189428799997, -32.059077197500002 ], [ -52.254176322, -32.059075859700002 ] ] ] ] } },
{ "type": "Feature", "properties": { "tipo_cultura": "Soja", "classe": 39 }, "geometry": { "type": "MultiPolygon", "coordinates": [ [ [ [ -52.189500220799999, -32.167134740199998 ], [ -52.188716666099999, -32.166612370400003 ], [ -52.188705634100003, -32.166606487899998 ], [ -52.188704409300001, -32.1666189301 ], [ -52.188704409300001, -32.166924290265904 ], [ -52.189147738314468, -32.167264906543487 ], [ -52.189498444400002, -32.1671480045 ], [ -52.189509998, -32.167142800699999 ], [ -52.189500220799999, -32.167134740199998 ] ] ], [ [ [ -52.207556089100002, -32.040741600399997 ], [ -52.206771908699999, -32.040218813499997 ], [ -52.206760370200001, -32.040212554500002 ], [ -52.206747591499997, -32.040215557 ], [ -52.206734321100001, -32.040219980499998 ], [ -52.2066804914, -32.040232555300001 ], [ -52.206625268300002, -32.04023504 ], [ -52.206570526900002, -32.040227350199999 ], [ -52.206518125700001, -32.040209747 ], [ -52.206469843800001, -32.040182828100001 ], [ -52.206427320700001, -32.040147507500002 ], [ -52.205962484099999, -32.0396826709 ], [ -52.205953235400003, -32.0396750807 ], [ -52.2059520627, -32.0396869876 ], [ -52.2059520627, -32.039870923700001 ], [ -52.205944037400002, -32.039939849600003 ], [ -52.205920390899998, -32.040005087799997 ], [ -52.205798928, -32.040248013499998 ], [ -52.205766160099998, -32.040299621800003 ], [ -52.2057236108, -32.040343516100002 ], [ -52.205673046900003, -32.040377873799997 ], [ -52.205616568, -32.040401268099998 ], [ -52.205556519399998, -32.0404127276 ], [ -52.205495394499998, -32.040411776600003 ], [ -52.205435731500003, -32.040398454399998 ], [ -52.204888621, -32.040216084199997 ], [ -52.204874814599997, -32.040213001399998 ], [ -52.204867231800002, -32.0402249439 ], [ -52.204611651, -32.040736105500002 ], [ -52.204606402, -32.040750115 ], [ -52.204613348099997, -32.040763365399997 ], [ -52.205135219699997, -32.041546172799997 ], [ -52.205144550100002, -32.041557514899999 ], [ -52.205157571, -32.041564308399998 ], [ -52.206478343900002, -32.042092617599998 ], [ -52.206490679799998, -32.042096289699998 ], [ -52.206499602, -32.042087013100002 ], [ -52.207559314199997, -32.040762372899998 ], [ -52.2075669066, -32.040750557499997 ], [ -52.207556089100002, -32.040741600399997 ] ] ], [ [ [ -52.214035709, -32.050992675 ], [ -52.214023424499999, -32.050995514 ], [ -52.2135903231, -32.051139881099999 ], [ -52.213532301199997, -32.0511530048 ], [ -52.213472830400001, -32.0511544218 ], [ -52.213414249300001, -32.051144076500002 ], [ -52.213358861099998, -32.051122375699997 ], [ -52.2133088438, -32.051090172499997 ], [ -52.213266163900002, -32.0510487333 ], [ -52.213232499699998, -32.050999687400001 ], [ -52.213209174900001, -32.050944963299997 ], [ -52.213197106499997, -32.050886712699999 ], [ -52.213196769, -32.050827226099997 ], [ -52.2132081759, -32.050768842300002 ], [ -52.213224678899998, -32.050728872100002 ], [ -52.21322681, -32.050721847 ], [ -52.213217995100003, -32.050711106100003 ], [ -52.212969343300003, -32.050462454300003 ], [ -52.212959991399998, -32.050454779399999 ], [ -52.212948739200002, -32.050511348100002 ], [ -52.212926233399997, -32.0505656817 ], [ -52.212893560200001, -32.050614580599998 ], [ -52.212851975100001, -32.0506561658 ], [ -52.212803076100002, -32.050688839 ], [ -52.212748742499997, -32.050711344699998 ], [ -52.212691062200001, -32.050722818099999 ], [ -52.212690748699998, -32.050722849 ], [ -52.212689427400001, -32.050736265600001 ], [ -52.212689427400001, -32.050976284 ], [ -52.212690748699998, -32.050989700599999 ], [ -52.212691062200001, -32.050989731500003 ], [ -52.212748742499997, -32.051001204899997 ], [ -52.212803076100002, -32.051023710599999 ], [ -52.212851975100001, -32.051056383800002 ], [ -52.212893560200001, -32.051097969 ], [ -52.212926233399997, -32.051146867900002 ], [ -52.212948739200002, -32.051201201600001 ], [ -52.212960212500001, -32.051258881800003 ], [ -52.212960243399998, -32.051259195199997 ], [ -52.212960724399998, -32.051259242599997 ], [ -52.213018162200001, -32.0512706425 ], [ -52.213072291099998, -32.0512929832 ], [ -52.213121049, -32.051325413400001 ], [ -52.213162578099997, -32.051366697699997 ], [ -52.213195296099997, -32.051415263 ], [ -52.213217956299999, -32.051469258899999 ], [ -52.213229695599999, -32.051526628300003 ], [ -52.213229934700003, -32.051528917 ], [ -52.213243241800001, -32.051534953 ], [ -52.214023424499999, -32.051795013899998 ], [ -52.214035709, -32.051797853 ], [ -52.214036900300002, -32.051785301199999 ], [ -52.214036900300002, -32.051005226800001 ], [ -52.214035709, -32.050992675 ] ] ], [ [ [ -52.225890077199999, -32.043700914 ], [ -52.225630072599998, -32.042920899899997 ], [ -52.225624181, -32.042907884500003 ], [ -52.225609957300001, -32.042909226600003 ], [ -52.224292146400003, -32.0431727888 ], [ -52.224279249399999, -32.0431767157 ], [ -52.224280584900001, -32.043190131 ], [ -52.224544372, -32.044509066400003 ], [ -52.224548041299997, -32.044521225499999 ], [ -52.224559506699997, -32.044515761500001 ], [ -52.2258822298, -32.043722127599999 ], [ -52.225893095, -32.043714088599998 ], [ -52.225890077199999, -32.043700914 ] ] ] ] } }
]
}
