{
"type": "FeatureCollection",
"name": "cobertura_ATINGIDOS_rio_grande___cenario_maio_2024",
"crs": { "type": "name", "properties": { "name": "urn:ogc:def:crs:OGC:1.3:CRS84" } },
"features": [
{ "type": "Feature", "properties": { "tipo_classe": "Campo Alagado e Area Pantanosa", "classe": 11 }, "geometry": { "type": "MultiPolygon", "coordinates": [ [ [ [ -52.187074604954169, -32.065267233227566 ], [ -52.184334067575989, -32.063772394657647 ], [ -52.184329343921505, -32.063769925988467 ], [ -52.184127384707914, -32.063668905445105 ], [ -52.18411423078436, -32.063663871288362 ], [ -52.184101375424824, -32.063669625258335 ], [ -52.183096822908119, -32.06424365526788 ], [ -52.18304312431421, -32.064267695581322 ], [ -52.182985766437163, -32.064280793275756 ], [ -52.182926955309156, -32.064282444602846 ], [ -52.182868952855614, -32.064272586051167 ], [ -52.182813989899657, -32.0642515967889 ], [ -52.182764180362767, -32.064220284080719 ], [ -52.182721439961618, -32.064179852239704 ], [ -52.182687412527962, -32.06413185630845 ], [ -52.182663406785501, -32.064078142250821 ], [ -52.182650346015272, -32.064020775954617 ], [ -52.182648732545474, -32.063961963775832 ], [ -52.182658628431525, -32.063903967680297 ], [ -52.182679653069314, -32.063849018246593 ], [ -52.18303474219644, -32.063138839992327 ], [ -52.183039560119632, -32.063126249896456 ], [ -52.183028152888141, -32.063119066723971 ], [ -52.182845429766644, -32.063027668125756 ], [ -52.182840396850608, -32.063025266561482 ], [ -52.180212373314546, -32.061830710408728 ], [ -52.180165524138552, -32.061804100768995 ], [ -52.18012419018654, -32.061769540349019 ], [ -52.180089704670536, -32.061728143882945 ], [ -52.180063179908679, -32.061681246599157 ], [ -52.180045471447791, -32.061630361153 ], [ -52.179762851316838, -32.060499880629173 ], [ -52.179753408327954, -32.060473166897523 ], [ -52.179335153016915, -32.059572094731685 ], [ -52.179326726076205, -32.059558230302983 ], [ -52.179313140653257, -32.059549360579283 ], [ -52.178213477011674, -32.058995136723006 ], [ -52.178209400373078, -32.058993158764345 ], [ -52.171469135181702, -32.055847701675035 ], [ -52.171456662304713, -32.055843210578651 ], [ -52.171443670939958, -32.055845850095508 ], [ -52.168776066866172, -32.056646131317642 ], [ -52.16876974487549, -32.056648734486174 ], [ -52.168776579666051, -32.05664856217674 ], [ -52.170306223339665, -32.056457356717544 ], [ -52.170367072844044, -32.056455972874552 ], [ -52.170426949317175, -32.056466899226606 ], [ -52.170483388125547, -32.056489686023539 ], [ -52.170534066136668, -32.056523395315928 ], [ -52.170576897343821, -32.056566639562917 ], [ -52.170610118730195, -32.056617638746168 ], [ -52.170632362838106, -32.056674293638871 ], [ -52.170642714056285, -32.056734272214101 ], [ -52.170640746308209, -32.056795105635601 ], [ -52.170626540590256, -32.056854289879972 ], [ -52.170600681637751, -32.056909388807185 ], [ -52.170116708960869, -32.057716009935334 ], [ -52.170111110615117, -32.057727771012999 ], [ -52.170122684237583, -32.057733747273026 ], [ -52.173491286006232, -32.059081187980496 ], [ -52.174222107181592, -32.059336553552747 ], [ -52.175857306842161, -32.059132153595179 ], [ -52.175916394855825, -32.059130635736757 ], [ -52.175974633606288, -32.059140732528164 ], [ -52.176029762331751, -32.059162052023495 ], [ -52.176079640998033, -32.059193766624283 ], [ -52.176122333372248, -32.059234645205919 ], [ -52.17615618218516, -32.059283100908544 ], [ -52.176179873464505, -32.059337252737095 ], [ -52.176192487541861, -32.059394998579414 ], [ -52.176193534753153, -32.059454096807826 ], [ -52.176182974446824, -32.059512253296568 ], [ -52.175772594545691, -32.060948582950509 ], [ -52.175770351631094, -32.060960694443757 ], [ -52.175782531123645, -32.060958856266531 ], [ -52.176652301614965, -32.060741413643697 ], [ -52.176709258159292, -32.060732872967868 ], [ -52.176766797172533, -32.060735373575959 ], [ -52.176822798028084, -32.060748823306916 ], [ -52.176875196788849, -32.060772726464776 ], [ -52.176922062274585, -32.060806202087733 ], [ -52.176961667236419, -32.060848016416422 ], [ -52.176992552015399, -32.060896628364674 ], [ -52.177013578338894, -32.060950246316942 ], [ -52.177023971272163, -32.061006894159121 ], [ -52.177023347778899, -32.061064484109131 ], [ -52.177011730838231, -32.061120893663066 ], [ -52.176989548597817, -32.061174043821062 ], [ -52.176957618594244, -32.061221975709799 ], [ -52.176917117622374, -32.061262922777615 ], [ -52.176318388416206, -32.061761863782763 ], [ -52.176309149984668, -32.061771146462803 ], [ -52.176313438104962, -32.061783520984619 ], [ -52.177587789973444, -32.064587095095291 ], [ -52.177857120605033, -32.064777770017997 ], [ -52.180718106602612, -32.065380082859591 ], [ -52.18091870569139, -32.06525522414254 ], [ -52.181392057354309, -32.065451279175505 ], [ -52.181821882981772, -32.065313626596215 ], [ -52.181825736804235, -32.065613268165194 ], [ -52.182760942455715, -32.065810153565501 ], [ -52.182775071831102, -32.065811688455028 ], [ -52.182786068285019, -32.065802684392722 ], [ -52.183419773223086, -32.065168979454661 ], [ -52.183466870325965, -32.065130585100405 ], [ -52.183520738011737, -32.065102468628922 ], [ -52.183579166350484, -32.065085783522697 ], [ -52.183639758310818, -32.065081214290707 ], [ -52.183700028098464, -32.065088948386396 ], [ -52.183757503136299, -32.065108668517325 ], [ -52.183809825502273, -32.065139565662143 ], [ -52.183854848663429, -32.065180372260848 ], [ -52.183890725537822, -32.065229414216581 ], [ -52.18391598427128, -32.06528467957574 ], [ -52.183929588620458, -32.065343901068644 ], [ -52.184121189796656, -32.066876710478255 ], [ -52.184124011375616, -32.0668892315365 ], [ -52.184135822920794, -32.066884209026455 ], [ -52.187074604954169, -32.065281237008257 ], [ -52.187084911278447, -32.065274235117911 ], [ -52.187074604954169, -32.065267233227566 ] ], [ [ -52.178404618353731, -32.062906028619686 ], [ -52.178434116355625, -32.062852488114764 ], [ -52.178473854763475, -32.062806038392225 ], [ -52.178522183674886, -32.062768608002102 ], [ -52.178577096517607, -32.062741751020006 ], [ -52.17863631336057, -32.062726582523297 ], [ -52.178697375574551, -32.062723732294103 ], [ -52.178757747912208, -32.062733318671334 ], [ -52.178814923769238, -32.062754943637373 ], [ -52.179052787163087, -32.062873875334297 ], [ -52.179102076208189, -32.062904832576393 ], [ -52.179144459749935, -32.062944724883849 ], [ -52.179178342396078, -32.062992050638947 ], [ -52.17920244874329, -32.063045028415694 ], [ -52.17921587138558, -32.063101664035926 ], [ -52.179218105070717, -32.063159825633704 ], [ -52.179209065718794, -32.06321732390257 ], [ -52.179189093587176, -32.063271994504944 ], [ -52.179158940462578, -32.063321779541674 ], [ -52.179119741362491, -32.063364805015027 ], [ -52.179072971811067, -32.063399451369307 ], [ -52.178775642568752, -32.063577848914697 ], [ -52.178723609287388, -32.063602614422585 ], [ -52.178667800801705, -32.063616974285964 ], [ -52.178610276316306, -32.063620398658934 ], [ -52.178553158352237, -32.063612761190015 ], [ -52.178498554430846, -32.06359434368423 ], [ -52.178448479311093, -32.063565825705126 ], [ -52.178404780649579, -32.063528259500465 ], [ -52.178369070826292, -32.063483031176695 ], [ -52.178342667451474, -32.0634318095548 ], [ -52.178326544748863, -32.063376484594691 ], [ -52.178321297609045, -32.063319097659992 ], [ -52.178327119639413, -32.06326176619644 ], [ -52.178386585487878, -32.062964436954125 ], [ -52.178404618353731, -32.062906028619686 ] ] ], [ [ [ -52.212658579880696, -32.076854790415581 ], [ -52.210721246754716, -32.07637045713409 ], [ -52.21066731975052, -32.076351352297493 ], [ -52.210618000119453, -32.076322357633245 ], [ -52.210575081515984, -32.076284527618192 ], [ -52.210540124802243, -32.076239238052864 ], [ -52.210514401282651, -32.07618813602646 ], [ -52.210498846469193, -32.076133080015509 ], [ -52.209997068483304, -32.07337330109312 ], [ -52.209993255966459, -32.073359849928636 ], [ -52.20998271353983, -32.073350666990443 ], [ -52.206232532382927, -32.070671966164085 ], [ -52.206221337329367, -32.07066540085669 ], [ -52.206208588930416, -32.070667832072473 ], [ -52.204473735675407, -32.071163504431048 ], [ -52.204462020476619, -32.071168083230845 ], [ -52.204468039401668, -32.071179127859985 ], [ -52.204652511356159, -32.071452710676361 ], [ -52.204659496113344, -32.07146154591959 ], [ -52.204667733519294, -32.071469226641959 ], [ -52.20687617430336, -32.073235979269199 ], [ -52.206917766065267, -32.073276438793577 ], [ -52.206950791059732, -32.073324148305332 ], [ -52.206974013840878, -32.073377323019308 ], [ -52.206986565657949, -32.073433973700325 ], [ -52.206987976954743, -32.073491981079272 ], [ -52.206978194935466, -32.07354917513377 ], [ -52.20671552817182, -32.074512286600481 ], [ -52.206715159258003, -32.074512185987622 ], [ -52.206708924965511, -32.074535551780819 ], [ -52.206709165250217, -32.074535617313011 ], [ -52.206428159092695, -32.075565973223938 ], [ -52.206406576232276, -32.075622161527555 ], [ -52.206374211233516, -32.075672910440673 ], [ -52.20633236694777, -32.075716177068429 ], [ -52.206282727814582, -32.075750219714969 ], [ -52.206227292054685, -32.075773667995335 ], [ -52.20616829123172, -32.0757855780002 ], [ -52.206108100420735, -32.075785470292949 ], [ -52.206049142599724, -32.075773349209335 ], [ -52.205993791112689, -32.075749702682934 ], [ -52.205944274130886, -32.075715482603449 ], [ -52.205902584957826, -32.075672066498406 ], [ -52.205870401789028, -32.075621202080853 ], [ -52.205689227518448, -32.075258853539701 ], [ -52.205681746715818, -32.075246996390462 ], [ -52.205667728735555, -32.075246771388201 ], [ -52.204423464115585, -32.075350460106534 ], [ -52.204385994050327, -32.075358516418646 ], [ -52.203507977064866, -32.075669522078535 ], [ -52.203452519911714, -32.075683387929139 ], [ -52.203395439452329, -32.07568648289358 ], [ -52.203338808187908, -32.075678694598608 ], [ -52.203284682310084, -32.07566030582489 ], [ -52.203235027043881, -32.075631984239713 ], [ -52.203014093243922, -32.075476329035958 ], [ -52.203003095665586, -32.075469934774873 ], [ -52.202990374393984, -32.075469884250005 ], [ -52.202567676102447, -32.075505109107631 ], [ -52.202510923738579, -32.075504451088975 ], [ -52.202455310940437, -32.075493116166108 ], [ -52.202402828191289, -32.07547151003655 ], [ -52.202355353944228, -32.075440406022992 ], [ -52.197873797135507, -32.071855160576021 ], [ -52.197866486606372, -32.071849669103599 ], [ -52.19704182944794, -32.071268670731925 ], [ -52.197030560701307, -32.071262246243634 ], [ -52.197023678645522, -32.071273241515783 ], [ -52.196526296984842, -32.072268004837127 ], [ -52.196521419932964, -32.072280723584399 ], [ -52.196531226356889, -32.072290178012764 ], [ -52.202974482950104, -32.077391089482397 ], [ -52.202988251201944, -32.077399683790262 ], [ -52.203004380654484, -32.077401491453521 ], [ -52.206745792692267, -32.077401491453521 ], [ -52.206759806976287, -32.077400109686863 ], [ -52.206768730401755, -32.077389215563926 ], [ -52.207615657028278, -32.076118825624128 ], [ -52.20765508855748, -32.076071172908357 ], [ -52.207703454351801, -32.076032619351373 ], [ -52.207758698528124, -32.076004803747857 ], [ -52.207818472824201, -32.075988908454697 ], [ -52.207880236416138, -32.075985609132537 ], [ -52.20794136392113, -32.075995046025561 ], [ -52.207999256994469, -32.076016818000092 ], [ -52.208051454777348, -32.076049999595568 ], [ -52.208095738500454, -32.076093180363095 ], [ -52.209176292893538, -32.077389845634791 ], [ -52.209182931721244, -32.077396348867339 ], [ -52.209180367660885, -32.077387416249529 ], [ -52.208052637146025, -32.074568089962384 ], [ -52.208036143330105, -32.074511016783667 ], [ -52.20803121952644, -32.074451812477655 ], [ -52.208038058824371, -32.074392798769956 ], [ -52.208056393017529, -32.07433628991177 ], [ -52.208085503121616, -32.074284501925398 ], [ -52.208124247569764, -32.074239465701865 ], [ -52.208171106979641, -32.074202947358543 ], [ -52.20822424373673, -32.074176378979999 ], [ -52.20828157405731, -32.074160802458088 ], [ -52.208340849705024, -32.07415682863369 ], [ -52.208399746156573, -32.074164613342241 ], [ -52.208455953759021, -32.074183851302635 ], [ -52.20850726830394, -32.074213788088905 ], [ -52.208551677466552, -32.07425324971544 ], [ -52.20858743971997, -32.074300688675407 ], [ -52.210647738369644, -32.077685465028445 ], [ -52.210673182699601, -32.077738284609808 ], [ -52.21068786806255, -32.077795044298121 ], [ -52.21069123358825, -32.077853576300811 ], [ -52.210683150738966, -32.077911645136254 ], [ -52.210663928218651, -32.077967033012321 ], [ -52.210634300182797, -32.078017624529338 ], [ -52.210595398199217, -32.078061487472418 ], [ -52.210548708030657, -32.078096946607523 ], [ -52.207311892124679, -32.080088833318896 ], [ -52.207301997379233, -32.080096328910564 ], [ -52.207312512646688, -32.080102925806315 ], [ -52.212137417465073, -32.082515378215504 ], [ -52.212149375043083, -32.082519970410587 ], [ -52.212151818373101, -32.082507396546234 ], [ -52.212680080445814, -32.07696064478278 ], [ -52.212680180379515, -32.076933353037781 ], [ -52.212674964191784, -32.076873979236787 ], [ -52.212672213473496, -32.076859738673136 ], [ -52.212658579880696, -32.076854790415581 ] ], [ [ -52.204741016250779, -32.076513407161357 ], [ -52.204736332265071, -32.076453090735328 ], [ -52.204743844947245, -32.07639306098789 ], [ -52.204763248780665, -32.076335759136093 ], [ -52.204793754673723, -32.076283515462222 ], [ -52.204834122049725, -32.076238454548715 ], [ -52.204882709297124, -32.076202408878224 ], [ -52.204937540528597, -32.0761768443124 ], [ -52.204996385934059, -32.076162800480041 ], [ -52.205056852459833, -32.076160848498709 ], [ -52.205116481126517, -32.076171067749208 ], [ -52.205172847027718, -32.076193042647454 ], [ -52.20522365794325, -32.076225879544893 ], [ -52.205251963219013, -32.0762485237655 ], [ -52.205293805043468, -32.076289279157237 ], [ -52.205326956394551, -32.076337369989531 ], [ -52.205350160563391, -32.076390973224299 ], [ -52.205362537921154, -32.076448056858069 ], [ -52.205363619264169, -32.076506456951613 ], [ -52.205353363600651, -32.076563959661073 ], [ -52.205332159704589, -32.076618385160806 ], [ -52.205300811378038, -32.076667670276734 ], [ -52.205260506980423, -32.076709946697605 ], [ -52.205212774379895, -32.076743611799358 ], [ -52.205159423034601, -32.076767389397745 ], [ -52.205142439869142, -32.0767730504529 ], [ -52.205087278331909, -32.076785806137799 ], [ -52.2050307025699, -32.076787970817804 ], [ -52.204974727624851, -32.076779467394161 ], [ -52.204921347139397, -32.076760598730736 ], [ -52.204872462350089, -32.076732036866986 ], [ -52.204829814371628, -32.076694799082141 ], [ -52.204794922184128, -32.076650211663086 ], [ -52.204769028532034, -32.076599862666392 ], [ -52.204757706421731, -32.076571557390629 ], [ -52.204741016250779, -32.076513407161357 ] ], [ [ -52.207662796738035, -32.072792000054548 ], [ -52.207677527391013, -32.072846930941132 ], [ -52.207681626852612, -32.072903654735534 ], [ -52.207674947797535, -32.072960132914162 ], [ -52.207657730255789, -32.073014335780258 ], [ -52.207630592986476, -32.073064315406626 ], [ -52.207594511241091, -32.073108275639648 ], [ -52.207550781715142, -32.073144636648948 ], [ -52.207500975947916, -32.073172091702908 ], [ -52.207446883844923, -32.0731896541296 ], [ -52.2073904493528, -32.073196692775511 ], [ -52.207333700598298, -32.073192954687798 ], [ -52.207278677002037, -32.073178574204782 ], [ -52.20722735598639, -32.073154068128183 ], [ -52.206551034317258, -32.072748275126699 ], [ -52.20650261590059, -32.072712127872222 ], [ -52.206462422996857, -32.072667011383345 ], [ -52.206432086083495, -32.072614755869125 ], [ -52.206412835816863, -32.072557481142468 ], [ -52.206405453109056, -32.072497510627173 ], [ -52.206410237449234, -32.072437277105216 ], [ -52.206426994754402, -32.072379224027756 ], [ -52.206455045242684, -32.072325706393407 ], [ -52.206493251009533, -32.07227889521463 ], [ -52.206760123884379, -32.072012022339784 ], [ -52.206806757939383, -32.071973933633934 ], [ -52.206860058776329, -32.071945924610752 ], [ -52.206917879268971, -32.071929123562256 ], [ -52.206977890225012, -32.071924207287822 ], [ -52.207037674213375, -32.071931373830516 ], [ -52.207094822945969, -32.071950334499341 ], [ -52.207147034291118, -32.0719803254986 ], [ -52.207192205010749, -32.072020138696011 ], [ -52.207228515485419, -32.072068170290073 ], [ -52.207637964279705, -32.072740836166403 ], [ -52.207662796738035, -32.072792000054548 ] ] ] ] } },
{ "type": "Feature", "properties": { "tipo_classe": "Formacao Campestre", "classe": 12 }, "geometry": { "type": "Polygon", "coordinates": [ [ [ -52.184120206041904, -32.066635684412276 ], [ -52.184121586076287, -32.066622260715 ], [ -52.184111474274907, -32.066613324741809 ], [ -52.181171285782632, -32.064475005838332 ], [ -52.181158040495056, -32.064467351635244 ], [ -52.181142826567473, -32.064465751362199 ], [ -52.177588746573072, -32.064465751362199 ], [ -52.177529621676463, -32.064459867404942 ], [ -52.177472816035618, -32.064442446339534 ], [ -52.177420557930283, -32.06441417153134 ], [ -52.177374897256847, -32.064376152098767 ], [ -52.177337625118312, -32.064329879406593 ], [ -52.17731020356581, -32.064277168565106 ], [ -52.176388601497898, -32.061973163395329 ], [ -52.176371524010115, -32.061912819893195 ], [ -52.176367365068465, -32.061850244482343 ], [ -52.176376306417708, -32.061788171693522 ], [ -52.176397957322997, -32.061729314093 ], [ -52.176431371644846, -32.061676243744081 ], [ -52.17647508918526, -32.061631279808545 ], [ -52.177913330517327, -32.060432745365155 ], [ -52.177921184333123, -32.060424776304465 ], [ -52.177909995589708, -32.060424795610203 ], [ -52.175580845319196, -32.060657710637258 ], [ -52.175525133875595, -32.060761445915034 ], [ -52.175784017180575, -32.062596661742766 ], [ -52.175077102430684, -32.064167233643133 ], [ -52.176897499553867, -32.064702644561713 ], [ -52.17725821489541, -32.06435376960178 ], [ -52.178050113271844, -32.064914400826055 ], [ -52.179938782809074, -32.065331174592636 ], [ -52.180646233265335, -32.065424818918643 ], [ -52.18091870569139, -32.06525522414254 ], [ -52.181392057354309, -32.065451279175505 ], [ -52.181821882981772, -32.065313626596215 ], [ -52.181827468617961, -32.065747919770295 ], [ -52.183013443137959, -32.066438488034628 ], [ -52.183177252720306, -32.066971537234025 ], [ -52.183415225863826, -32.067169781989101 ], [ -52.184020411463365, -32.067134657304955 ], [ -52.184120206041904, -32.066635684412276 ] ] ] } },
{ "type": "Feature", "properties": { "tipo_classe": "Restinga Arborea", "classe": 49 }, "geometry": { "type": "MultiPolygon", "coordinates": [ [ [ [ -52.075244403108869, -32.031573483106506 ], [ -52.075160820694059, -32.031155571032464 ], [ -52.075047406180531, -32.031562439125963 ], [ -52.075233093868057, -32.031585650086903 ], [ -52.075245696557737, -32.031586024845659 ], [ -52.075244403108869, -32.031573483106506 ] ] ], [ [ [ -52.203784978015705, -32.078199988522762 ], [ -52.19329981849917, -32.068790229982291 ], [ -52.193269138064949, -32.068768962561485 ], [ -52.187100047142884, -32.065550306428229 ], [ -52.187087573646572, -32.065545234864729 ], [ -52.187076172291057, -32.065552398520133 ], [ -52.184963254438387, -32.067177719945263 ], [ -52.185182389075891, -32.067286910767642 ], [ -52.186236046829933, -32.066842706724955 ], [ -52.186515414927406, -32.067207613760914 ], [ -52.186171383903087, -32.067912468574072 ], [ -52.186759436588062, -32.067873551401981 ], [ -52.186824668566643, -32.067896978732755 ], [ -52.186856839223751, -32.06789809133884 ], [ -52.186912728865536, -32.067910943341069 ], [ -52.188376256954669, -32.068398786037442 ], [ -52.188428378181356, -32.06842186842691 ], [ -52.188475192400773, -32.068454392999698 ], [ -52.188515009401677, -32.068495185467313 ], [ -52.188546391604959, -32.06854277303178 ], [ -52.188568205967002, -32.068595437560482 ], [ -52.188579664887783, -32.068651277618763 ], [ -52.188580354646916, -32.068708277120578 ], [ -52.188570250340881, -32.068764378118559 ], [ -52.188549716782163, -32.068817555105511 ], [ -52.188530423999502, -32.068856140670825 ], [ -52.18893234005116, -32.069022571748555 ], [ -52.189241753463691, -32.069489346793475 ], [ -52.190466014342732, -32.068598975245081 ], [ -52.190515040526442, -32.068570003017449 ], [ -52.190568658208022, -32.068550817062039 ], [ -52.190624935389508, -32.068542108703554 ], [ -52.190681844243542, -32.068544191728975 ], [ -52.19073733418184, -32.068556991080953 ], [ -52.19148454839199, -32.068806062484335 ], [ -52.191556598021904, -32.068663810579274 ], [ -52.191908823982295, -32.068593675730881 ], [ -52.192421881318275, -32.068822726462919 ], [ -52.193017310654788, -32.06935169942701 ], [ -52.193488972152949, -32.069414079987112 ], [ -52.194046480920996, -32.070043638345176 ], [ -52.195354646828669, -32.071067047674795 ], [ -52.195360732360392, -32.07153474528986 ], [ -52.194589524992885, -32.072577761762396 ], [ -52.194117846566556, -32.072515385739763 ], [ -52.193480985986277, -32.071819753451258 ], [ -52.193209955493458, -32.071760938278047 ], [ -52.193231654344743, -32.071786078619191 ], [ -52.193261324175737, -32.071839294561364 ], [ -52.193279630154606, -32.071897407610763 ], [ -52.193285817213564, -32.071958020774957 ], [ -52.193285817213564, -32.072490488006274 ], [ -52.194361938235005, -32.073181306525292 ], [ -52.196095211624112, -32.073699533184872 ], [ -52.197575223914136, -32.074827465153859 ], [ -52.200166014452371, -32.075226048313581 ], [ -52.200224535037165, -32.075241214250511 ], [ -52.200278826860846, -32.075267804894899 ], [ -52.200326685274526, -32.075304740470273 ], [ -52.200366166873252, -32.075350521119567 ], [ -52.202067509655834, -32.077781010808977 ], [ -52.202095805014473, -32.077831031433632 ], [ -52.202114043133356, -32.077885529701781 ], [ -52.202121554736308, -32.077942505714567 ], [ -52.202118064173355, -32.077999868648433 ], [ -52.202103699536131, -32.078055513481161 ], [ -52.202078987957393, -32.07810739823892 ], [ -52.201824513086819, -32.078531523023209 ], [ -52.202102023522883, -32.078962900771394 ], [ -52.203782442590629, -32.078216047852401 ], [ -52.203793754215447, -32.078209603906721 ], [ -52.203784978015705, -32.078199988522762 ] ] ] ] } },
{ "type": "Feature", "properties": { "tipo_classe": "Restinga Herbacea", "classe": 50 }, "geometry": { "type": "MultiPolygon", "coordinates": [ [ [ [ -52.211894462837826, -32.08333514382624 ], [ -52.211882153200939, -32.083332081982867 ], [ -52.211880943594835, -32.083344708894522 ], [ -52.211880943594835, -32.083960763020045 ], [ -52.212083927058401, -32.08400521507545 ], [ -52.213419369712817, -32.084092663271683 ], [ -52.214839037910394, -32.084613631396707 ], [ -52.216043733271292, -32.084799592214523 ], [ -52.211894462837826, -32.08333514382624 ] ] ], [ [ [ -52.21080296525389, -32.082806654658341 ], [ -52.210801627385408, -32.082793547874921 ], [ -52.210789306008891, -32.082798212780737 ], [ -52.209634538974292, -32.08337559629804 ], [ -52.210037346013628, -32.083557027166954 ], [ -52.21080296525389, -32.083724692790007 ], [ -52.21080296525389, -32.082806654658341 ] ] ], [ [ [ -52.20702387589958, -32.08143774507105 ], [ -52.2066369220003, -32.081618215163047 ], [ -52.206599878879871, -32.08178562278021 ], [ -52.206642189539288, -32.082019096506357 ], [ -52.207118315366252, -32.082415492115096 ], [ -52.208221379542415, -32.082739086211092 ], [ -52.208410318011907, -32.082824187183377 ], [ -52.20702387589958, -32.08143774507105 ] ] ], [ [ [ -52.205693184473688, -32.080107053645158 ], [ -52.205681854566691, -32.08009779014499 ], [ -52.205667811516506, -32.080093670440029 ], [ -52.202771972241337, -32.079550700575929 ], [ -52.203199153540758, -32.079813307771374 ], [ -52.204026636783375, -32.080072734190239 ], [ -52.203989589407108, -32.080240141184518 ], [ -52.2031329337131, -32.080749444268328 ], [ -52.202504695806304, -32.080721997966542 ], [ -52.201957993893544, -32.080927651924334 ], [ -52.202000292332784, -32.081161127528198 ], [ -52.202674333574386, -32.081689306217271 ], [ -52.20287577433642, -32.082088325469499 ], [ -52.20213943432973, -32.082796945450767 ], [ -52.20233781345533, -32.082962117708831 ], [ -52.203004867513876, -32.082955785032787 ], [ -52.203402943636547, -32.083386346836775 ], [ -52.203833692765322, -32.083315432336988 ], [ -52.204291850343303, -32.082342159712965 ], [ -52.204082956393457, -32.081375227106527 ], [ -52.204157489501512, -32.081073819909392 ], [ -52.204429086009959, -32.08083736128124 ], [ -52.205015895648323, -32.080698137206063 ], [ -52.205929324593939, -32.081524719871858 ], [ -52.206507024264688, -32.080920893436158 ], [ -52.205693184473688, -32.080107053645158 ] ] ], [ [ [ -52.201102726037746, -32.076876594954143 ], [ -52.20109995895637, -32.076863294368856 ], [ -52.201088823796248, -32.076855511662529 ], [ -52.197764570872629, -32.074971768339147 ], [ -52.198433588477357, -32.075481633256672 ], [ -52.198559141040242, -32.076081844214507 ], [ -52.201191662244064, -32.077677020811009 ], [ -52.201102726037746, -32.076876594954143 ] ] ], [ [ [ -52.193028024279855, -32.072287725269909 ], [ -52.193016235912985, -32.072282376647856 ], [ -52.193003834773549, -32.072286089475945 ], [ -52.192981396883859, -32.072295064631824 ], [ -52.194361938235005, -32.073181306525292 ], [ -52.19487634717651, -32.073335108244677 ], [ -52.193028024279855, -32.072287725269909 ] ] ] ] } }
]
}
