{
"type": "FeatureCollection",
"name": "educacao_ATINGIDOS_rio_grande___chuva_acumulada_60_8mm",
"crs": { "type": "name", "properties": { "name": "urn:ogc:def:crs:OGC:1.3:CRS84" } },
"features": [
{ "type": "Feature", "properties": { "co_entidade": 43035833, "no_entidade": "NUCL E EJA E CP PROFESSORA STELLA DA COSTA BESSOUAT", "municipio": "Rio Grande", "tp_dependencia": 2, "tp_dependencia_label": "Estadual", "ds_endereco": "ROD RODOVIA BR392 S/N", "nu_endereco": "S/N", "ds_complemento": null, "no_bairro": "QUINTA", "co_cep": 96222200, "endereco_geocode": "ROD RODOVIA BR392 S/N, S/N, QUINTA, 96222200, Rio Grande - RS", "qtd_mat_infantil": 0, "qtd_mat_fundamental": 0, "qtd_mat_medio": 0, "qtd_mat_profissional": 0, "qtd_mat_eja": 51, "qtd_mat_especial": 2, "qtd_mat_total": 53, "qtd_doc_total": 4, "qtd_prof_total": 2, "qtd_prof": 2, "qtd_doc": 4, "qtd_matri_inf": 0, "qtd_matri_fund": 0, "qtd_matri_med": 0, "qtd_matri_prof": 0, "qtd_matri_eja": 51, "qtd_matri_esp": 2 }, "geometry": { "type": "Point", "coordinates": [ -52.0991297, -32.0334252 ] } },
{ "type": "Feature", "properties": { "co_entidade": 43065961, "no_entidade": "ESCOLA MUNICIPAL DE EDUCACAO BILINGUE PROFESSORA CARMEN REGINA TEIXEIRA BALDINO", "municipio": "Rio Grande", "tp_dependencia": 3, "tp_dependencia_label": "Municipal", "ds_endereco": "RUA DUQUE DE CAXIAS", "nu_endereco": "342", "ds_complemento": null, "no_bairro": "CENTRO", "co_cep": 96200020, "endereco_geocode": "RUA DUQUE DE CAXIAS, 342, CENTRO, 96200020, Rio Grande - RS", "qtd_mat_infantil": 6, "qtd_mat_fundamental": 43, "qtd_mat_medio": 0, "qtd_mat_profissional": 0, "qtd_mat_eja": 10, "qtd_mat_especial": 49, "qtd_mat_total": 108, "qtd_doc_total": 15, "qtd_prof_total": 12, "qtd_prof": 12, "qtd_doc": 15, "qtd_matri_inf": 6, "qtd_matri_fund": 43, "qtd_matri_med": 0, "qtd_matri_prof": 0, "qtd_matri_eja": 10, "qtd_matri_esp": 49 }, "geometry": { "type": "Point", "coordinates": [ -52.0983841, -32.0400766 ] } },
{ "type": "Feature", "properties": { "co_entidade": 43075495, "no_entidade": "EEI OFICINA DO SABER", "municipio": "Rio Grande", "tp_dependencia": 4, "tp_dependencia_label": "Privada", "ds_endereco": "RUA GOMES FREIRE", "nu_endereco": "746", "ds_complemento": "D", "no_bairro": "CENTRO", "co_cep": 96211280, "endereco_geocode": "RUA GOMES FREIRE, 746, CENTRO, 96211280, Rio Grande - RS", "qtd_mat_infantil": 36, "qtd_mat_fundamental": 0, "qtd_mat_medio": 0, "qtd_mat_profissional": 0, "qtd_mat_eja": 0, "qtd_mat_especial": 2, "qtd_mat_total": 38, "qtd_doc_total": 5, "qtd_prof_total": 0, "qtd_prof": 0, "qtd_doc": 5, "qtd_matri_inf": 36, "qtd_matri_fund": 0, "qtd_matri_med": 0, "qtd_matri_prof": 0, "qtd_matri_eja": 0, "qtd_matri_esp": 2 }, "geometry": { "type": "Point", "coordinates": [ -52.1039853, -32.0332074 ] } },
{ "type": "Feature", "properties": { "co_entidade": 43075509, "no_entidade": "EEI SAPECAS EM ACAO", "municipio": "Rio Grande", "tp_dependencia": 4, "tp_dependencia_label": "Privada", "ds_endereco": "RUA ACRE", "nu_endereco": "284", "ds_complemento": null, "no_bairro": "FREDERICO ERNESTO BUCHHOLZ", "co_cep": 96212120, "endereco_geocode": "RUA ACRE, 284, FREDERICO ERNESTO BUCHHOLZ, 96212120, Rio Grande - RS", "qtd_mat_infantil": 80, "qtd_mat_fundamental": 0, "qtd_mat_medio": 0, "qtd_mat_profissional": 0, "qtd_mat_eja": 0, "qtd_mat_especial": 0, "qtd_mat_total": 80, "qtd_doc_total": 3, "qtd_prof_total": 10, "qtd_prof": 10, "qtd_doc": 3, "qtd_matri_inf": 80, "qtd_matri_fund": 0, "qtd_matri_med": 0, "qtd_matri_prof": 0, "qtd_matri_eja": 0, "qtd_matri_esp": 0 }, "geometry": { "type": "Point", "coordinates": [ -52.1309052, -32.0488072 ] } },
{ "type": "Feature", "properties": { "co_entidade": 43076009, "no_entidade": "EEI FAZENDO ARTE", "municipio": "Rio Grande", "tp_dependencia": 4, "tp_dependencia_label": "Privada", "ds_endereco": "RUA DOUTOR MIGUEL RIET CORREA", "nu_endereco": "16", "ds_complemento": null, "no_bairro": "LEONIDAS", "co_cep": 96203310, "endereco_geocode": "RUA DOUTOR MIGUEL RIET CORREA, 16, LEONIDAS, 96203310, Rio Grande - RS", "qtd_mat_infantil": 48, "qtd_mat_fundamental": 0, "qtd_mat_medio": 0, "qtd_mat_profissional": 0, "qtd_mat_eja": 0, "qtd_mat_especial": 6, "qtd_mat_total": 54, "qtd_doc_total": 7, "qtd_prof_total": 8, "qtd_prof": 8, "qtd_doc": 7, "qtd_matri_inf": 48, "qtd_matri_fund": 0, "qtd_matri_med": 0, "qtd_matri_prof": 0, "qtd_matri_eja": 0, "qtd_matri_esp": 6 }, "geometry": { "type": "Point", "coordinates": [ -52.0991297, -32.0334252 ] } },
{ "type": "Feature", "properties": { "co_entidade": 43076181, "no_entidade": "EEI TIA RITA", "municipio": "Rio Grande", "tp_dependencia": 4, "tp_dependencia_label": "Privada", "ds_endereco": "RUA TOBIAS BARRETO", "nu_endereco": "364", "ds_complemento": null, "no_bairro": "COHAB II", "co_cep": 96211420, "endereco_geocode": "RUA TOBIAS BARRETO, 364, COHAB II, 96211420, Rio Grande - RS", "qtd_mat_infantil": 29, "qtd_mat_fundamental": 0, "qtd_mat_medio": 0, "qtd_mat_profissional": 0, "qtd_mat_eja": 0, "qtd_mat_especial": 1, "qtd_mat_total": 30, "qtd_doc_total": 4, "qtd_prof_total": 0, "qtd_prof": 0, "qtd_doc": 4, "qtd_matri_inf": 29, "qtd_matri_fund": 0, "qtd_matri_med": 0, "qtd_matri_prof": 0, "qtd_matri_eja": 0, "qtd_matri_esp": 1 }, "geometry": { "type": "Point", "coordinates": [ -52.1277, -32.0445103 ] } },
{ "type": "Feature", "properties": { "co_entidade": 43076203, "no_entidade": "ESCOLA DE EDUCACAO INFANTIL EDUCARTE", "municipio": "Rio Grande", "tp_dependencia": 4, "tp_dependencia_label": "Privada", "ds_endereco": "RUA DUQUE DE CAXIAS", "nu_endereco": "934", "ds_complemento": null, "no_bairro": "CENTRO", "co_cep": 96200020, "endereco_geocode": "RUA DUQUE DE CAXIAS, 934, CENTRO, 96200020, Rio Grande - RS", "qtd_mat_infantil": 43, "qtd_mat_fundamental": 0, "qtd_mat_medio": 0, "qtd_mat_profissional": 0, "qtd_mat_eja": 0, "qtd_mat_especial": 0, "qtd_mat_total": 43, "qtd_doc_total": 5, "qtd_prof_total": 1, "qtd_prof": 1, "qtd_doc": 5, "qtd_matri_inf": 43, "qtd_matri_fund": 0, "qtd_matri_med": 0, "qtd_matri_prof": 0, "qtd_matri_eja": 0, "qtd_matri_esp": 0 }, "geometry": { "type": "Point", "coordinates": [ -52.0983841, -32.0400766 ] } },
{ "type": "Feature", "properties": { "co_entidade": 43077021, "no_entidade": "EEI MICHIGAN KIDS", "municipio": "Rio Grande", "tp_dependencia": 4, "tp_dependencia_label": "Privada", "ds_endereco": "RUA DUQUE DE CAXIAS", "nu_endereco": "496", "ds_complemento": null, "no_bairro": "CENTRO", "co_cep": 96200020, "endereco_geocode": "RUA DUQUE DE CAXIAS, 496, CENTRO, 96200020, Rio Grande - RS", "qtd_mat_infantil": 95, "qtd_mat_fundamental": 0, "qtd_mat_medio": 0, "qtd_mat_profissional": 0, "qtd_mat_eja": 0, "qtd_mat_especial": 3, "qtd_mat_total": 98, "qtd_doc_total": 12, "qtd_prof_total": 4, "qtd_prof": 4, "qtd_doc": 12, "qtd_matri_inf": 95, "qtd_matri_fund": 0, "qtd_matri_med": 0, "qtd_matri_prof": 0, "qtd_matri_eja": 0, "qtd_matri_esp": 3 }, "geometry": { "type": "Point", "coordinates": [ -52.0983841, -32.0400766 ] } },
{ "type": "Feature", "properties": { "co_entidade": 43077056, "no_entidade": "EEI ALGODAO DOCE", "municipio": "Rio Grande", "tp_dependencia": 4, "tp_dependencia_label": "Privada", "ds_endereco": "CONSELHEIRO TEIXEIRA JR", "nu_endereco": "414", "ds_complemento": null, "no_bairro": "CIDADE NOVA", "co_cep": 96211080, "endereco_geocode": "CONSELHEIRO TEIXEIRA JR, 414, CIDADE NOVA, 96211080, Rio Grande - RS", "qtd_mat_infantil": 28, "qtd_mat_fundamental": 0, "qtd_mat_medio": 0, "qtd_mat_profissional": 0, "qtd_mat_eja": 0, "qtd_mat_especial": 2, "qtd_mat_total": 30, "qtd_doc_total": 3, "qtd_prof_total": 3, "qtd_prof": 3, "qtd_doc": 3, "qtd_matri_inf": 28, "qtd_matri_fund": 0, "qtd_matri_med": 0, "qtd_matri_prof": 0, "qtd_matri_eja": 0, "qtd_matri_esp": 2 }, "geometry": { "type": "Point", "coordinates": [ -52.1126229, -32.0394496 ] } },
{ "type": "Feature", "properties": { "co_entidade": 43079849, "no_entidade": "EMEI PROFESSORA DEBORAH THOME SAYAO", "municipio": "Rio Grande", "tp_dependencia": 3, "tp_dependencia_label": "Municipal", "ds_endereco": "AVENIDA ENGENHEIRA LUCIA MARIA BALBELA CHIESA", "nu_endereco": "7270", "ds_complemento": "ERS 734", "no_bairro": "BOLAXA", "co_cep": 96217150, "endereco_geocode": "AVENIDA ENGENHEIRA LUCIA MARIA BALBELA CHIESA, 7270, BOLAXA, 96217150, Rio Grande - RS", "qtd_mat_infantil": 183, "qtd_mat_fundamental": 0, "qtd_mat_medio": 0, "qtd_mat_profissional": 0, "qtd_mat_eja": 0, "qtd_mat_especial": 45, "qtd_mat_total": 228, "qtd_doc_total": 14, "qtd_prof_total": 24, "qtd_prof": 24, "qtd_doc": 14, "qtd_matri_inf": 183, "qtd_matri_fund": 0, "qtd_matri_med": 0, "qtd_matri_prof": 0, "qtd_matri_eja": 0, "qtd_matri_esp": 45 }, "geometry": { "type": "Point", "coordinates": [ -52.0991297, -32.0334252 ] } },
{ "type": "Feature", "properties": { "co_entidade": 43097855, "no_entidade": "EEI CLUBINHO BABY", "municipio": "Rio Grande", "tp_dependencia": 4, "tp_dependencia_label": "Privada", "ds_endereco": "RUA DOUTOR NASCIMENTO", "nu_endereco": "780", "ds_complemento": null, "no_bairro": "CENTRO", "co_cep": 96200300, "endereco_geocode": "RUA DOUTOR NASCIMENTO, 780, CENTRO, 96200300, Rio Grande - RS", "qtd_mat_infantil": 46, "qtd_mat_fundamental": 0, "qtd_mat_medio": 0, "qtd_mat_profissional": 0, "qtd_mat_eja": 0, "qtd_mat_especial": 2, "qtd_mat_total": 48, "qtd_doc_total": 5, "qtd_prof_total": 1, "qtd_prof": 1, "qtd_doc": 5, "qtd_matri_inf": 46, "qtd_matri_fund": 0, "qtd_matri_med": 0, "qtd_matri_prof": 0, "qtd_matri_eja": 0, "qtd_matri_esp": 2 }, "geometry": { "type": "Point", "coordinates": [ -52.1019573, -32.0354523 ] } },
{ "type": "Feature", "properties": { "co_entidade": 43098983, "no_entidade": "EEI TIA GLECI", "municipio": "Rio Grande", "tp_dependencia": 4, "tp_dependencia_label": "Privada", "ds_endereco": "RUA DUQUE DE CAXIAS", "nu_endereco": "576", "ds_complemento": null, "no_bairro": "CENTRO", "co_cep": 96200020, "endereco_geocode": "RUA DUQUE DE CAXIAS, 576, CENTRO, 96200020, Rio Grande - RS", "qtd_mat_infantil": 60, "qtd_mat_fundamental": 0, "qtd_mat_medio": 0, "qtd_mat_profissional": 0, "qtd_mat_eja": 0, "qtd_mat_especial": 2, "qtd_mat_total": 62, "qtd_doc_total": 4, "qtd_prof_total": 7, "qtd_prof": 7, "qtd_doc": 4, "qtd_matri_inf": 60, "qtd_matri_fund": 0, "qtd_matri_med": 0, "qtd_matri_prof": 0, "qtd_matri_eja": 0, "qtd_matri_esp": 2 }, "geometry": { "type": "Point", "coordinates": [ -52.0983841, -32.0400766 ] } },
{ "type": "Feature", "properties": { "co_entidade": 43099025, "no_entidade": "CENTRO DE FORMACAO ESCOLA VIVA", "municipio": "Rio Grande", "tp_dependencia": 3, "tp_dependencia_label": "Municipal", "ds_endereco": "AVENIDA PORTUGAL", "nu_endereco": "38", "ds_complemento": null, "no_bairro": "CIDADE NOVA", "co_cep": 96211040, "endereco_geocode": "AVENIDA PORTUGAL, 38, CIDADE NOVA, 96211040, Rio Grande - RS", "qtd_mat_infantil": 0, "qtd_mat_fundamental": 0, "qtd_mat_medio": 0, "qtd_mat_profissional": 0, "qtd_mat_eja": 0, "qtd_mat_especial": 0, "qtd_mat_total": 0, "qtd_doc_total": 0, "qtd_prof_total": 11, "qtd_prof": 11, "qtd_doc": 0, "qtd_matri_inf": 0, "qtd_matri_fund": 0, "qtd_matri_med": 0, "qtd_matri_prof": 0, "qtd_matri_eja": 0, "qtd_matri_esp": 0 }, "geometry": { "type": "Point", "coordinates": [ -52.1159828, -32.0359447 ] } },
{ "type": "Feature", "properties": { "co_entidade": 43112803, "no_entidade": "COLEGIO MARISTA SAO FRANCISCO - ED INF ENS FUND E MEDIO", "municipio": "Rio Grande", "tp_dependencia": 4, "tp_dependencia_label": "Privada", "ds_endereco": "RUA DOUTOR NASCIMENTO", "nu_endereco": "577", "ds_complemento": null, "no_bairro": "CENTRO", "co_cep": 96200300, "endereco_geocode": "RUA DOUTOR NASCIMENTO, 577, CENTRO, 96200300, Rio Grande - RS", "qtd_mat_infantil": 86, "qtd_mat_fundamental": 672, "qtd_mat_medio": 194, "qtd_mat_profissional": 0, "qtd_mat_eja": 0, "qtd_mat_especial": 27, "qtd_mat_total": 979, "qtd_doc_total": 44, "qtd_prof_total": 41, "qtd_prof": 41, "qtd_doc": 44, "qtd_matri_inf": 86, "qtd_matri_fund": 672, "qtd_matri_med": 194, "qtd_matri_prof": 0, "qtd_matri_eja": 0, "qtd_matri_esp": 27 }, "geometry": { "type": "Point", "coordinates": [ -52.1019573, -32.0354523 ] } },
{ "type": "Feature", "properties": { "co_entidade": 43112846, "no_entidade": "ESC EST ENS FUN MARECHAL EMILIO LUIZ MALLET", "municipio": "Rio Grande", "tp_dependencia": 2, "tp_dependencia_label": "Estadual", "ds_endereco": "R AMAZONAS ESQ PERU SN", "nu_endereco": "SN", "ds_complemento": null, "no_bairro": "RURAL", "co_cep": 96212140, "endereco_geocode": "R AMAZONAS ESQ PERU SN, SN, RURAL, 96212140, Rio Grande - RS", "qtd_mat_infantil": 0, "qtd_mat_fundamental": 98, "qtd_mat_medio": 0, "qtd_mat_profissional": 0, "qtd_mat_eja": 12, "qtd_mat_especial": 0, "qtd_mat_total": 110, "qtd_doc_total": 16, "qtd_prof_total": 10, "qtd_prof": 10, "qtd_doc": 16, "qtd_matri_inf": 0, "qtd_matri_fund": 98, "qtd_matri_med": 0, "qtd_matri_prof": 0, "qtd_matri_eja": 12, "qtd_matri_esp": 0 }, "geometry": { "type": "Point", "coordinates": [ -52.0991297, -32.0334252 ] } },
{ "type": "Feature", "properties": { "co_entidade": 43112986, "no_entidade": "ESC MUN ENS FUN D PEDRO II", "municipio": "Rio Grande", "tp_dependencia": 3, "tp_dependencia_label": "Municipal", "ds_endereco": "RUA CRISTOVAO PEREIRA", "nu_endereco": "880", "ds_complemento": null, "no_bairro": "VILA SAO JOAO", "co_cep": 96213170, "endereco_geocode": "RUA CRISTOVAO PEREIRA, 880, VILA SAO JOAO, 96213170, Rio Grande - RS", "qtd_mat_infantil": 61, "qtd_mat_fundamental": 280, "qtd_mat_medio": 0, "qtd_mat_profissional": 0, "qtd_mat_eja": 0, "qtd_mat_especial": 47, "qtd_mat_total": 388, "qtd_doc_total": 20, "qtd_prof_total": 0, "qtd_prof": 0, "qtd_doc": 20, "qtd_matri_inf": 61, "qtd_matri_fund": 280, "qtd_matri_med": 0, "qtd_matri_prof": 0, "qtd_matri_eja": 0, "qtd_matri_esp": 47 }, "geometry": { "type": "Point", "coordinates": [ -52.1542288, -32.0532087 ] } },
{ "type": "Feature", "properties": { "co_entidade": 43112994, "no_entidade": "EMEF DR ALTAMIR DE LACERDA NASCIMENTO", "municipio": "Rio Grande", "tp_dependencia": 3, "tp_dependencia_label": "Municipal", "ds_endereco": "RUA DOUTOR RAUL PILLA", "nu_endereco": "2099", "ds_complemento": null, "no_bairro": "VILA BERNARDETH", "co_cep": 96203550, "endereco_geocode": "RUA DOUTOR RAUL PILLA, 2099, VILA BERNARDETH, 96203550, Rio Grande - RS", "qtd_mat_infantil": 51, "qtd_mat_fundamental": 381, "qtd_mat_medio": 0, "qtd_mat_profissional": 0, "qtd_mat_eja": 0, "qtd_mat_especial": 99, "qtd_mat_total": 531, "qtd_doc_total": 30, "qtd_prof_total": 12, "qtd_prof": 12, "qtd_doc": 30, "qtd_matri_inf": 51, "qtd_matri_fund": 381, "qtd_matri_med": 0, "qtd_matri_prof": 0, "qtd_matri_eja": 0, "qtd_matri_esp": 99 }, "geometry": { "type": "Point", "coordinates": [ -52.0991297, -32.0334252 ] } },
{ "type": "Feature", "properties": { "co_entidade": 43113010, "no_entidade": "ESC MUN ENS FUN DR ROQUE AITA JUNIOR", "municipio": "Rio Grande", "tp_dependencia": 3, "tp_dependencia_label": "Municipal", "ds_endereco": "AVENIDA OSVALDO ARANHA", "nu_endereco": "159", "ds_complemento": null, "no_bairro": "PARQUE RESIDENCIAL COELHO", "co_cep": 96202020, "endereco_geocode": "AVENIDA OSVALDO ARANHA, 159, PARQUE RESIDENCIAL COELHO, 96202020, Rio Grande - RS", "qtd_mat_infantil": 21, "qtd_mat_fundamental": 75, "qtd_mat_medio": 0, "qtd_mat_profissional": 0, "qtd_mat_eja": 0, "qtd_mat_especial": 35, "qtd_mat_total": 131, "qtd_doc_total": 7, "qtd_prof_total": 9, "qtd_prof": 9, "qtd_doc": 7, "qtd_matri_inf": 21, "qtd_matri_fund": 75, "qtd_matri_med": 0, "qtd_matri_prof": 0, "qtd_matri_eja": 0, "qtd_matri_esp": 35 }, "geometry": { "type": "Point", "coordinates": [ -52.0991297, -32.0334252 ] } },
{ "type": "Feature", "properties": { "co_entidade": 43113052, "no_entidade": "EMEF FREDERICO ERNESTO BUCHHOLZ", "municipio": "Rio Grande", "tp_dependencia": 3, "tp_dependencia_label": "Municipal", "ds_endereco": "RUA ESTADOS UNIDOS DA AMERICA DO NORTE", "nu_endereco": "S/N", "ds_complemento": null, "no_bairro": "FREDERICO ERNESTO BUCHHOLZ", "co_cep": 96212014, "endereco_geocode": "RUA ESTADOS UNIDOS DA AMERICA DO NORTE, S/N, FREDERICO ERNESTO BUCHHOLZ, 96212014, Rio Grande - RS", "qtd_mat_infantil": 128, "qtd_mat_fundamental": 471, "qtd_mat_medio": 0, "qtd_mat_profissional": 0, "qtd_mat_eja": 0, "qtd_mat_especial": 110, "qtd_mat_total": 709, "qtd_doc_total": 42, "qtd_prof_total": 27, "qtd_prof": 27, "qtd_doc": 42, "qtd_matri_inf": 128, "qtd_matri_fund": 471, "qtd_matri_med": 0, "qtd_matri_prof": 0, "qtd_matri_eja": 0, "qtd_matri_esp": 110 }, "geometry": { "type": "Point", "coordinates": [ -52.1304545, -32.053041 ] } },
{ "type": "Feature", "properties": { "co_entidade": 43113060, "no_entidade": "EMEF HELENA SMALL", "municipio": "Rio Grande", "tp_dependencia": 3, "tp_dependencia_label": "Municipal", "ds_endereco": "RUA BARAO DO COTEGIPE", "nu_endereco": "155", "ds_complemento": null, "no_bairro": "CENTRO", "co_cep": 96200290, "endereco_geocode": "RUA BARAO DO COTEGIPE, 155, CENTRO, 96200290, Rio Grande - RS", "qtd_mat_infantil": 67, "qtd_mat_fundamental": 742, "qtd_mat_medio": 0, "qtd_mat_profissional": 0, "qtd_mat_eja": 0, "qtd_mat_especial": 70, "qtd_mat_total": 879, "qtd_doc_total": 47, "qtd_prof_total": 20, "qtd_prof": 20, "qtd_doc": 47, "qtd_matri_inf": 67, "qtd_matri_fund": 742, "qtd_matri_med": 0, "qtd_matri_prof": 0, "qtd_matri_eja": 0, "qtd_matri_esp": 70 }, "geometry": { "type": "Point", "coordinates": [ -52.0991297, -32.0334252 ] } },
{ "type": "Feature", "properties": { "co_entidade": 43113095, "no_entidade": "ESC MUN ENS FUN HUMBERTO DE CAMPOS", "municipio": "Rio Grande", "tp_dependencia": 3, "tp_dependencia_label": "Municipal", "ds_endereco": "RUA UM- VILA OLINDA", "nu_endereco": "S/N", "ds_complemento": null, "no_bairro": "SENANDES", "co_cep": 96217110, "endereco_geocode": "RUA UM- VILA OLINDA, S/N, SENANDES, 96217110, Rio Grande - RS", "qtd_mat_infantil": 6, "qtd_mat_fundamental": 32, "qtd_mat_medio": 0, "qtd_mat_profissional": 0, "qtd_mat_eja": 0, "qtd_mat_especial": 13, "qtd_mat_total": 51, "qtd_doc_total": 4, "qtd_prof_total": 0, "qtd_prof": 0, "qtd_doc": 4, "qtd_matri_inf": 6, "qtd_matri_fund": 32, "qtd_matri_med": 0, "qtd_matri_prof": 0, "qtd_matri_eja": 0, "qtd_matri_esp": 13 }, "geometry": { "type": "Point", "coordinates": [ -52.0991297, -32.0334252 ] } },
{ "type": "Feature", "properties": { "co_entidade": 43113273, "no_entidade": "EMEF SANT ANA", "municipio": "Rio Grande", "tp_dependencia": 3, "tp_dependencia_label": "Municipal", "ds_endereco": "RUA COLOMBIA", "nu_endereco": "586", "ds_complemento": null, "no_bairro": "AMERICA", "co_cep": 96212230, "endereco_geocode": "RUA COLOMBIA, 586, AMERICA, 96212230, Rio Grande - RS", "qtd_mat_infantil": 53, "qtd_mat_fundamental": 488, "qtd_mat_medio": 0, "qtd_mat_profissional": 0, "qtd_mat_eja": 0, "qtd_mat_especial": 163, "qtd_mat_total": 704, "qtd_doc_total": 41, "qtd_prof_total": 23, "qtd_prof": 23, "qtd_doc": 41, "qtd_matri_inf": 53, "qtd_matri_fund": 488, "qtd_matri_med": 0, "qtd_matri_prof": 0, "qtd_matri_eja": 0, "qtd_matri_esp": 163 }, "geometry": { "type": "Point", "coordinates": [ -52.1383249, -32.0571155 ] } },
{ "type": "Feature", "properties": { "co_entidade": 43113338, "no_entidade": "COLEGIO HEBE MARSIGLIA", "municipio": "Rio Grande", "tp_dependencia": 4, "tp_dependencia_label": "Privada", "ds_endereco": "RUA DUQUE DE CAXIAS", "nu_endereco": "578", "ds_complemento": null, "no_bairro": "CENTRO", "co_cep": 96200020, "endereco_geocode": "RUA DUQUE DE CAXIAS, 578, CENTRO, 96200020, Rio Grande - RS", "qtd_mat_infantil": 28, "qtd_mat_fundamental": 166, "qtd_mat_medio": 21, "qtd_mat_profissional": 0, "qtd_mat_eja": 0, "qtd_mat_especial": 4, "qtd_mat_total": 219, "qtd_doc_total": 27, "qtd_prof_total": 8, "qtd_prof": 8, "qtd_doc": 27, "qtd_matri_inf": 28, "qtd_matri_fund": 166, "qtd_matri_med": 21, "qtd_matri_prof": 0, "qtd_matri_eja": 0, "qtd_matri_esp": 4 }, "geometry": { "type": "Point", "coordinates": [ -52.0983841, -32.0400766 ] } },
{ "type": "Feature", "properties": { "co_entidade": 43113354, "no_entidade": "ESC ENSINO FUNDAMENTAL SAO LUIZ GONZAGA", "municipio": "Rio Grande", "tp_dependencia": 4, "tp_dependencia_label": "Privada", "ds_endereco": "AVENIDA CIDADE DE PELOTAS", "nu_endereco": "355", "ds_complemento": null, "no_bairro": "CIDADE NOVA", "co_cep": 96211000, "endereco_geocode": "AVENIDA CIDADE DE PELOTAS, 355, CIDADE NOVA, 96211000, Rio Grande - RS", "qtd_mat_infantil": 60, "qtd_mat_fundamental": 316, "qtd_mat_medio": 0, "qtd_mat_profissional": 0, "qtd_mat_eja": 0, "qtd_mat_especial": 18, "qtd_mat_total": 394, "qtd_doc_total": 31, "qtd_prof_total": 36, "qtd_prof": 36, "qtd_doc": 31, "qtd_matri_inf": 60, "qtd_matri_fund": 316, "qtd_matri_med": 0, "qtd_matri_prof": 0, "qtd_matri_eja": 0, "qtd_matri_esp": 18 }, "geometry": { "type": "Point", "coordinates": [ -52.1254266, -32.0435434 ] } },
{ "type": "Feature", "properties": { "co_entidade": 43113397, "no_entidade": "ESC MUN ENS FUN BARAO DO RIO BRANCO", "municipio": "Rio Grande", "tp_dependencia": 3, "tp_dependencia_label": "Municipal", "ds_endereco": "AVENIDA DOS BANDEIRANTES", "nu_endereco": "76", "ds_complemento": null, "no_bairro": "VILA JUNCAO", "co_cep": 96212450, "endereco_geocode": "AVENIDA DOS BANDEIRANTES, 76, VILA JUNCAO, 96212450, Rio Grande - RS", "qtd_mat_infantil": 65, "qtd_mat_fundamental": 142, "qtd_mat_medio": 0, "qtd_mat_profissional": 0, "qtd_mat_eja": 0, "qtd_mat_especial": 42, "qtd_mat_total": 249, "qtd_doc_total": 13, "qtd_prof_total": 10, "qtd_prof": 10, "qtd_doc": 13, "qtd_matri_inf": 65, "qtd_matri_fund": 142, "qtd_matri_med": 0, "qtd_matri_prof": 0, "qtd_matri_eja": 0, "qtd_matri_esp": 42 }, "geometry": { "type": "Point", "coordinates": [ -52.1424684, -32.0528278 ] } },
{ "type": "Feature", "properties": { "co_entidade": 43113400, "no_entidade": "ESCOLA ENSINO FUNDAMENTAL CORACAO DE MARIA", "municipio": "Rio Grande", "tp_dependencia": 4, "tp_dependencia_label": "Privada", "ds_endereco": "AVENIDA PRESIDENTE VARGAS", "nu_endereco": "681", "ds_complemento": null, "no_bairro": "VILA JUNCAO", "co_cep": 96202188, "endereco_geocode": "AVENIDA PRESIDENTE VARGAS, 681, VILA JUNCAO, 96202188, Rio Grande - RS", "qtd_mat_infantil": 55, "qtd_mat_fundamental": 129, "qtd_mat_medio": 0, "qtd_mat_profissional": 0, "qtd_mat_eja": 0, "qtd_mat_especial": 15, "qtd_mat_total": 199, "qtd_doc_total": 13, "qtd_prof_total": 20, "qtd_prof": 20, "qtd_doc": 13, "qtd_matri_inf": 55, "qtd_matri_fund": 129, "qtd_matri_med": 0, "qtd_matri_prof": 0, "qtd_matri_eja": 0, "qtd_matri_esp": 15 }, "geometry": { "type": "Point", "coordinates": [ -52.1084681, -32.0464832 ] } },
{ "type": "Feature", "properties": { "co_entidade": 43113419, "no_entidade": "ESC EST ENS FUN ADELAIDE ALVIM", "municipio": "Rio Grande", "tp_dependencia": 2, "tp_dependencia_label": "Estadual", "ds_endereco": "R RUA PINTO BANDEIRA 267", "nu_endereco": "267", "ds_complemento": null, "no_bairro": "VILA JUNCAO", "co_cep": 96212472, "endereco_geocode": "R RUA PINTO BANDEIRA 267, 267, VILA JUNCAO, 96212472, Rio Grande - RS", "qtd_mat_infantil": 0, "qtd_mat_fundamental": 231, "qtd_mat_medio": 0, "qtd_mat_profissional": 0, "qtd_mat_eja": 0, "qtd_mat_especial": 18, "qtd_mat_total": 249, "qtd_doc_total": 19, "qtd_prof_total": 11, "qtd_prof": 11, "qtd_doc": 19, "qtd_matri_inf": 0, "qtd_matri_fund": 231, "qtd_matri_med": 0, "qtd_matri_prof": 0, "qtd_matri_eja": 0, "qtd_matri_esp": 18 }, "geometry": { "type": "Point", "coordinates": [ -52.0991297, -32.0334252 ] } },
{ "type": "Feature", "properties": { "co_entidade": 43113427, "no_entidade": "ESC EST ENS FUN AGNELLA DO NASCIMENTO", "municipio": "Rio Grande", "tp_dependencia": 2, "tp_dependencia_label": "Estadual", "ds_endereco": "R MARECHAL DEODORO 249 CASA", "nu_endereco": "249", "ds_complemento": "CASA", "no_bairro": "CIDADE NOVA", "co_cep": 96211480, "endereco_geocode": "R MARECHAL DEODORO 249 CASA, 249, CIDADE NOVA, 96211480, Rio Grande - RS", "qtd_mat_infantil": 0, "qtd_mat_fundamental": 155, "qtd_mat_medio": 0, "qtd_mat_profissional": 0, "qtd_mat_eja": 0, "qtd_mat_especial": 9, "qtd_mat_total": 164, "qtd_doc_total": 15, "qtd_prof_total": 10, "qtd_prof": 10, "qtd_doc": 15, "qtd_matri_inf": 0, "qtd_matri_fund": 155, "qtd_matri_med": 0, "qtd_matri_prof": 0, "qtd_matri_eja": 0, "qtd_matri_esp": 9 }, "geometry": { "type": "Point", "coordinates": [ -52.0991297, -32.0334252 ] } },
{ "type": "Feature", "properties": { "co_entidade": 43113451, "no_entidade": "ESC EST ENS FUN SALDANHA DA GAMA", "municipio": "Rio Grande", "tp_dependencia": 2, "tp_dependencia_label": "Estadual", "ds_endereco": "AV AVENIDA PRINCIPAL SN 4 S BARRA", "nu_endereco": "SN", "ds_complemento": "4 S BARRA", "no_bairro": "ZONA PORTUARIA", "co_cep": 96204050, "endereco_geocode": "AV AVENIDA PRINCIPAL SN 4 S BARRA, SN, ZONA PORTUARIA, 96204050, Rio Grande - RS", "qtd_mat_infantil": 0, "qtd_mat_fundamental": 270, "qtd_mat_medio": 0, "qtd_mat_profissional": 0, "qtd_mat_eja": 28, "qtd_mat_especial": 29, "qtd_mat_total": 327, "qtd_doc_total": 24, "qtd_prof_total": 17, "qtd_prof": 17, "qtd_doc": 24, "qtd_matri_inf": 0, "qtd_matri_fund": 270, "qtd_matri_med": 0, "qtd_matri_prof": 0, "qtd_matri_eja": 28, "qtd_matri_esp": 29 }, "geometry": { "type": "Point", "coordinates": [ -52.0991297, -32.0334252 ] } },
{ "type": "Feature", "properties": { "co_entidade": 43113516, "no_entidade": "ESC EST ENS FUN GUARDA MARINHA GREENHALGH", "municipio": "Rio Grande", "tp_dependencia": 2, "tp_dependencia_label": "Estadual", "ds_endereco": "R RUA CRISTOVAO JAQUES 369", "nu_endereco": "369", "ds_complemento": null, "no_bairro": "NOSSA SENHORA DOS NA", "co_cep": 96202670, "endereco_geocode": "R RUA CRISTOVAO JAQUES 369, 369, NOSSA SENHORA DOS NA, 96202670, Rio Grande - RS", "qtd_mat_infantil": 0, "qtd_mat_fundamental": 117, "qtd_mat_medio": 0, "qtd_mat_profissional": 0, "qtd_mat_eja": 0, "qtd_mat_especial": 20, "qtd_mat_total": 137, "qtd_doc_total": 8, "qtd_prof_total": 8, "qtd_prof": 8, "qtd_doc": 8, "qtd_matri_inf": 0, "qtd_matri_fund": 117, "qtd_matri_med": 0, "qtd_matri_prof": 0, "qtd_matri_eja": 0, "qtd_matri_esp": 20 }, "geometry": { "type": "Point", "coordinates": [ -52.0991297, -32.0334252 ] } },
{ "type": "Feature", "properties": { "co_entidade": 43113524, "no_entidade": "ESC EST ENS FUN IMPERIAL MARINHEIRO MARCILIO DIAS", "municipio": "Rio Grande", "tp_dependencia": 2, "tp_dependencia_label": "Estadual", "ds_endereco": "R GAL VITORINO 67", "nu_endereco": "67", "ds_complemento": null, "no_bairro": "CENTRO", "co_cep": 96200310, "endereco_geocode": "R GAL VITORINO 67, 67, CENTRO, 96200310, Rio Grande - RS", "qtd_mat_infantil": 0, "qtd_mat_fundamental": 93, "qtd_mat_medio": 0, "qtd_mat_profissional": 0, "qtd_mat_eja": 0, "qtd_mat_especial": 3, "qtd_mat_total": 96, "qtd_doc_total": 9, "qtd_prof_total": 9, "qtd_prof": 9, "qtd_doc": 9, "qtd_matri_inf": 0, "qtd_matri_fund": 93, "qtd_matri_med": 0, "qtd_matri_prof": 0, "qtd_matri_eja": 0, "qtd_matri_esp": 3 }, "geometry": { "type": "Point", "coordinates": [ -52.1003388, -32.0348893 ] } },
{ "type": "Feature", "properties": { "co_entidade": 43113532, "no_entidade": "ESC EST ENS FUN MARIO QUINTANA", "municipio": "Rio Grande", "tp_dependencia": 2, "tp_dependencia_label": "Estadual", "ds_endereco": "R RUA JULIO FERREIRA DA SILVA SN", "nu_endereco": "SN", "ds_complemento": null, "no_bairro": "VILA MARIA JOSE/ TRE", "co_cep": 96203670, "endereco_geocode": "R RUA JULIO FERREIRA DA SILVA SN, SN, VILA MARIA JOSE/ TRE, 96203670, Rio Grande - RS", "qtd_mat_infantil": 0, "qtd_mat_fundamental": 24, "qtd_mat_medio": 0, "qtd_mat_profissional": 0, "qtd_mat_eja": 0, "qtd_mat_especial": 0, "qtd_mat_total": 24, "qtd_doc_total": 4, "qtd_prof_total": 2, "qtd_prof": 2, "qtd_doc": 4, "qtd_matri_inf": 0, "qtd_matri_fund": 24, "qtd_matri_med": 0, "qtd_matri_prof": 0, "qtd_matri_eja": 0, "qtd_matri_esp": 0 }, "geometry": { "type": "Point", "coordinates": [ -52.0991297, -32.0334252 ] } },
{ "type": "Feature", "properties": { "co_entidade": 43113540, "no_entidade": "ESC EST ENS MED LILIA NEVES", "municipio": "Rio Grande", "tp_dependencia": 2, "tp_dependencia_label": "Estadual", "ds_endereco": "R RUA TRAJANO LOPES 149", "nu_endereco": "149", "ds_complemento": null, "no_bairro": "QUINTA", "co_cep": 96222164, "endereco_geocode": "R RUA TRAJANO LOPES 149, 149, QUINTA, 96222164, Rio Grande - RS", "qtd_mat_infantil": 0, "qtd_mat_fundamental": 113, "qtd_mat_medio": 423, "qtd_mat_profissional": 0, "qtd_mat_eja": 0, "qtd_mat_especial": 63, "qtd_mat_total": 599, "qtd_doc_total": 30, "qtd_prof_total": 17, "qtd_prof": 17, "qtd_doc": 30, "qtd_matri_inf": 0, "qtd_matri_fund": 113, "qtd_matri_med": 423, "qtd_matri_prof": 0, "qtd_matri_eja": 0, "qtd_matri_esp": 63 }, "geometry": { "type": "Point", "coordinates": [ -52.0991297, -32.0334252 ] } },
{ "type": "Feature", "properties": { "co_entidade": 43113559, "no_entidade": "ESCOLA MUNICIPAL EDUCACAO INFANTIL MIGUEL COUTO", "municipio": "Rio Grande", "tp_dependencia": 3, "tp_dependencia_label": "Municipal", "ds_endereco": "R PADRE FEIJO", "nu_endereco": "187", "ds_complemento": null, "no_bairro": "CIDADE NOVA", "co_cep": 96211520, "endereco_geocode": "R PADRE FEIJO, 187, CIDADE NOVA, 96211520, Rio Grande - RS", "qtd_mat_infantil": 146, "qtd_mat_fundamental": 0, "qtd_mat_medio": 0, "qtd_mat_profissional": 0, "qtd_mat_eja": 0, "qtd_mat_especial": 42, "qtd_mat_total": 188, "qtd_doc_total": 13, "qtd_prof_total": 15, "qtd_prof": 15, "qtd_doc": 13, "qtd_matri_inf": 146, "qtd_matri_fund": 0, "qtd_matri_med": 0, "qtd_matri_prof": 0, "qtd_matri_eja": 0, "qtd_matri_esp": 42 }, "geometry": { "type": "Point", "coordinates": [ -52.1091841, -32.0426836 ] } },
{ "type": "Feature", "properties": { "co_entidade": 43113621, "no_entidade": "ESC EST ENS FUN 13 DE MAIO", "municipio": "Rio Grande", "tp_dependencia": 2, "tp_dependencia_label": "Estadual", "ds_endereco": "R RUA DOM BOSCO 901", "nu_endereco": "901", "ds_complemento": null, "no_bairro": "COHAB II", "co_cep": 96211434, "endereco_geocode": "R RUA DOM BOSCO 901, 901, COHAB II, 96211434, Rio Grande - RS", "qtd_mat_infantil": 0, "qtd_mat_fundamental": 249, "qtd_mat_medio": 0, "qtd_mat_profissional": 0, "qtd_mat_eja": 0, "qtd_mat_especial": 9, "qtd_mat_total": 258, "qtd_doc_total": 17, "qtd_prof_total": 13, "qtd_prof": 13, "qtd_doc": 17, "qtd_matri_inf": 0, "qtd_matri_fund": 249, "qtd_matri_med": 0, "qtd_matri_prof": 0, "qtd_matri_eja": 0, "qtd_matri_esp": 9 }, "geometry": { "type": "Point", "coordinates": [ -52.0991297, -32.0334252 ] } },
{ "type": "Feature", "properties": { "co_entidade": 43113630, "no_entidade": "ESCOLA DE ENSINO FUNDAMENTAL CRISTO REI", "municipio": "Rio Grande", "tp_dependencia": 4, "tp_dependencia_label": "Privada", "ds_endereco": "RUA BARAO DO COTEGIPE", "nu_endereco": "89", "ds_complemento": null, "no_bairro": "CENTRO", "co_cep": 96200290, "endereco_geocode": "RUA BARAO DO COTEGIPE, 89, CENTRO, 96200290, Rio Grande - RS", "qtd_mat_infantil": 46, "qtd_mat_fundamental": 416, "qtd_mat_medio": 0, "qtd_mat_profissional": 0, "qtd_mat_eja": 0, "qtd_mat_especial": 16, "qtd_mat_total": 478, "qtd_doc_total": 25, "qtd_prof_total": 22, "qtd_prof": 22, "qtd_doc": 25, "qtd_matri_inf": 46, "qtd_matri_fund": 416, "qtd_matri_med": 0, "qtd_matri_prof": 0, "qtd_matri_eja": 0, "qtd_matri_esp": 16 }, "geometry": { "type": "Point", "coordinates": [ -52.0991297, -32.0334252 ] } },
{ "type": "Feature", "properties": { "co_entidade": 43113664, "no_entidade": "ESC EST ENS FUN BARAO DE CERRO LARGO", "municipio": "Rio Grande", "tp_dependencia": 2, "tp_dependencia_label": "Estadual", "ds_endereco": "AV COMEN VASCO VIEIRA DA FONSECA 723", "nu_endereco": "723", "ds_complemento": null, "no_bairro": "CENTRO", "co_cep": 96200420, "endereco_geocode": "AV COMEN VASCO VIEIRA DA FONSECA 723, 723, CENTRO, 96200420, Rio Grande - RS", "qtd_mat_infantil": 0, "qtd_mat_fundamental": 254, "qtd_mat_medio": 8, "qtd_mat_profissional": 0, "qtd_mat_eja": 0, "qtd_mat_especial": 38, "qtd_mat_total": 300, "qtd_doc_total": 31, "qtd_prof_total": 29, "qtd_prof": 29, "qtd_doc": 31, "qtd_matri_inf": 0, "qtd_matri_fund": 254, "qtd_matri_med": 8, "qtd_matri_prof": 0, "qtd_matri_eja": 0, "qtd_matri_esp": 38 }, "geometry": { "type": "Point", "coordinates": [ -52.0991297, -32.0334252 ] } },
{ "type": "Feature", "properties": { "co_entidade": 43113788, "no_entidade": "ESC EST ENS MED ENG ROBERTO BASTOS TELLECHEA", "municipio": "Rio Grande", "tp_dependencia": 2, "tp_dependencia_label": "Estadual", "ds_endereco": "AV AVENIDA DOS GRANDES LAGOS 300", "nu_endereco": "300", "ds_complemento": null, "no_bairro": "PARQUE MARINHA", "co_cep": 96215010, "endereco_geocode": "AV AVENIDA DOS GRANDES LAGOS 300, 300, PARQUE MARINHA, 96215010, Rio Grande - RS", "qtd_mat_infantil": 0, "qtd_mat_fundamental": 197, "qtd_mat_medio": 214, "qtd_mat_profissional": 0, "qtd_mat_eja": 55, "qtd_mat_especial": 34, "qtd_mat_total": 500, "qtd_doc_total": 41, "qtd_prof_total": 28, "qtd_prof": 28, "qtd_doc": 41, "qtd_matri_inf": 0, "qtd_matri_fund": 197, "qtd_matri_med": 214, "qtd_matri_prof": 0, "qtd_matri_eja": 55, "qtd_matri_esp": 34 }, "geometry": { "type": "Point", "coordinates": [ -52.0991297, -32.0334252 ] } },
{ "type": "Feature", "properties": { "co_entidade": 43113850, "no_entidade": "ESC EST ENS MED PROF CARLOS LOREA PINTO", "municipio": "Rio Grande", "tp_dependencia": 2, "tp_dependencia_label": "Estadual", "ds_endereco": "R RUA IRMAO FIDENCIO 55", "nu_endereco": "55", "ds_complemento": null, "no_bairro": "COHAB IV", "co_cep": 96214320, "endereco_geocode": "R RUA IRMAO FIDENCIO 55, 55, COHAB IV, 96214320, Rio Grande - RS", "qtd_mat_infantil": 0, "qtd_mat_fundamental": 279, "qtd_mat_medio": 279, "qtd_mat_profissional": 0, "qtd_mat_eja": 0, "qtd_mat_especial": 72, "qtd_mat_total": 630, "qtd_doc_total": 37, "qtd_prof_total": 24, "qtd_prof": 24, "qtd_doc": 37, "qtd_matri_inf": 0, "qtd_matri_fund": 279, "qtd_matri_med": 279, "qtd_matri_prof": 0, "qtd_matri_eja": 0, "qtd_matri_esp": 72 }, "geometry": { "type": "Point", "coordinates": [ -52.0991297, -32.0334252 ] } },
{ "type": "Feature", "properties": { "co_entidade": 43113877, "no_entidade": "EMEF ADMAR CORREA", "municipio": "Rio Grande", "tp_dependencia": 3, "tp_dependencia_label": "Municipal", "ds_endereco": "RUA GENERAL FLORES DA CUNHA", "nu_endereco": "116", "ds_complemento": null, "no_bairro": "VILA SANTA TEREZA", "co_cep": 96201390, "endereco_geocode": "RUA GENERAL FLORES DA CUNHA, 116, VILA SANTA TEREZA, 96201390, Rio Grande - RS", "qtd_mat_infantil": 64, "qtd_mat_fundamental": 172, "qtd_mat_medio": 0, "qtd_mat_profissional": 0, "qtd_mat_eja": 0, "qtd_mat_especial": 46, "qtd_mat_total": 282, "qtd_doc_total": 20, "qtd_prof_total": 21, "qtd_prof": 21, "qtd_doc": 20, "qtd_matri_inf": 64, "qtd_matri_fund": 172, "qtd_matri_med": 0, "qtd_matri_prof": 0, "qtd_matri_eja": 0, "qtd_matri_esp": 46 }, "geometry": { "type": "Point", "coordinates": [ -52.0991297, -32.0334252 ] } },
{ "type": "Feature", "properties": { "co_entidade": 43162800, "no_entidade": "COLEGIO SAO PEDRO", "municipio": "Rio Grande", "tp_dependencia": 4, "tp_dependencia_label": "Privada", "ds_endereco": "RUA BARAO DO COTEGIPE", "nu_endereco": "415", "ds_complemento": null, "no_bairro": "CENTRO", "co_cep": 96200290, "endereco_geocode": "RUA BARAO DO COTEGIPE, 415, CENTRO, 96200290, Rio Grande - RS", "qtd_mat_infantil": 0, "qtd_mat_fundamental": 9, "qtd_mat_medio": 110, "qtd_mat_profissional": 0, "qtd_mat_eja": 0, "qtd_mat_especial": 6, "qtd_mat_total": 125, "qtd_doc_total": 12, "qtd_prof_total": 12, "qtd_prof": 12, "qtd_doc": 12, "qtd_matri_inf": 0, "qtd_matri_fund": 9, "qtd_matri_med": 110, "qtd_matri_prof": 0, "qtd_matri_eja": 0, "qtd_matri_esp": 6 }, "geometry": { "type": "Point", "coordinates": [ -52.0991297, -32.0334252 ] } },
{ "type": "Feature", "properties": { "co_entidade": 43171400, "no_entidade": "ESC EST ENS MED DR JOSE MARIANO DE FREITAS BECK", "municipio": "Rio Grande", "tp_dependencia": 2, "tp_dependencia_label": "Estadual", "ds_endereco": "R RUA EDUARDO ARAUJO 881", "nu_endereco": "881", "ds_complemento": null, "no_bairro": "VILA SAO JOAO", "co_cep": 96213040, "endereco_geocode": "R RUA EDUARDO ARAUJO 881, 881, VILA SAO JOAO, 96213040, Rio Grande - RS", "qtd_mat_infantil": 0, "qtd_mat_fundamental": 355, "qtd_mat_medio": 117, "qtd_mat_profissional": 0, "qtd_mat_eja": 0, "qtd_mat_especial": 51, "qtd_mat_total": 523, "qtd_doc_total": 28, "qtd_prof_total": 16, "qtd_prof": 16, "qtd_doc": 28, "qtd_matri_inf": 0, "qtd_matri_fund": 355, "qtd_matri_med": 117, "qtd_matri_prof": 0, "qtd_matri_eja": 0, "qtd_matri_esp": 51 }, "geometry": { "type": "Point", "coordinates": [ -52.0991297, -32.0334252 ] } },
{ "type": "Feature", "properties": { "co_entidade": 43176615, "no_entidade": "SENAC RIO GRANDE", "municipio": "Rio Grande", "tp_dependencia": 4, "tp_dependencia_label": "Privada", "ds_endereco": "AVENIDA PRESIDENTE VARGAS", "nu_endereco": "299", "ds_complemento": null, "no_bairro": "SAO PAULO", "co_cep": 96202336, "endereco_geocode": "AVENIDA PRESIDENTE VARGAS, 299, SAO PAULO, 96202336, Rio Grande - RS", "qtd_mat_infantil": 0, "qtd_mat_fundamental": 0, "qtd_mat_medio": 0, "qtd_mat_profissional": 504, "qtd_mat_eja": 0, "qtd_mat_especial": 7, "qtd_mat_total": 511, "qtd_doc_total": 13, "qtd_prof_total": 43, "qtd_prof": 43, "qtd_doc": 13, "qtd_matri_inf": 0, "qtd_matri_fund": 0, "qtd_matri_med": 0, "qtd_matri_prof": 504, "qtd_matri_eja": 0, "qtd_matri_esp": 7 }, "geometry": { "type": "Point", "coordinates": [ -52.1189331, -32.05108 ] } },
{ "type": "Feature", "properties": { "co_entidade": 43179878, "no_entidade": "ASSOC PAIS AMIGOS EXCEP APAE RIO GRANDE", "municipio": "Rio Grande", "tp_dependencia": 4, "tp_dependencia_label": "Privada", "ds_endereco": "RUA DUQUE DE CAXIAS", "nu_endereco": "327", "ds_complemento": null, "no_bairro": "CENTRO", "co_cep": 96200020, "endereco_geocode": "RUA DUQUE DE CAXIAS, 327, CENTRO, 96200020, Rio Grande - RS", "qtd_mat_infantil": 0, "qtd_mat_fundamental": 89, "qtd_mat_medio": 0, "qtd_mat_profissional": 0, "qtd_mat_eja": 82, "qtd_mat_especial": 171, "qtd_mat_total": 342, "qtd_doc_total": 14, "qtd_prof_total": 15, "qtd_prof": 15, "qtd_doc": 14, "qtd_matri_inf": 0, "qtd_matri_fund": 89, "qtd_matri_med": 0, "qtd_matri_prof": 0, "qtd_matri_eja": 82, "qtd_matri_esp": 171 }, "geometry": { "type": "Point", "coordinates": [ -52.0983841, -32.0400766 ] } },
{ "type": "Feature", "properties": { "co_entidade": 43183140, "no_entidade": "EMEF PROFESSORA MARIA DA GRACA REYES", "municipio": "Rio Grande", "tp_dependencia": 3, "tp_dependencia_label": "Municipal", "ds_endereco": "AVENIDA ENFERMEIRO MARINO AFONSO GOMES", "nu_endereco": "315", "ds_complemento": "4ª SECCAO DA BARRA", "no_bairro": "ZONA PORTURIA", "co_cep": 96204050, "endereco_geocode": "AVENIDA ENFERMEIRO MARINO AFONSO GOMES, 315, ZONA PORTURIA, 96204050, Rio Grande - RS", "qtd_mat_infantil": 116, "qtd_mat_fundamental": 251, "qtd_mat_medio": 0, "qtd_mat_profissional": 0, "qtd_mat_eja": 0, "qtd_mat_especial": 48, "qtd_mat_total": 415, "qtd_doc_total": 18, "qtd_prof_total": 14, "qtd_prof": 14, "qtd_doc": 18, "qtd_matri_inf": 116, "qtd_matri_fund": 251, "qtd_matri_med": 0, "qtd_matri_prof": 0, "qtd_matri_eja": 0, "qtd_matri_esp": 48 }, "geometry": { "type": "Point", "coordinates": [ -52.0991297, -32.0334252 ] } },
{ "type": "Feature", "properties": { "co_entidade": 43189687, "no_entidade": "EMEI ALCIDES BARCELOS", "municipio": "Rio Grande", "tp_dependencia": 3, "tp_dependencia_label": "Municipal", "ds_endereco": "RUA MASCARENHAS DE MORAES", "nu_endereco": "181", "ds_complemento": null, "no_bairro": "GETULIO VARGAS", "co_cep": 96201190, "endereco_geocode": "RUA MASCARENHAS DE MORAES, 181, GETULIO VARGAS, 96201190, Rio Grande - RS", "qtd_mat_infantil": 159, "qtd_mat_fundamental": 0, "qtd_mat_medio": 0, "qtd_mat_profissional": 0, "qtd_mat_eja": 0, "qtd_mat_especial": 28, "qtd_mat_total": 187, "qtd_doc_total": 9, "qtd_prof_total": 11, "qtd_prof": 11, "qtd_doc": 9, "qtd_matri_inf": 159, "qtd_matri_fund": 0, "qtd_matri_med": 0, "qtd_matri_prof": 0, "qtd_matri_eja": 0, "qtd_matri_esp": 28 }, "geometry": { "type": "Point", "coordinates": [ -52.0991297, -32.0334252 ] } },
{ "type": "Feature", "properties": { "co_entidade": 43197884, "no_entidade": "EMEI OSCAR FERREIRO DE CAMPOS MORAES", "municipio": "Rio Grande", "tp_dependencia": 3, "tp_dependencia_label": "Municipal", "ds_endereco": "RUA ALTAMIR DE LACERDA NASCIMENTO", "nu_endereco": "904", "ds_complemento": null, "no_bairro": "HIDRAULICA", "co_cep": 96211280, "endereco_geocode": "RUA ALTAMIR DE LACERDA NASCIMENTO, 904, HIDRAULICA, 96211280, Rio Grande - RS", "qtd_mat_infantil": 98, "qtd_mat_fundamental": 0, "qtd_mat_medio": 0, "qtd_mat_profissional": 0, "qtd_mat_eja": 0, "qtd_mat_especial": 20, "qtd_mat_total": 118, "qtd_doc_total": 10, "qtd_prof_total": 1, "qtd_prof": 1, "qtd_doc": 10, "qtd_matri_inf": 98, "qtd_matri_fund": 0, "qtd_matri_med": 0, "qtd_matri_prof": 0, "qtd_matri_eja": 0, "qtd_matri_esp": 20 }, "geometry": { "type": "Point", "coordinates": [ -52.0991297, -32.0334252 ] } },
{ "type": "Feature", "properties": { "co_entidade": 43207146, "no_entidade": "ESC MUNIC ENS FUND PROFª ZELLY PEREIRA ESMERALDO", "municipio": "Rio Grande", "tp_dependencia": 3, "tp_dependencia_label": "Municipal", "ds_endereco": "RUA DANTE DAPUZZO", "nu_endereco": "323", "ds_complemento": "PREDIO ESCOLAR", "no_bairro": "CIDADE DE AGUEDA", "co_cep": 96214612, "endereco_geocode": "RUA DANTE DAPUZZO, 323, CIDADE DE AGUEDA, 96214612, Rio Grande - RS", "qtd_mat_infantil": 128, "qtd_mat_fundamental": 305, "qtd_mat_medio": 0, "qtd_mat_profissional": 0, "qtd_mat_eja": 88, "qtd_mat_especial": 87, "qtd_mat_total": 608, "qtd_doc_total": 33, "qtd_prof_total": 20, "qtd_prof": 20, "qtd_doc": 33, "qtd_matri_inf": 128, "qtd_matri_fund": 305, "qtd_matri_med": 0, "qtd_matri_prof": 0, "qtd_matri_eja": 88, "qtd_matri_esp": 87 }, "geometry": { "type": "Point", "coordinates": [ -52.0991297, -32.0334252 ] } },
{ "type": "Feature", "properties": { "co_entidade": 43214835, "no_entidade": "ESCOLA KYRIOS DE ENSINO FUNDAMENTAL E DE ENSINO MEDIO", "municipio": "Rio Grande", "tp_dependencia": 4, "tp_dependencia_label": "Privada", "ds_endereco": "AVENIDA ENGENHEIRA LUCIA MARIA BALBELA CHIESA", "nu_endereco": "2842", "ds_complemento": null, "no_bairro": "PARQUE RESIDENCIAL SAO PEDRO", "co_cep": 96216400, "endereco_geocode": "AVENIDA ENGENHEIRA LUCIA MARIA BALBELA CHIESA, 2842, PARQUE RESIDENCIAL SAO PEDRO, 96216400, Rio Grande - RS", "qtd_mat_infantil": 0, "qtd_mat_fundamental": 255, "qtd_mat_medio": 89, "qtd_mat_profissional": 0, "qtd_mat_eja": 0, "qtd_mat_especial": 10, "qtd_mat_total": 354, "qtd_doc_total": 20, "qtd_prof_total": 18, "qtd_prof": 18, "qtd_doc": 20, "qtd_matri_inf": 0, "qtd_matri_fund": 255, "qtd_matri_med": 89, "qtd_matri_prof": 0, "qtd_matri_eja": 0, "qtd_matri_esp": 10 }, "geometry": { "type": "Point", "coordinates": [ -52.0991297, -32.0334252 ] } },
{ "type": "Feature", "properties": { "co_entidade": 43216145, "no_entidade": "ESCOLA DE EDUCACAO INFANTIL GENTE MIUDA", "municipio": "Rio Grande", "tp_dependencia": 4, "tp_dependencia_label": "Privada", "ds_endereco": "RUA BARAO DE COTEGIPE", "nu_endereco": "723", "ds_complemento": null, "no_bairro": "CENTRO", "co_cep": 96200290, "endereco_geocode": "RUA BARAO DE COTEGIPE, 723, CENTRO, 96200290, Rio Grande - RS", "qtd_mat_infantil": 36, "qtd_mat_fundamental": 0, "qtd_mat_medio": 0, "qtd_mat_profissional": 0, "qtd_mat_eja": 0, "qtd_mat_especial": 0, "qtd_mat_total": 36, "qtd_doc_total": 7, "qtd_prof_total": 4, "qtd_prof": 4, "qtd_doc": 7, "qtd_matri_inf": 36, "qtd_matri_fund": 0, "qtd_matri_med": 0, "qtd_matri_prof": 0, "qtd_matri_eja": 0, "qtd_matri_esp": 0 }, "geometry": { "type": "Point", "coordinates": [ -52.1007571, -32.0366757 ] } },
{ "type": "Feature", "properties": { "co_entidade": 43217885, "no_entidade": "ESCOLA DE ENSINO FUNDAMENTAL CORUJINHA", "municipio": "Rio Grande", "tp_dependencia": 4, "tp_dependencia_label": "Privada", "ds_endereco": "RUA TALFIK ABDO NADER", "nu_endereco": "289", "ds_complemento": null, "no_bairro": "CASSINO", "co_cep": 96205300, "endereco_geocode": "RUA TALFIK ABDO NADER, 289, CASSINO, 96205300, Rio Grande - RS", "qtd_mat_infantil": 0, "qtd_mat_fundamental": 74, "qtd_mat_medio": 0, "qtd_mat_profissional": 0, "qtd_mat_eja": 0, "qtd_mat_especial": 2, "qtd_mat_total": 76, "qtd_doc_total": 7, "qtd_prof_total": 3, "qtd_prof": 3, "qtd_doc": 7, "qtd_matri_inf": 0, "qtd_matri_fund": 74, "qtd_matri_med": 0, "qtd_matri_prof": 0, "qtd_matri_eja": 0, "qtd_matri_esp": 2 }, "geometry": { "type": "Point", "coordinates": [ -52.0991297, -32.0334252 ] } },
{ "type": "Feature", "properties": { "co_entidade": 43219870, "no_entidade": "ESCOLA DE EDUCACAO INFANTIL SONHO DE CRIANCA", "municipio": "Rio Grande", "tp_dependencia": 4, "tp_dependencia_label": "Privada", "ds_endereco": "RUA CARLOS GOMES", "nu_endereco": "557", "ds_complemento": null, "no_bairro": "CENTRO", "co_cep": 96200460, "endereco_geocode": "RUA CARLOS GOMES, 557, CENTRO, 96200460, Rio Grande - RS", "qtd_mat_infantil": 20, "qtd_mat_fundamental": 0, "qtd_mat_medio": 0, "qtd_mat_profissional": 0, "qtd_mat_eja": 0, "qtd_mat_especial": 0, "qtd_mat_total": 20, "qtd_doc_total": 4, "qtd_prof_total": 3, "qtd_prof": 3, "qtd_doc": 4, "qtd_matri_inf": 20, "qtd_matri_fund": 0, "qtd_matri_med": 0, "qtd_matri_prof": 0, "qtd_matri_eja": 0, "qtd_matri_esp": 0 }, "geometry": { "type": "Point", "coordinates": [ -52.1038461, -32.0339183 ] } },
{ "type": "Feature", "properties": { "co_entidade": 43299113, "no_entidade": "EMEI PROFª DAISY MARIA GUMA PAGEL", "municipio": "Rio Grande", "tp_dependencia": 3, "tp_dependencia_label": "Municipal", "ds_endereco": "RUA ONOFRIO AIKIM", "nu_endereco": "588", "ds_complemento": null, "no_bairro": "VILA NOSSA SENHORA DE FATIMA", "co_cep": 96213440, "endereco_geocode": "RUA ONOFRIO AIKIM, 588, VILA NOSSA SENHORA DE FATIMA, 96213440, Rio Grande - RS", "qtd_mat_infantil": 200, "qtd_mat_fundamental": 0, "qtd_mat_medio": 0, "qtd_mat_profissional": 0, "qtd_mat_eja": 0, "qtd_mat_especial": 23, "qtd_mat_total": 223, "qtd_doc_total": 15, "qtd_prof_total": 15, "qtd_prof": 15, "qtd_doc": 15, "qtd_matri_inf": 200, "qtd_matri_fund": 0, "qtd_matri_med": 0, "qtd_matri_prof": 0, "qtd_matri_eja": 0, "qtd_matri_esp": 23 }, "geometry": { "type": "Point", "coordinates": [ -52.0991297, -32.0334252 ] } },
{ "type": "Feature", "properties": { "co_entidade": 43113370, "no_entidade": "ESC MUN ENS FUND CRISTOVAO PEREIRA DE ABREU", "municipio": "Rio Grande", "tp_dependencia": 3, "tp_dependencia_label": "Municipal", "ds_endereco": "RUA DEMOCRITO CAETANO DIAS", "nu_endereco": "S/N", "ds_complemento": null, "no_bairro": "ILHA DA TOROTAMA", "co_cep": 96201220, "endereco_geocode": "RUA DEMOCRITO CAETANO DIAS, S/N, ILHA DA TOROTAMA, 96201220, Rio Grande - RS", "qtd_mat_infantil": 14, "qtd_mat_fundamental": 74, "qtd_mat_medio": 0, "qtd_mat_profissional": 0, "qtd_mat_eja": 16, "qtd_mat_especial": 23, "qtd_mat_total": 127, "qtd_doc_total": 18, "qtd_prof_total": 16, "qtd_prof": 16, "qtd_doc": 18, "qtd_matri_inf": 14, "qtd_matri_fund": 74, "qtd_matri_med": 0, "qtd_matri_prof": 0, "qtd_matri_eja": 16, "qtd_matri_esp": 23 }, "geometry": { "type": "Point", "coordinates": [ -52.0991297, -32.0334252 ] } },
{ "type": "Feature", "properties": { "co_entidade": 43113443, "no_entidade": "ESC EST ENS MED ALFREDO FERREIRA RODRIGUES", "municipio": "Rio Grande", "tp_dependencia": 2, "tp_dependencia_label": "Estadual", "ds_endereco": "AV MAJOR ASSUNCAO 150", "nu_endereco": "150", "ds_complemento": null, "no_bairro": "POVO NOVO", "co_cep": 96224080, "endereco_geocode": "AV MAJOR ASSUNCAO 150, 150, POVO NOVO, 96224080, Rio Grande - RS", "qtd_mat_infantil": 0, "qtd_mat_fundamental": 266, "qtd_mat_medio": 141, "qtd_mat_profissional": 0, "qtd_mat_eja": 0, "qtd_mat_especial": 84, "qtd_mat_total": 491, "qtd_doc_total": 29, "qtd_prof_total": 17, "qtd_prof": 17, "qtd_doc": 29, "qtd_matri_inf": 0, "qtd_matri_fund": 266, "qtd_matri_med": 141, "qtd_matri_prof": 0, "qtd_matri_eja": 0, "qtd_matri_esp": 84 }, "geometry": { "type": "Point", "coordinates": [ -52.0991297, -32.0334252 ] } },
{ "type": "Feature", "properties": { "co_entidade": 43113494, "no_entidade": "ESC EST ENS FUN DR PEDRO FRANCISCO BERTONI", "municipio": "Rio Grande", "tp_dependencia": 2, "tp_dependencia_label": "Estadual", "ds_endereco": "R AREA RURAL 211", "nu_endereco": "211", "ds_complemento": null, "no_bairro": "DOMINGOS PETROLINI", "co_cep": 96220899, "endereco_geocode": "R AREA RURAL 211, 211, DOMINGOS PETROLINI, 96220899, Rio Grande - RS", "qtd_mat_infantil": 0, "qtd_mat_fundamental": 55, "qtd_mat_medio": 0, "qtd_mat_profissional": 0, "qtd_mat_eja": 0, "qtd_mat_especial": 4, "qtd_mat_total": 59, "qtd_doc_total": 7, "qtd_prof_total": 3, "qtd_prof": 3, "qtd_doc": 7, "qtd_matri_inf": 0, "qtd_matri_fund": 55, "qtd_matri_med": 0, "qtd_matri_prof": 0, "qtd_matri_eja": 0, "qtd_matri_esp": 4 }, "geometry": { "type": "Point", "coordinates": [ -52.0991297, -32.0334252 ] } },
{ "type": "Feature", "properties": { "co_entidade": 43113699, "no_entidade": "EMEF PROFESSORA LUIZA SOPHIA SCHMIDT TAVARES", "municipio": "Rio Grande", "tp_dependencia": 3, "tp_dependencia_label": "Municipal", "ds_endereco": "AREA RURAL", "nu_endereco": "1", "ds_complemento": "EST. RG 180", "no_bairro": "AREA RURAL DE POVO NOVO", "co_cep": 96224899, "endereco_geocode": "AREA RURAL, 1, AREA RURAL DE POVO NOVO, 96224899, Rio Grande - RS", "qtd_mat_infantil": 23, "qtd_mat_fundamental": 60, "qtd_mat_medio": 0, "qtd_mat_profissional": 0, "qtd_mat_eja": 0, "qtd_mat_especial": 16, "qtd_mat_total": 99, "qtd_doc_total": 5, "qtd_prof_total": 5, "qtd_prof": 5, "qtd_doc": 5, "qtd_matri_inf": 23, "qtd_matri_fund": 60, "qtd_matri_med": 0, "qtd_matri_prof": 0, "qtd_matri_eja": 0, "qtd_matri_esp": 16 }, "geometry": { "type": "Point", "coordinates": [ -52.0991297, -32.0334252 ] } },
{ "type": "Feature", "properties": { "co_entidade": 43212816, "no_entidade": "ESC EST IND EF PARA MIRIM", "municipio": "Rio Grande", "tp_dependencia": 2, "tp_dependencia_label": "Estadual", "ds_endereco": "R R. PRINCIPAL  ALDEIA PARA ROK SN", "nu_endereco": "SN", "ds_complemento": null, "no_bairro": "DISTRITO DOMINGOS PE", "co_cep": 96219000, "endereco_geocode": "R R. PRINCIPAL  ALDEIA PARA ROK SN, SN, DISTRITO DOMINGOS PE, 96219000, Rio Grande - RS", "qtd_mat_infantil": 2, "qtd_mat_fundamental": 3, "qtd_mat_medio": 0, "qtd_mat_profissional": 0, "qtd_mat_eja": 0, "qtd_mat_especial": 0, "qtd_mat_total": 5, "qtd_doc_total": 1, "qtd_prof_total": 0, "qtd_prof": 0, "qtd_doc": 1, "qtd_matri_inf": 2, "qtd_matri_fund": 3, "qtd_matri_med": 0, "qtd_matri_prof": 0, "qtd_matri_eja": 0, "qtd_matri_esp": 0 }, "geometry": { "type": "Point", "coordinates": [ -52.0991297, -32.0334252 ] } },
{ "type": "Feature", "properties": { "co_entidade": 43113001, "no_entidade": "ESC MUN ENS FUN DR LIBERATO SALZANO VIEIRA DA CUNHA", "municipio": "Rio Grande", "tp_dependencia": 3, "tp_dependencia_label": "Municipal", "ds_endereco": "AREA RURAL", "nu_endereco": "188", "ds_complemento": null, "no_bairro": "AREA RURAL DE QUINTA / ARRAIAL", "co_cep": 96222899, "endereco_geocode": "AREA RURAL, 188, AREA RURAL DE QUINTA / ARRAIAL, 96222899, Rio Grande - RS", "qtd_mat_infantil": 15, "qtd_mat_fundamental": 30, "qtd_mat_medio": 0, "qtd_mat_profissional": 0, "qtd_mat_eja": 0, "qtd_mat_especial": 10, "qtd_mat_total": 55, "qtd_doc_total": 2, "qtd_prof_total": 0, "qtd_prof": 0, "qtd_doc": 2, "qtd_matri_inf": 15, "qtd_matri_fund": 30, "qtd_matri_med": 0, "qtd_matri_prof": 0, "qtd_matri_eja": 0, "qtd_matri_esp": 10 }, "geometry": { "type": "Point", "coordinates": [ -52.0991297, -32.0334252 ] } },
{ "type": "Feature", "properties": { "co_entidade": 43113036, "no_entidade": "ESCOLA MUN DE ENS FUND FRANKLIN ROOSEVELT", "municipio": "Rio Grande", "tp_dependencia": 3, "tp_dependencia_label": "Municipal", "ds_endereco": "BR 471 - KM 44", "nu_endereco": "S/N", "ds_complemento": null, "no_bairro": "MAGALHAES", "co_cep": 96221000, "endereco_geocode": "BR 471 - KM 44, S/N, MAGALHAES, 96221000, Rio Grande - RS", "qtd_mat_infantil": 10, "qtd_mat_fundamental": 26, "qtd_mat_medio": 0, "qtd_mat_profissional": 0, "qtd_mat_eja": 0, "qtd_mat_especial": 12, "qtd_mat_total": 48, "qtd_doc_total": 4, "qtd_prof_total": 4, "qtd_prof": 4, "qtd_doc": 4, "qtd_matri_inf": 10, "qtd_matri_fund": 26, "qtd_matri_med": 0, "qtd_matri_prof": 0, "qtd_matri_eja": 0, "qtd_matri_esp": 12 }, "geometry": { "type": "Point", "coordinates": [ -52.0991297, -32.0334252 ] } },
{ "type": "Feature", "properties": { "co_entidade": 43113133, "no_entidade": "ESC MUN ENS FUN ARGEMIRO DIAS DE LIMA", "municipio": "Rio Grande", "tp_dependencia": 3, "tp_dependencia_label": "Municipal", "ds_endereco": "EST.RG 175", "nu_endereco": "Nº6", "ds_complemento": "AP.0500", "no_bairro": "PALMA", "co_cep": 96211000, "endereco_geocode": "EST.RG 175, Nº6, PALMA, 96211000, Rio Grande - RS", "qtd_mat_infantil": 19, "qtd_mat_fundamental": 18, "qtd_mat_medio": 0, "qtd_mat_profissional": 0, "qtd_mat_eja": 0, "qtd_mat_especial": 9, "qtd_mat_total": 46, "qtd_doc_total": 4, "qtd_prof_total": 4, "qtd_prof": 4, "qtd_doc": 4, "qtd_matri_inf": 19, "qtd_matri_fund": 18, "qtd_matri_med": 0, "qtd_matri_prof": 0, "qtd_matri_eja": 0, "qtd_matri_esp": 9 }, "geometry": { "type": "Point", "coordinates": [ -52.0991297, -32.0334252 ] } },
{ "type": "Feature", "properties": { "co_entidade": 43113869, "no_entidade": "ESC MUN ENS FUN CORIOLANO BENICIO", "municipio": "Rio Grande", "tp_dependencia": 3, "tp_dependencia_label": "Municipal", "ds_endereco": "TRAVESSA VINTE", "nu_endereco": "107", "ds_complemento": "VILA ABEL CRAVO", "no_bairro": "QUINTA", "co_cep": 96222706, "endereco_geocode": "TRAVESSA VINTE, 107, QUINTA, 96222706, Rio Grande - RS", "qtd_mat_infantil": 0, "qtd_mat_fundamental": 287, "qtd_mat_medio": 0, "qtd_mat_profissional": 0, "qtd_mat_eja": 69, "qtd_mat_especial": 72, "qtd_mat_total": 428, "qtd_doc_total": 31, "qtd_prof_total": 15, "qtd_prof": 15, "qtd_doc": 31, "qtd_matri_inf": 0, "qtd_matri_fund": 287, "qtd_matri_med": 0, "qtd_matri_prof": 0, "qtd_matri_eja": 69, "qtd_matri_esp": 72 }, "geometry": { "type": "Point", "coordinates": [ -52.0991297, -32.0334252 ] } },
{ "type": "Feature", "properties": { "co_entidade": 43112978, "no_entidade": "ESC MUN ENS FUND CORONEL PEDRO OSORIO", "municipio": "Rio Grande", "tp_dependencia": 3, "tp_dependencia_label": "Municipal", "ds_endereco": "BR 471 KM 74 CERRITO - TAIM", "nu_endereco": "S/N", "ds_complemento": null, "no_bairro": "TAIM", "co_cep": 96221000, "endereco_geocode": "BR 471 KM 74 CERRITO - TAIM, S/N, TAIM, 96221000, Rio Grande - RS", "qtd_mat_infantil": 19, "qtd_mat_fundamental": 59, "qtd_mat_medio": 0, "qtd_mat_profissional": 0, "qtd_mat_eja": 0, "qtd_mat_especial": 13, "qtd_mat_total": 91, "qtd_doc_total": 3, "qtd_prof_total": 4, "qtd_prof": 4, "qtd_doc": 3, "qtd_matri_inf": 19, "qtd_matri_fund": 59, "qtd_matri_med": 0, "qtd_matri_prof": 0, "qtd_matri_eja": 0, "qtd_matri_esp": 13 }, "geometry": { "type": "Point", "coordinates": [ -52.0991297, -32.0334252 ] } },
{ "type": "Feature", "properties": { "co_entidade": 43113389, "no_entidade": "EMEF PROF ª AURORA FERREIRA CADAVAL", "municipio": "Rio Grande", "tp_dependencia": 3, "tp_dependencia_label": "Municipal", "ds_endereco": "RUA PEDRO CECERE", "nu_endereco": "1600", "ds_complemento": null, "no_bairro": "CAPILHA", "co_cep": 96221000, "endereco_geocode": "RUA PEDRO CECERE, 1600, CAPILHA, 96221000, Rio Grande - RS", "qtd_mat_infantil": 0, "qtd_mat_fundamental": 19, "qtd_mat_medio": 0, "qtd_mat_profissional": 0, "qtd_mat_eja": 0, "qtd_mat_especial": 4, "qtd_mat_total": 23, "qtd_doc_total": 4, "qtd_prof_total": 2, "qtd_prof": 2, "qtd_doc": 4, "qtd_matri_inf": 0, "qtd_matri_fund": 19, "qtd_matri_med": 0, "qtd_matri_prof": 0, "qtd_matri_eja": 0, "qtd_matri_esp": 4 }, "geometry": { "type": "Point", "coordinates": [ -52.0991297, -32.0334252 ] } }
]
}
