{
"type": "FeatureCollection",
"name": "infra_predios_publicos_ATINGIDOS_rio_grande___chuva_acumulada_60_8mm",
"crs": { "type": "name", "properties": { "name": "urn:ogc:def:crs:OGC:1.3:CRS84" } },
"features": [
{ "type": "Feature", "properties": { "Nome": "Secretaria de Município de Desenvolvimento, Inovação e Turismo.", "Endereço": "R. República do Líbano, 88 - Centro", "Latitude": -32.0329178, "Longitude": -52.0902875 }, "geometry": { "type": "Point", "coordinates": [ -52.0902875, -32.0329178 ] } },
{ "type": "Feature", "properties": { "Nome": "Teatro Municipal de Rio Grande", "Endereço": "Av. Maj. Carlos Pinto, 312 - Cidade Nova", "Latitude": -32.0348584, "Longitude": -52.1069004 }, "geometry": { "type": "Point", "coordinates": [ -52.1069004, -32.0348584 ] } },
{ "type": "Feature", "properties": { "Nome": "Sindicato dos Servidores Municipais de Rio Grande", "Endereço": "R. Mal. Floriano Peixoto, 413 - Centro", "Latitude": -32.0310308, "Longitude": -52.0967089 }, "geometry": { "type": "Point", "coordinates": [ -52.0967089, -32.0310308 ] } }
]
}
