{
"type": "FeatureCollection",
"name": "infra_predios_publicos_ATINGIDOS_rio_grande___nivel_da_lagoa_16_05_2024",
"crs": { "type": "name", "properties": { "name": "urn:ogc:def:crs:OGC:1.3:CRS84" } },
"features": [
{ "type": "Feature", "properties": { "Nome": "SMCAS - Secretaria de Município da Cidadania e Assistência Social", "Endereço": "R. Gen. Osório, 536 - Centro", "Latitude": -32.0296849, "Longitude": -52.1002874 }, "geometry": { "type": "Point", "coordinates": [ -52.1002874, -32.0296849 ] } },
{ "type": "Feature", "properties": { "Nome": "Mercado Público de Rio Grande", "Endereço": "Pr. Xavier Ferreira, 444 - Centro", "Latitude": -32.030099, "Longitude": -52.0964559 }, "geometry": { "type": "Point", "coordinates": [ -52.0964559, -32.030099 ] } },
{ "type": "Feature", "properties": { "Nome": "Secretaria Municipal de Coordenação e Planejamento", "Endereço": "R. Gen. Neto, 34 - Centro", "Latitude": -32.0302204, "Longitude": -52.0978747 }, "geometry": { "type": "Point", "coordinates": [ -52.0978747, -32.0302204 ] } },
{ "type": "Feature", "properties": { "Nome": "Secretaria de Município de Desenvolvimento, Inovação e Turismo.", "Endereço": "R. República do Líbano, 88 - Centro", "Latitude": -32.0329178, "Longitude": -52.0902875 }, "geometry": { "type": "Point", "coordinates": [ -52.0902875, -32.0329178 ] } },
{ "type": "Feature", "properties": { "Nome": "Sindicato dos Servidores Municipais de Rio Grande", "Endereço": "R. Mal. Floriano Peixoto, 413 - Centro", "Latitude": -32.0310308, "Longitude": -52.0967089 }, "geometry": { "type": "Point", "coordinates": [ -52.0967089, -32.0310308 ] } }
]
}
