{
"type": "FeatureCollection",
"name": "patrimonio_ATINGIDOS_rio_grande___cenario_setembro_2023",
"crs": { "type": "name", "properties": { "name": "urn:ogc:def:crs:OGC:1.3:CRS84" } },
"features": [
{ "type": "Feature", "properties": { "Label": "PRS/03-0007.00090", "ENDEREÇO": "RIO GRANDE, RS, Rua Almirante Cerqueira e Souza, 167", "COMPLEMENT": null, "Tipologia": "4- Arquitetura Militar", "Nome": "Hotel de Trânsito de Oficiais- Vila da Marinha" }, "geometry": { "type": "Point", "coordinates": [ -52.08323116059799, -32.031403719717723 ] } },
{ "type": "Feature", "properties": { "Label": "PRS/03-0007.00091", "ENDEREÇO": "RIO GRANDE, RS, Rua Almirante Cerqueira e Souza,179", "COMPLEMENT": null, "Tipologia": "4- Arquitetura Militar", "Nome": "Museu Naval - Vila da Marinha" }, "geometry": { "type": "Point", "coordinates": [ -52.083488862812878, -32.031402516326324 ] } },
{ "type": "Feature", "properties": { "Label": "PRS/03-0007.00095", "ENDEREÇO": "RIO GRANDE, RS, Rua General Câmara, 96", "COMPLEMENT": "96A", "Tipologia": "6- Arquitetura Civil Privada", "Nome": null }, "geometry": { "type": "Point", "coordinates": [ -52.0907586, -32.0354525 ] } },
{ "type": "Feature", "properties": { "Label": "PRS/03-0007.00101", "ENDEREÇO": "RIO GRANDE, RS, Rua Barão de Cotegipe, 105", "COMPLEMENT": "105/107/115", "Tipologia": "6- Arquitetura Civil Privada", "Nome": null }, "geometry": { "type": "Point", "coordinates": [ -52.092073600000013, -32.0385323 ] } },
{ "type": "Feature", "properties": { "Label": "PRS/03-0007.00116", "ENDEREÇO": "RIO GRANDE, RS, Rua Doutor Fernando Duprat da Silva,10", "COMPLEMENT": null, "Tipologia": "6- Arquitetura Civil Privada", "Nome": null }, "geometry": { "type": "Point", "coordinates": [ -52.090981585693143, -32.03056337428481 ] } },
{ "type": "Feature", "properties": { "Label": "PRS/03-0007.00165", "ENDEREÇO": "RIO GRANDE, RS, Rua Francisco Campelo, 457", "COMPLEMENT": null, "Tipologia": "6- Arquitetura Civil Privada", "Nome": null }, "geometry": { "type": "Point", "coordinates": [ -52.097870099999987, -32.0293269 ] } },
{ "type": "Feature", "properties": { "Label": "PRS/03-0007.00169", "ENDEREÇO": "RIO GRANDE, RS, Rua Francisco Marques, 329", "COMPLEMENT": null, "Tipologia": "6- Arquitetura Civil Privada", "Nome": null }, "geometry": { "type": "Point", "coordinates": [ -52.091078, -32.0360706 ] } },
{ "type": "Feature", "properties": { "Label": "PRS/03-0007.00174", "ENDEREÇO": "RIO GRANDE, RS, Rua Capitão Heitor Perdigão", "COMPLEMENT": "sem n°", "Tipologia": "5- Arquitetura Civil Oficial", "Nome": "Museu Oceanográfico do Rio Grande" }, "geometry": { "type": "Point", "coordinates": [ -52.105945888368019, -32.026497864811645 ] } },
{ "type": "Feature", "properties": { "Label": "PRS/03-0007.00254", "ENDEREÇO": "RIO GRANDE, RS, Rua General Netto, 8", "COMPLEMENT": null, "Tipologia": "Arquitetura Eclética", "Nome": "Hotel Portugal" }, "geometry": { "type": "Point", "coordinates": [ -52.097701887987192, -32.029523340452258 ] } },
{ "type": "Feature", "properties": { "Label": "PRS/03-0007.00261", "ENDEREÇO": "RIO GRANDE, RS, Rua General Osório, 430", "COMPLEMENT": null, "Tipologia": "6- Arquitetura Civil Privada", "Nome": "Câmara do Comércio" }, "geometry": { "type": "Point", "coordinates": [ -52.095352299999988, -32.0298737 ] } },
{ "type": "Feature", "properties": { "Label": "PRS/03-0007.00263", "ENDEREÇO": "RIO GRANDE, RS, Rua General Osório, 450", "COMPLEMENT": null, "Tipologia": "Arquitetura Colonial", "Nome": "Banca do Peixe" }, "geometry": { "type": "Point", "coordinates": [ -52.09695989977655, -32.029701805458018 ] } },
{ "type": "Feature", "properties": { "Label": "PRS/03-0007.00264", "ENDEREÇO": "RIO GRANDE, RS, Rua General Osório, 454", "COMPLEMENT": null, "Tipologia": "6- Arquitetura Civil Privada", "Nome": "Biblioteca Rio Grandense" }, "geometry": { "type": "Point", "coordinates": [ -52.097345399999988, -32.029881 ] } },
{ "type": "Feature", "properties": { "Label": "PRS/03-0007.00269", "ENDEREÇO": "RIO GRANDE, RS, Rua General Osório, 512", "COMPLEMENT": null, "Tipologia": "5- Arquitetura Civil Oficial", "Nome": "Polícia Federal" }, "geometry": { "type": "Point", "coordinates": [ -52.09957330000001, -32.0297514 ] } },
{ "type": "Feature", "properties": { "Label": "PRS/03-0007.00271", "ENDEREÇO": "RIO GRANDE, RS, Rua General Osório, 548", "COMPLEMENT": null, "Tipologia": "6- Arquitetura Civil Privada", "Nome": "Antiga Usina do Gasômetro" }, "geometry": { "type": "Point", "coordinates": [ -52.100198199999987, -32.0297471 ] } },
{ "type": "Feature", "properties": { "Label": "PRS/03-0007.00374", "ENDEREÇO": "RIO GRANDE, RS, Rua Riachuelo", "COMPLEMENT": null, "Tipologia": "3- Arquitetura Civil Oficial", "Nome": "Cais do Porto Velho" }, "geometry": { "type": "Point", "coordinates": [ -52.0915477, -32.030311 ] } },
{ "type": "Feature", "properties": { "Label": "PRS/03-0007.00375", "ENDEREÇO": "RIO GRANDE, RS, Rua Riachuelo", "COMPLEMENT": null, "Tipologia": "3- Arquitetura Civil Oficial", "Nome": "Armazéns do Porto Velho" }, "geometry": { "type": "Point", "coordinates": [ -52.092195300131451, -32.029989680425295 ] } },
{ "type": "Feature", "properties": { "Label": "PRS/03-0007.00377", "ENDEREÇO": "RIO GRANDE, RS, Rua Riachuelo, 109", "COMPLEMENT": null, "Tipologia": "Arquitetura Eclética", "Nome": null }, "geometry": { "type": "Point", "coordinates": [ -52.0903392, -32.0306429 ] } },
{ "type": "Feature", "properties": { "Label": "PRS/03-0007.00378", "ENDEREÇO": "RIO GRANDE, RS, Rua Riachuelo, 123", "COMPLEMENT": null, "Tipologia": "6- Arquitetura Civil Privada", "Nome": null }, "geometry": { "type": "Point", "coordinates": [ -52.0904479, -32.0307396 ] } },
{ "type": "Feature", "properties": { "Label": "PRS/03-0007.00381", "ENDEREÇO": "RIO GRANDE, RS, R. Riachuelo, 201", "COMPLEMENT": null, "Tipologia": "6- Arquitetura Civil Privada", "Nome": null }, "geometry": { "type": "Point", "coordinates": [ -52.0919386, -32.0303503 ] } },
{ "type": "Feature", "properties": { "Label": "PRS/03-0007.00383", "ENDEREÇO": "RIO GRANDE, RS, Rua Riachuelo, 299", "COMPLEMENT": null, "Tipologia": "6- Arquitetura Civil Privada", "Nome": null }, "geometry": { "type": "Point", "coordinates": [ -52.094042, -32.0299915 ] } },
{ "type": "Feature", "properties": { "Label": "PRS/03-0007.00385", "ENDEREÇO": "RIO GRANDE, RS, Rua Coronel Sampaio, 244", "COMPLEMENT": null, "Tipologia": "6- Arquitetura Civil Privada", "Nome": null }, "geometry": { "type": "Point", "coordinates": [ -52.0892753, -32.0350914 ] } },
{ "type": "Feature", "properties": { "Label": "PRS/03-0007.00392", "ENDEREÇO": "RIO GRANDE, RS, Avenida Silva Paes, 20", "COMPLEMENT": "B", "Tipologia": "6- Arquitetura Civil Privada", "Nome": null }, "geometry": { "type": "Point", "coordinates": [ -52.088545971985916, -32.034447062360528 ] } },
{ "type": "Feature", "properties": { "Label": "PRS/03-0007.00393", "ENDEREÇO": "RIO GRANDE, RS, Avenida Silva Paes, 55", "COMPLEMENT": null, "Tipologia": "6- Arquitetura Civil Privada", "Nome": null }, "geometry": { "type": "Point", "coordinates": [ -52.089425, -32.0345831 ] } },
{ "type": "Feature", "properties": { "Label": "PRS/03-0007.00421", "ENDEREÇO": "RIO GRANDE, RS, Avenida Comendador Vasco Vieira da Fonseca", "COMPLEMENT": null, "Tipologia": "6- Arquitetura Civil Privada", "Nome": "Mirante do Entreposto de Pesca" }, "geometry": { "type": "Point", "coordinates": [ -52.101783595329252, -32.02759519317236 ] } },
{ "type": "Feature", "properties": { "Label": "PRS/03-0007.00382", "ENDEREÇO": "Rua Riachuelo, 227", "COMPLEMENT": null, "Tipologia": "Arquitetura Eclética", "Nome": null }, "geometry": { "type": "Point", "coordinates": [ -52.092208074951422, -32.030308863848312 ] } }
]
}
