{
"type": "FeatureCollection",
"name": "patrimonio_ATINGIDOS_rio_grande___chuva_acumulada_60_8mm",
"crs": { "type": "name", "properties": { "name": "urn:ogc:def:crs:OGC:1.3:CRS84" } },
"features": [
{ "type": "Feature", "properties": { "Label": "PRS/03-0007.00001", "ENDEREÇO": "RIO GRANDE, RS, Rua General Abreu, 80", "COMPLEMENT": null, "Tipologia": "6- Arquitetura Civil Privada", "Nome": null }, "geometry": { "type": "Point", "coordinates": [ -52.1058856, -32.0399993 ] } },
{ "type": "Feature", "properties": { "Label": "PRS/03-0007.00002", "ENDEREÇO": "RIO GRANDE, RS, Rua General Abreu,  82", "COMPLEMENT": null, "Tipologia": "6- Arquitetura Civil Privada", "Nome": null }, "geometry": { "type": "Point", "coordinates": [ -52.1058655, -32.0401491 ] } },
{ "type": "Feature", "properties": { "Label": "PRS/03-0007.00022", "ENDEREÇO": "RIO GRANDE, RS, Rua Aquidaban, 668", "COMPLEMENT": "668/670", "Tipologia": "6- Arquitetura Civil Privada", "Nome": null }, "geometry": { "type": "Point", "coordinates": [ -52.1033136, -32.0319823 ] } },
{ "type": "Feature", "properties": { "Label": "PRS/03-0007.00025", "ENDEREÇO": "RIO GRANDE, RS, Rua Aquidaban, 685", "COMPLEMENT": null, "Tipologia": "6- Arquitetura Civil Privada", "Nome": null }, "geometry": { "type": "Point", "coordinates": [ -52.103606199999987, -32.0322508 ] } },
{ "type": "Feature", "properties": { "Label": "PRS/03-0007.00027", "ENDEREÇO": "RIO GRANDE, RS, Rua Aquidaban, 746", "COMPLEMENT": null, "Tipologia": "6- Arquitetura Civil Privada", "Nome": null }, "geometry": { "type": "Point", "coordinates": [ -52.106342222327726, -32.032279159861197 ] } },
{ "type": "Feature", "properties": { "Label": "PRS/03-0007.00067", "ENDEREÇO": "RIO GRANDE, RS, Rua General Canabarro, 401", "COMPLEMENT": null, "Tipologia": "1- Arquitetura Religiosa", "Nome": "Igreja Nossa Senhora de Fátima" }, "geometry": { "type": "Point", "coordinates": [ -52.1019107, -32.0356503 ] } },
{ "type": "Feature", "properties": { "Label": "PRS/03-0007.00081", "ENDEREÇO": "RIO GRANDE, RS, Rua Duque de Caxias, 400", "COMPLEMENT": null, "Tipologia": "6- Arquitetura Civil Privada", "Nome": null }, "geometry": { "type": "Point", "coordinates": [ -52.097676699138148, -32.036412077312939 ] } },
{ "type": "Feature", "properties": { "Label": "PRS/03-0007.00086", "ENDEREÇO": "RIO GRANDE, RS, Rua Duque de Caxias", "COMPLEMENT": "sem nº", "Tipologia": "3- Arquitetura Civil Oficial", "Nome": "Monumento aos Obreiros Desconhecidos" }, "geometry": { "type": "Point", "coordinates": [ -52.097862941849222, -32.03895490388993 ] } },
{ "type": "Feature", "properties": { "Label": "PRS/03-0007.00099", "ENDEREÇO": "RIO GRANDE, RS, Rua Senador Corrêa, 555", "COMPLEMENT": null, "Tipologia": "9- Arquitetura Comercial", "Nome": null }, "geometry": { "type": "Point", "coordinates": [ -52.101596099999988, -32.0395948 ] } },
{ "type": "Feature", "properties": { "Label": "PRS/03-0007.00100", "ENDEREÇO": "RIO GRANDE, RS, Rua Senador Corrêa, 395", "COMPLEMENT": null, "Tipologia": "6- Arquitetura Civil Privada", "Nome": null }, "geometry": { "type": "Point", "coordinates": [ -52.0982221, -32.0402002 ] } },
{ "type": "Feature", "properties": { "Label": "PRS/03-0007.00103", "ENDEREÇO": "RIO GRANDE, RS, Rua Barão de Cotegipe, 455", "COMPLEMENT": null, "Tipologia": "6- Arquitetura Civil Privada", "Nome": null }, "geometry": { "type": "Point", "coordinates": [ -52.099358900000013, -32.0369958 ] } },
{ "type": "Feature", "properties": { "Label": "PRS/03-0007.00141", "ENDEREÇO": "RIO GRANDE, RS, Rua Marechal Floriano Peixoto, 441", "COMPLEMENT": null, "Tipologia": "6- Arquitetura Civil Privada", "Nome": null }, "geometry": { "type": "Point", "coordinates": [ -52.097207898117212, -32.031110930637503 ] } },
{ "type": "Feature", "properties": { "Label": "PRS/03-0007.00143", "ENDEREÇO": "RIO GRANDE, RS, Rua Marechal Floriano Peixoto, 459", "COMPLEMENT": "461", "Tipologia": "6- Arquitetura Civil Privada", "Nome": null }, "geometry": { "type": "Point", "coordinates": [ -52.0980406, -32.0310212 ] } },
{ "type": "Feature", "properties": { "Label": "PRS/03-0007.00144", "ENDEREÇO": "RIO GRANDE, RS, Rua Marechal Floriano Peixoto, 470", "COMPLEMENT": null, "Tipologia": "Arquitetura Eclética", "Nome": "Clube Caixeral" }, "geometry": { "type": "Point", "coordinates": [ -52.098221, -32.0306616 ] } },
{ "type": "Feature", "properties": { "Label": "PRS/03-0007.00149", "ENDEREÇO": "RIO GRANDE, RS, Rua Marechal Floriano Peixoto, 554", "COMPLEMENT": null, "Tipologia": "6- Arquitetura Civil Privada", "Nome": null }, "geometry": { "type": "Point", "coordinates": [ -52.100034, -32.031169 ] } },
{ "type": "Feature", "properties": { "Label": "PRS/03-0007.00151", "ENDEREÇO": "RIO GRANDE, RS, Rua Marechal Floriano Peixoto, 565", "COMPLEMENT": null, "Tipologia": "6- Arquitetura Civil Privada", "Nome": null }, "geometry": { "type": "Point", "coordinates": [ -52.1000473, -32.0313759 ] } },
{ "type": "Feature", "properties": { "Label": "PRS/03-0007.00152", "ENDEREÇO": "RIO GRANDE, RS, Rua Marechal Floriano Peixoto, 582", "COMPLEMENT": null, "Tipologia": "6- Arquitetura Civil Privada", "Nome": null }, "geometry": { "type": "Point", "coordinates": [ -52.100969, -32.0313852 ] } },
{ "type": "Feature", "properties": { "Label": "PRS/03-0007.00153", "ENDEREÇO": "RIO GRANDE, RS, Rua Marechal Floriano Peixoto, 593", "COMPLEMENT": null, "Tipologia": "Arquitetura Eclética", "Nome": null }, "geometry": { "type": "Point", "coordinates": [ -52.1007431, -32.031615 ] } },
{ "type": "Feature", "properties": { "Label": "PRS/03-0007.00162", "ENDEREÇO": "RIO GRANDE, RS, Rua Marechal Floriano Peixoto, 580", "COMPLEMENT": null, "Tipologia": "6- Arquitetura Civil Privada", "Nome": null }, "geometry": { "type": "Point", "coordinates": [ -52.100926, -32.0314099 ] } },
{ "type": "Feature", "properties": { "Label": "PRS/03-0007.00164", "ENDEREÇO": "RIO GRANDE, RS, Rua Marechal Floriano Peixoto, 587", "COMPLEMENT": null, "Tipologia": "6- Arquitetura Civil Privada", "Nome": null }, "geometry": { "type": "Point", "coordinates": [ -52.1005826, -32.031541 ] } },
{ "type": "Feature", "properties": { "Label": "PRS/03-0007.00166", "ENDEREÇO": "RIO GRANDE, RS, Rua Francisco Marques, 171", "COMPLEMENT": null, "Tipologia": "6- Arquitetura Civil Privada", "Nome": null }, "geometry": { "type": "Point", "coordinates": [ -52.090351991658153, -32.033566799889243 ] } },
{ "type": "Feature", "properties": { "Label": "PRS/03-0007.00170", "ENDEREÇO": "RIO GRANDE, RS, Rua Garibaldi, 555", "COMPLEMENT": null, "Tipologia": "8- Arquitetura Mista", "Nome": null }, "geometry": { "type": "Point", "coordinates": [ -52.101161, -32.037719 ] } },
{ "type": "Feature", "properties": { "Label": "PRS/03-0007.00209", "ENDEREÇO": "RIO GRANDE, RS, Rua João Alfredo, 485", "COMPLEMENT": null, "Tipologia": "6- Arquitetura Civil Privada", "Nome": null }, "geometry": { "type": "Point", "coordinates": [ -52.100293099999988, -32.0387599 ] } },
{ "type": "Feature", "properties": { "Label": "PRS/03-0007.00238", "ENDEREÇO": "RIO GRANDE, RS, Rua Luiz Loréa, 581", "COMPLEMENT": null, "Tipologia": "6- Arquitetura Civil Privada", "Nome": "Casarão Trajano Lopes" }, "geometry": { "type": "Point", "coordinates": [ -52.10097883350501, -32.031713448920698 ] } },
{ "type": "Feature", "properties": { "Label": "PRS/03-0007.00241", "ENDEREÇO": "RIO GRANDE, RS, Rua Luiz Loréa, 377", "COMPLEMENT": "377/377A", "Tipologia": "6- Arquitetura Civil Privada", "Nome": null }, "geometry": { "type": "Point", "coordinates": [ -52.0960094, -32.0324988 ] } },
{ "type": "Feature", "properties": { "Label": "PRS/03-0007.00244", "ENDEREÇO": "RIO GRANDE, RS, Rua Moron, 341", "COMPLEMENT": null, "Tipologia": "6- Arquitetura Civil Privada", "Nome": null }, "geometry": { "type": "Point", "coordinates": [ -52.1055151, -32.0346461 ] } },
{ "type": "Feature", "properties": { "Label": "PRS/03-0007.00245", "ENDEREÇO": "RIO GRANDE, RS, Rua Moron, 345", "COMPLEMENT": null, "Tipologia": "6- Arquitetura Civil Privada", "Nome": null }, "geometry": { "type": "Point", "coordinates": [ -52.105458, -32.034708 ] } },
{ "type": "Feature", "properties": { "Label": "PRS/03-0007.00248", "ENDEREÇO": "RIO GRANDE, RS, Rua Doutor Napoleão Laureano, 355", "COMPLEMENT": null, "Tipologia": "6- Arquitetura Civil Privada", "Nome": null }, "geometry": { "type": "Point", "coordinates": [ -52.093440400000013, -32.0363532 ] } },
{ "type": "Feature", "properties": { "Label": "PRS/03-0007.00251", "ENDEREÇO": "RIO GRANDE, RS, Rua Doutor Nascimento, 743", "COMPLEMENT": null, "Tipologia": "6- Arquitetura Civil Privada", "Nome": null }, "geometry": { "type": "Point", "coordinates": [ -52.1046628, -32.0358495 ] } },
{ "type": "Feature", "properties": { "Label": "PRS/03-0007.00253", "ENDEREÇO": "RIO GRANDE, RS, Rua Doutor Nascimento, 501", "COMPLEMENT": null, "Tipologia": "6- Arquitetura Civil Privada", "Nome": null }, "geometry": { "type": "Point", "coordinates": [ -52.100068, -32.0359397 ] } },
{ "type": "Feature", "properties": { "Label": "PRS/03-0007.00256", "ENDEREÇO": "RIO GRANDE, RS, Rua General Netto, 223", "COMPLEMENT": null, "Tipologia": "Arquitetura Eclética", "Nome": null }, "geometry": { "type": "Point", "coordinates": [ -52.098044350748587, -32.033221347034278 ] } },
{ "type": "Feature", "properties": { "Label": "PRS/03-0007.00257", "ENDEREÇO": "RIO GRANDE, RS, Rua General Netto, 263", "COMPLEMENT": null, "Tipologia": "Arquitetura Eclética", "Nome": null }, "geometry": { "type": "Point", "coordinates": [ -52.0982196, -32.0337896 ] } },
{ "type": "Feature", "properties": { "Label": "PRS/03-0007.00272", "ENDEREÇO": "RIO GRANDE, RS, Rua Conselheiro Pinto Lima, 51", "COMPLEMENT": null, "Tipologia": "6- Arquitetura Civil Privada", "Nome": null }, "geometry": { "type": "Point", "coordinates": [ -52.099122, -32.0310095 ] } },
{ "type": "Feature", "properties": { "Label": "PRS/03-0007.00280", "ENDEREÇO": "RIO GRANDE, RS, Avenida Rheingantz, 46", "COMPLEMENT": null, "Tipologia": "6- Arquitetura Civil Privada", "Nome": null }, "geometry": { "type": "Point", "coordinates": [ -52.1035204, -32.0421556 ] } },
{ "type": "Feature", "properties": { "Label": "PRS/03-0007.00281", "ENDEREÇO": "RIO GRANDE, RS, Avenida Rheingantz, 51", "COMPLEMENT": null, "Tipologia": "6- Arquitetura Civil Privada", "Nome": null }, "geometry": { "type": "Point", "coordinates": [ -52.103230024594303, -32.042346987080428 ] } },
{ "type": "Feature", "properties": { "Label": "PRS/03-0007.00283", "ENDEREÇO": "RIO GRANDE, RS, Avenida Rheingantz, 62", "COMPLEMENT": null, "Tipologia": "6- Arquitetura Civil Privada", "Nome": null }, "geometry": { "type": "Point", "coordinates": [ -52.103575478697778, -32.042296953667339 ] } },
{ "type": "Feature", "properties": { "Label": "PRS/03-0007.00285", "ENDEREÇO": "RIO GRANDE, RS, Avenida Rheingantz, 66", "COMPLEMENT": null, "Tipologia": "6- Arquitetura Civil Privada", "Nome": null }, "geometry": { "type": "Point", "coordinates": [ -52.103670677469381, -32.042378843776206 ] } },
{ "type": "Feature", "properties": { "Label": "PRS/03-0007.00290", "ENDEREÇO": "RIO GRANDE, RS,  Avenida Rheingantz,102", "COMPLEMENT": null, "Tipologia": "6- Arquitetura Civil Privada", "Nome": null }, "geometry": { "type": "Point", "coordinates": [ -52.104219699999987, -32.0428843 ] } },
{ "type": "Feature", "properties": { "Label": "PRS/03-0007.00291", "ENDEREÇO": "RIO GRANDE, RS, Avenida Rheingantz, 104", "COMPLEMENT": null, "Tipologia": "6- Arquitetura Civil Privada", "Nome": null }, "geometry": { "type": "Point", "coordinates": [ -52.104293399999989, -32.0429055 ] } },
{ "type": "Feature", "properties": { "Label": "PRS/03-0007.00295", "ENDEREÇO": "RIO GRANDE, RS, Avenida Rheingantz, 120", "COMPLEMENT": null, "Tipologia": "6- Arquitetura Civil Privada", "Nome": null }, "geometry": { "type": "Point", "coordinates": [ -52.1044879, -32.0430591 ] } },
{ "type": "Feature", "properties": { "Label": "PRS/03-0007.00297", "ENDEREÇO": "RIO GRANDE, RS, Avenida Rheingantz, 128", "COMPLEMENT": null, "Tipologia": "6- Arquitetura Civil Privada", "Nome": null }, "geometry": { "type": "Point", "coordinates": [ -52.1046041, -32.0431472 ] } },
{ "type": "Feature", "properties": { "Label": "PRS/03-0007.00300", "ENDEREÇO": "RIO GRANDE, RS, Avenida Rheingantz, 133", "COMPLEMENT": null, "Tipologia": "6- Arquitetura Civil Privada", "Nome": null }, "geometry": { "type": "Point", "coordinates": [ -52.104534841032716, -32.043530629084565 ] } },
{ "type": "Feature", "properties": { "Label": "PRS/03-0007.00301", "ENDEREÇO": "RIO GRANDE, RS, Avenida Rheingantz, 135", "COMPLEMENT": null, "Tipologia": "6- Arquitetura Civil Privada", "Nome": null }, "geometry": { "type": "Point", "coordinates": [ -52.104574006562274, -32.043575156556464 ] } },
{ "type": "Feature", "properties": { "Label": "PRS/03-0007.00302", "ENDEREÇO": "RIO GRANDE, RS, Avenida Rheingantz, 137", "COMPLEMENT": null, "Tipologia": "6- Arquitetura Civil Privada", "Nome": null }, "geometry": { "type": "Point", "coordinates": [ -52.104623598924178, -32.043610619416782 ] } },
{ "type": "Feature", "properties": { "Label": "PRS/03-0007.00303", "ENDEREÇO": "RIO GRANDE, RS, Avenida Rheingantz, 139", "COMPLEMENT": null, "Tipologia": "6- Arquitetura Civil Privada", "Nome": "Vila dos Operários" }, "geometry": { "type": "Point", "coordinates": [ -52.1046796, -32.0436411 ] } },
{ "type": "Feature", "properties": { "Label": "PRS/03-0007.00304", "ENDEREÇO": "RIO GRANDE, RS, Avenida Rheingantz, 141", "COMPLEMENT": null, "Tipologia": "6- Arquitetura Civil Privada", "Nome": "Vila dos Operários" }, "geometry": { "type": "Point", "coordinates": [ -52.1047184, -32.0436787 ] } },
{ "type": "Feature", "properties": { "Label": "PRS/03-0007.00305", "ENDEREÇO": "RIO GRANDE, RS, Avenida Rheingantz, 143", "COMPLEMENT": null, "Tipologia": "6- Arquitetura Civil Privada", "Nome": "Vila dos Operários" }, "geometry": { "type": "Point", "coordinates": [ -52.104737521024205, -32.043698284693122 ] } },
{ "type": "Feature", "properties": { "Label": "PRS/03-0007.00306", "ENDEREÇO": "RIO GRANDE, RS, Avenida Rheingantz, 145", "COMPLEMENT": null, "Tipologia": "6- Arquitetura Civil Privada", "Nome": "Vila dos Operários" }, "geometry": { "type": "Point", "coordinates": [ -52.104774199999987, -32.043725 ] } },
{ "type": "Feature", "properties": { "Label": "PRS/03-0007.00307", "ENDEREÇO": "RIO GRANDE, RS, Avenida Rheingantz, 147", "COMPLEMENT": null, "Tipologia": "6- Arquitetura Civil Privada", "Nome": "Vila dos Operários" }, "geometry": { "type": "Point", "coordinates": [ -52.1048017, -32.0437535 ] } },
{ "type": "Feature", "properties": { "Label": "PRS/03-0007.00308", "ENDEREÇO": "RIO GRANDE, RS, Avenida Rheingantz, 149", "COMPLEMENT": null, "Tipologia": "6- Arquitetura Civil Privada", "Nome": "Vila dos Operários" }, "geometry": { "type": "Point", "coordinates": [ -52.104823791174574, -32.043769988150544 ] } },
{ "type": "Feature", "properties": { "Label": "PRS/03-0007.00310", "ENDEREÇO": "RIO GRANDE, RS, Avenida Rheingantz, 153", "COMPLEMENT": null, "Tipologia": "6- Arquitetura Civil Privada", "Nome": "Vila dos Operários" }, "geometry": { "type": "Point", "coordinates": [ -52.1048862, -32.043828 ] } },
{ "type": "Feature", "properties": { "Label": "PRS/03-0007.00314", "ENDEREÇO": "RIO GRANDE, RS, Avenida Rheingantz, 167", "COMPLEMENT": null, "Tipologia": "6- Arquitetura Civil Privada", "Nome": "Vila dos Operários" }, "geometry": { "type": "Point", "coordinates": [ -52.105027548490327, -32.043964341161519 ] } },
{ "type": "Feature", "properties": { "Label": "PRS/03-0007.00315", "ENDEREÇO": "RIO GRANDE, RS, Avenida Rheingantz, 171", "COMPLEMENT": null, "Tipologia": "6- Arquitetura Civil Privada", "Nome": "Vila dos Operários" }, "geometry": { "type": "Point", "coordinates": [ -52.105065125462588, -32.043999408425861 ] } },
{ "type": "Feature", "properties": { "Label": "PRS/03-0007.00317", "ENDEREÇO": "RIO GRANDE, RS, Avenida Rheingantz, 175", "COMPLEMENT": null, "Tipologia": "6- Arquitetura Civil Privada", "Nome": "Vila dos Operários" }, "geometry": { "type": "Point", "coordinates": [ -52.10513830912749, -32.044068310866763 ] } },
{ "type": "Feature", "properties": { "Label": "PRS/03-0007.00318", "ENDEREÇO": "RIO GRANDE, RS, Avenida Rheingantz, 177", "COMPLEMENT": null, "Tipologia": "6- Arquitetura Civil Privada", "Nome": "Vila dos Operários" }, "geometry": { "type": "Point", "coordinates": [ -52.1051982, -32.0440948 ] } },
{ "type": "Feature", "properties": { "Label": "PRS/03-0007.00319", "ENDEREÇO": "RIO GRANDE, RS, Avenida Rheingantz, 179", "COMPLEMENT": null, "Tipologia": "6- Arquitetura Civil Privada", "Nome": "Vila dos Operários" }, "geometry": { "type": "Point", "coordinates": [ -52.1052105, -32.0441227 ] } },
{ "type": "Feature", "properties": { "Label": "PRS/03-0007.00320", "ENDEREÇO": "RIO GRANDE, RS, Avenida Rheingantz, 197", "COMPLEMENT": null, "Tipologia": "6- Arquitetura Civil Privada", "Nome": "Vila dos Operários" }, "geometry": { "type": "Point", "coordinates": [ -52.1052842, -32.0441878 ] } },
{ "type": "Feature", "properties": { "Label": "PRS/03-0007.00322", "ENDEREÇO": "RIO GRANDE, RS, Avenida Rheingantz, 194", "COMPLEMENT": null, "Tipologia": "6- Arquitetura Civil Privada", "Nome": "Cassino dos Mestres" }, "geometry": { "type": "Point", "coordinates": [ -52.106024088521082, -32.044423992660796 ] } },
{ "type": "Feature", "properties": { "Label": "PRS/03-0007.00325", "ENDEREÇO": "RIO GRANDE, RS, Avenida Rheingantz, 176", "COMPLEMENT": null, "Tipologia": "6- Arquitetura Civil Privada", "Nome": "Jardim de Infância" }, "geometry": { "type": "Point", "coordinates": [ -52.1054221, -32.0439074 ] } },
{ "type": "Feature", "properties": { "Label": "PRS/03-0007.00333", "ENDEREÇO": "RIO GRANDE, RS, Avenida Rheingantz, 201", "COMPLEMENT": null, "Tipologia": "7- Arquitetura Rural ou Industrial", "Nome": null }, "geometry": { "type": "Point", "coordinates": [ -52.104401015598931, -32.044850657524051 ] } },
{ "type": "Feature", "properties": { "Label": "PRS/03-0007.00337", "ENDEREÇO": "RIO GRANDE, RS, Corredor Rheingantz, 199", "COMPLEMENT": "Casa 3", "Tipologia": "6- Arquitetura Civil Privada", "Nome": "Vila dos Operários" }, "geometry": { "type": "Point", "coordinates": [ -52.104831758035445, -32.04429936094693 ] } },
{ "type": "Feature", "properties": { "Label": "PRS/03-0007.00347", "ENDEREÇO": "RIO GRANDE, RS, Corredor Rheingantz, 199", "COMPLEMENT": "Casa 13", "Tipologia": "6- Arquitetura Civil Privada", "Nome": "Vila dos Operários" }, "geometry": { "type": "Point", "coordinates": [ -52.104556775163871, -32.044086493912445 ] } },
{ "type": "Feature", "properties": { "Label": "PRS/03-0007.00350", "ENDEREÇO": "RIO GRANDE, RS, Corredor Rheingantz, 199", "COMPLEMENT": "Casa 16", "Tipologia": "6- Arquitetura Civil Privada", "Nome": "Vila dos Operários" }, "geometry": { "type": "Point", "coordinates": [ -52.104450814633708, -32.044009139548223 ] } },
{ "type": "Feature", "properties": { "Label": "PRS/03-0007.00355", "ENDEREÇO": "RIO GRANDE, RS, Corredor Rheingantz, 199", "COMPLEMENT": "Casa 21", "Tipologia": "6- Arquitetura Civil Privada", "Nome": "Vila dos Operários" }, "geometry": { "type": "Point", "coordinates": [ -52.104297372461062, -32.044053385619961 ] } },
{ "type": "Feature", "properties": { "Label": "PRS/03-0007.00356", "ENDEREÇO": "RIO GRANDE, RS, Corredor Rheingantz, 199", "COMPLEMENT": "Casa 22", "Tipologia": "6- Arquitetura Civil Privada", "Nome": "Vila dos Operários" }, "geometry": { "type": "Point", "coordinates": [ -52.10434066407592, -32.044077426847593 ] } },
{ "type": "Feature", "properties": { "Label": "PRS/03-0007.00358", "ENDEREÇO": "RIO GRANDE, RS, Corredor Rheingantz, 199", "COMPLEMENT": "Casa 24", "Tipologia": "6- Arquitetura Civil Privada", "Nome": "Vila dos Operários" }, "geometry": { "type": "Point", "coordinates": [ -52.104418545914143, -32.044146951120773 ] } },
{ "type": "Feature", "properties": { "Label": "PRS/03-0007.00360", "ENDEREÇO": "RIO GRANDE, RS, Corredor Rheingantz, 199", "COMPLEMENT": "Casa 26", "Tipologia": "6- Arquitetura Civil Privada", "Nome": "Vila dos Operários" }, "geometry": { "type": "Point", "coordinates": [ -52.104507122515905, -32.04421180372298 ] } },
{ "type": "Feature", "properties": { "Label": "PRS/03-0007.00363", "ENDEREÇO": "RIO GRANDE, RS, Corredor Rheingantz, 199", "COMPLEMENT": "Casa 29", "Tipologia": "6- Arquitetura Civil Privada", "Nome": "Vila dos Operários" }, "geometry": { "type": "Point", "coordinates": [ -52.104635352839765, -32.044296150642701 ] } },
{ "type": "Feature", "properties": { "Label": "PRS/03-0007.00364", "ENDEREÇO": "RIO GRANDE, RS, Corredor Rheingantz, 199", "COMPLEMENT": "Casa 30", "Tipologia": "6- Arquitetura Civil Privada", "Nome": "Vila dos Operários" }, "geometry": { "type": "Point", "coordinates": [ -52.104680527911007, -32.044327806072481 ] } },
{ "type": "Feature", "properties": { "Label": "PRS/03-0007.00366", "ENDEREÇO": "RIO GRANDE, RS, Corredor Rheingantz, 199", "COMPLEMENT": "Casa 32", "Tipologia": "6- Arquitetura Civil Privada", "Nome": "Vila dos Operários" }, "geometry": { "type": "Point", "coordinates": [ -52.104761042635673, -32.04439272874253 ] } },
{ "type": "Feature", "properties": { "Label": "PRS/03-0007.00370", "ENDEREÇO": "RIO GRANDE, RS, Corredor Rheingantz, 199", "COMPLEMENT": "Casa 36", "Tipologia": "6- Arquitetura Civil Privada", "Nome": "Vila dos Operários" }, "geometry": { "type": "Point", "coordinates": [ -52.104867302501397, -32.04458714944662 ] } },
{ "type": "Feature", "properties": { "Label": "PRS/03-0007.00372", "ENDEREÇO": "RIO GRANDE, RS, Corredor Rheingantz, 199", "COMPLEMENT": "Casa 38", "Tipologia": "6- Arquitetura Civil Privada", "Nome": "Vila dos Operários" }, "geometry": { "type": "Point", "coordinates": [ -52.104766353863873, -32.044685702626374 ] } },
{ "type": "Feature", "properties": { "Label": "PRS/03-0007.00373", "ENDEREÇO": "RIO GRANDE, RS, Corredor Rheingantz, 199", "COMPLEMENT": "Casa 39", "Tipologia": "6- Arquitetura Civil Privada", "Nome": "Vila dos Operários" }, "geometry": { "type": "Point", "coordinates": [ -52.104722076791276, -32.044728820594081 ] } },
{ "type": "Feature", "properties": { "Label": "PRS/03-0007.00386", "ENDEREÇO": "RIO GRANDE, RS, Praça Sete de Setembro, 187", "COMPLEMENT": null, "Tipologia": "1- Arquitetura Religiosa", "Nome": "Igreja Nossa Senhora da Conceição" }, "geometry": { "type": "Point", "coordinates": [ -52.091352282038272, -32.033542910679131 ] } },
{ "type": "Feature", "properties": { "Label": "PRS/03-0007.00387", "ENDEREÇO": "RIO GRANDE, RS, Praça Sete de Setembro, 189", "COMPLEMENT": null, "Tipologia": "6- Arquitetura Civil Privada", "Nome": null }, "geometry": { "type": "Point", "coordinates": [ -52.091410682329148, -32.033684344265239 ] } },
{ "type": "Feature", "properties": { "Label": "PRS/03-0007.00395", "ENDEREÇO": "RIO GRANDE, RS, Avenida Silva Paes, 187", "COMPLEMENT": null, "Tipologia": "6- Arquitetura Civil Privada", "Nome": null }, "geometry": { "type": "Point", "coordinates": [ -52.092701319529823, -32.034002344721038 ] } },
{ "type": "Feature", "properties": { "Label": "PRS/03-0007.00400", "ENDEREÇO": "RIO GRANDE, RS, Avenida Silva Paes, 387", "COMPLEMENT": null, "Tipologia": "6- Arquitetura Civil Privada", "Nome": null }, "geometry": { "type": "Point", "coordinates": [ -52.0963647, -32.0331977 ] } },
{ "type": "Feature", "properties": { "Label": "PRS/03-0007.00401", "ENDEREÇO": "RIO GRANDE, RS, Praça Tamandaré", "COMPLEMENT": null, "Tipologia": "3- Arquitetura Civil Oficial", "Nome": "Coreto da Praça Tamandaré" }, "geometry": { "type": "Point", "coordinates": [ -52.098924310887433, -32.032637605166421 ] } },
{ "type": "Feature", "properties": { "Label": "PRS/03-0007.00402", "ENDEREÇO": "RIO GRANDE, RS, Praça Tamandaré", "COMPLEMENT": null, "Tipologia": "3- Arquitetura Civil Oficial", "Nome": "Praça Tamandaré" }, "geometry": { "type": "Point", "coordinates": [ -52.09922790000001, -32.0335309 ] } },
{ "type": "Feature", "properties": { "Label": "PRS/03-0007.00434", "ENDEREÇO": "RIO GRANDE, RS, Rua General Vitorino, 382", "COMPLEMENT": null, "Tipologia": "6- Arquitetura Civil Privada", "Nome": null }, "geometry": { "type": "Point", "coordinates": [ -52.0967367, -32.0354535 ] } },
{ "type": "Feature", "properties": { "Label": "PRS/03-0007.00440", "ENDEREÇO": "RIO GRANDE, RS, Rua Zalony, 319", "COMPLEMENT": null, "Tipologia": "6- Arquitetura Civil Privada", "Nome": null }, "geometry": { "type": "Point", "coordinates": [ -52.095167103230274, -32.035171178415425 ] } },
{ "type": "Feature", "properties": { "Label": "PRS/03-0007.00441", "ENDEREÇO": "RIO GRANDE, RS, Rua Zalony, 441", "COMPLEMENT": null, "Tipologia": "6- Arquitetura Civil Privada", "Nome": null }, "geometry": { "type": "Point", "coordinates": [ -52.0957393, -32.0374428 ] } }
]
}
