{
"type": "FeatureCollection",
"name": "patrimonio_ATINGIDOS_rio_grande___nivel_da_lagoa_chuva_acumulada_16_05_2024",
"crs": { "type": "name", "properties": { "name": "urn:ogc:def:crs:OGC:1.3:CRS84" } },
"features": [
{ "type": "Feature", "properties": { "Label": "PRS/03-0007.00002", "ENDEREÇO": "RIO GRANDE, RS, Rua General Abreu,  82", "COMPLEMENT": null, "Tipologia": "6- Arquitetura Civil Privada", "Nome": null }, "geometry": { "type": "Point", "coordinates": [ -52.1058655, -32.0401491 ] } },
{ "type": "Feature", "properties": { "Label": "PRS/03-0007.00022", "ENDEREÇO": "RIO GRANDE, RS, Rua Aquidaban, 668", "COMPLEMENT": "668/670", "Tipologia": "6- Arquitetura Civil Privada", "Nome": null }, "geometry": { "type": "Point", "coordinates": [ -52.1033136, -32.0319823 ] } },
{ "type": "Feature", "properties": { "Label": "PRS/03-0007.00023", "ENDEREÇO": "RIO GRANDE, RS, Rua Aquidaban, 679", "COMPLEMENT": null, "Tipologia": "6- Arquitetura Civil Privada", "Nome": null }, "geometry": { "type": "Point", "coordinates": [ -52.1034545, -32.0322324 ] } },
{ "type": "Feature", "properties": { "Label": "PRS/03-0007.00027", "ENDEREÇO": "RIO GRANDE, RS, Rua Aquidaban, 746", "COMPLEMENT": null, "Tipologia": "6- Arquitetura Civil Privada", "Nome": null }, "geometry": { "type": "Point", "coordinates": [ -52.106342222327726, -32.032279159861197 ] } },
{ "type": "Feature", "properties": { "Label": "PRS/03-0007.00028", "ENDEREÇO": "RIO GRANDE, RS, Rua Aquidaban, 746", "COMPLEMENT": "746c", "Tipologia": "6- Arquitetura Civil Privada", "Nome": "Antigo Sanatório Espíndola" }, "geometry": { "type": "Point", "coordinates": [ -52.1066223, -32.0322816 ] } },
{ "type": "Feature", "properties": { "Label": "PRS/03-0007.00029", "ENDEREÇO": "RIO GRANDE, RS, Rua Aquidaban, 747", "COMPLEMENT": null, "Tipologia": "6- Arquitetura Civil Privada", "Nome": "Antiga Chácara" }, "geometry": { "type": "Point", "coordinates": [ -52.106274199999987, -32.0326535 ] } },
{ "type": "Feature", "properties": { "Label": "PRS/03-0007.00046", "ENDEREÇO": "RIO GRANDE, RS, Rua General Bacelar, 187", "COMPLEMENT": null, "Tipologia": "Arquitetura Eclética", "Nome": null }, "geometry": { "type": "Point", "coordinates": [ -52.0922323, -32.0321622 ] } },
{ "type": "Feature", "properties": { "Label": "PRS/03-0007.00061", "ENDEREÇO": "RIO GRANDE, RS, Rua Benjamin Constant, 197", "COMPLEMENT": null, "Tipologia": "6- Arquitetura Civil Privada", "Nome": null }, "geometry": { "type": "Point", "coordinates": [ -52.093367, -32.0335262 ] } },
{ "type": "Feature", "properties": { "Label": "PRS/03-0007.00064", "ENDEREÇO": "RIO GRANDE, RS, Rua Benjamin Constant, 72", "COMPLEMENT": null, "Tipologia": "6- Arquitetura Civil Privada", "Nome": "Banco do Brasil" }, "geometry": { "type": "Point", "coordinates": [ -52.0929899, -32.0312212 ] } },
{ "type": "Feature", "properties": { "Label": "PRS/03-0007.00067", "ENDEREÇO": "RIO GRANDE, RS, Rua General Canabarro, 401", "COMPLEMENT": null, "Tipologia": "1- Arquitetura Religiosa", "Nome": "Igreja Nossa Senhora de Fátima" }, "geometry": { "type": "Point", "coordinates": [ -52.1019107, -32.0356503 ] } },
{ "type": "Feature", "properties": { "Label": "PRS/03-0007.00068", "ENDEREÇO": "RIO GRANDE, RS, Rua General Canabarro, 194", "COMPLEMENT": null, "Tipologia": "6- Arquitetura Civil Privada", "Nome": null }, "geometry": { "type": "Point", "coordinates": [ -52.1029206, -32.0318371 ] } },
{ "type": "Feature", "properties": { "Label": "PRS/03-0007.00074", "ENDEREÇO": "RIO GRANDE, RS, Avenida Major Carlos Pinto", "COMPLEMENT": "sem nº", "Tipologia": "3- Arquitetura Civil Oficial", "Nome": "Canalete da Avenida Major Carlos Pinto" }, "geometry": { "type": "Point", "coordinates": [ -52.1054357, -32.0364277 ] } },
{ "type": "Feature", "properties": { "Label": "PRS/03-0007.00080", "ENDEREÇO": "RIO GRANDE, RS, Rua Duque de Caxias, 394", "COMPLEMENT": null, "Tipologia": "6- Arquitetura Civil Privada", "Nome": null }, "geometry": { "type": "Point", "coordinates": [ -52.097662818468251, -32.036133448497893 ] } },
{ "type": "Feature", "properties": { "Label": "PRS/03-0007.00081", "ENDEREÇO": "RIO GRANDE, RS, Rua Duque de Caxias, 400", "COMPLEMENT": null, "Tipologia": "6- Arquitetura Civil Privada", "Nome": null }, "geometry": { "type": "Point", "coordinates": [ -52.097676699138148, -32.036412077312939 ] } },
{ "type": "Feature", "properties": { "Label": "PRS/03-0007.00084", "ENDEREÇO": "RIO GRANDE, RS, Rua Duque de Caxias, 496", "COMPLEMENT": null, "Tipologia": "6- Arquitetura Civil Privada", "Nome": "Escola Cantinho Infantil" }, "geometry": { "type": "Point", "coordinates": [ -52.0980693, -32.0380023 ] } },
{ "type": "Feature", "properties": { "Label": "PRS/03-0007.00086", "ENDEREÇO": "RIO GRANDE, RS, Rua Duque de Caxias", "COMPLEMENT": "sem nº", "Tipologia": "3- Arquitetura Civil Oficial", "Nome": "Monumento aos Obreiros Desconhecidos" }, "geometry": { "type": "Point", "coordinates": [ -52.097862941849222, -32.03895490388993 ] } },
{ "type": "Feature", "properties": { "Label": "PRS/03-0007.00090", "ENDEREÇO": "RIO GRANDE, RS, Rua Almirante Cerqueira e Souza, 167", "COMPLEMENT": null, "Tipologia": "4- Arquitetura Militar", "Nome": "Hotel de Trânsito de Oficiais- Vila da Marinha" }, "geometry": { "type": "Point", "coordinates": [ -52.08323116059799, -32.031403719717723 ] } },
{ "type": "Feature", "properties": { "Label": "PRS/03-0007.00091", "ENDEREÇO": "RIO GRANDE, RS, Rua Almirante Cerqueira e Souza,179", "COMPLEMENT": null, "Tipologia": "4- Arquitetura Militar", "Nome": "Museu Naval - Vila da Marinha" }, "geometry": { "type": "Point", "coordinates": [ -52.083488862812878, -32.031402516326324 ] } },
{ "type": "Feature", "properties": { "Label": "PRS/03-0007.00099", "ENDEREÇO": "RIO GRANDE, RS, Rua Senador Corrêa, 555", "COMPLEMENT": null, "Tipologia": "9- Arquitetura Comercial", "Nome": null }, "geometry": { "type": "Point", "coordinates": [ -52.101596099999988, -32.0395948 ] } },
{ "type": "Feature", "properties": { "Label": "PRS/03-0007.00100", "ENDEREÇO": "RIO GRANDE, RS, Rua Senador Corrêa, 395", "COMPLEMENT": null, "Tipologia": "6- Arquitetura Civil Privada", "Nome": null }, "geometry": { "type": "Point", "coordinates": [ -52.0982221, -32.0402002 ] } },
{ "type": "Feature", "properties": { "Label": "PRS/03-0007.00103", "ENDEREÇO": "RIO GRANDE, RS, Rua Barão de Cotegipe, 455", "COMPLEMENT": null, "Tipologia": "6- Arquitetura Civil Privada", "Nome": null }, "geometry": { "type": "Point", "coordinates": [ -52.099358900000013, -32.0369958 ] } },
{ "type": "Feature", "properties": { "Label": "PRS/03-0007.00116", "ENDEREÇO": "RIO GRANDE, RS, Rua Doutor Fernando Duprat da Silva,10", "COMPLEMENT": null, "Tipologia": "6- Arquitetura Civil Privada", "Nome": null }, "geometry": { "type": "Point", "coordinates": [ -52.090981585693143, -32.03056337428481 ] } },
{ "type": "Feature", "properties": { "Label": "PRS/03-0007.00118", "ENDEREÇO": "RIO GRANDE, RS, Rua Doutor Fernando Duprat da Silva, 94", "COMPLEMENT": null, "Tipologia": "6- Arquitetura Civil Privada", "Nome": null }, "geometry": { "type": "Point", "coordinates": [ -52.0914419, -32.031923 ] } },
{ "type": "Feature", "properties": { "Label": "PRS/03-0007.00121", "ENDEREÇO": "RIO GRANDE, RS, Rua Marechal Floriano Peixoto, 72", "COMPLEMENT": null, "Tipologia": "6- Arquitetura Civil Privada", "Nome": null }, "geometry": { "type": "Point", "coordinates": [ -52.089967599999987, -32.0315534 ] } },
{ "type": "Feature", "properties": { "Label": "PRS/03-0007.00127", "ENDEREÇO": "RIO GRANDE, RS, Rua Marechal Floriano Peixoto, 125", "COMPLEMENT": null, "Tipologia": "6- Arquitetura Civil Privada", "Nome": null }, "geometry": { "type": "Point", "coordinates": [ -52.0905384, -32.0316137 ] } },
{ "type": "Feature", "properties": { "Label": "PRS/03-0007.00128", "ENDEREÇO": "RIO GRANDE, RS, Rua Marechal Floriano Peixoto, 129", "COMPLEMENT": null, "Tipologia": "6- Arquitetura Civil Privada", "Nome": null }, "geometry": { "type": "Point", "coordinates": [ -52.090685699999987, -32.0316096 ] } },
{ "type": "Feature", "properties": { "Label": "PRS/03-0007.00133", "ENDEREÇO": "RIO GRANDE, RS, Rua Marechal Floriano Peixoto, 175", "COMPLEMENT": "175/177", "Tipologia": "Arquitetura Eclética", "Nome": null }, "geometry": { "type": "Point", "coordinates": [ -52.0916074, -32.0313549 ] } },
{ "type": "Feature", "properties": { "Label": "PRS/03-0007.00143", "ENDEREÇO": "RIO GRANDE, RS, Rua Marechal Floriano Peixoto, 459", "COMPLEMENT": "461", "Tipologia": "6- Arquitetura Civil Privada", "Nome": null }, "geometry": { "type": "Point", "coordinates": [ -52.0980406, -32.0310212 ] } },
{ "type": "Feature", "properties": { "Label": "PRS/03-0007.00149", "ENDEREÇO": "RIO GRANDE, RS, Rua Marechal Floriano Peixoto, 554", "COMPLEMENT": null, "Tipologia": "6- Arquitetura Civil Privada", "Nome": null }, "geometry": { "type": "Point", "coordinates": [ -52.100034, -32.031169 ] } },
{ "type": "Feature", "properties": { "Label": "PRS/03-0007.00150", "ENDEREÇO": "RIO GRANDE, RS, Rua Marechal Floriano Peixoto, 560", "COMPLEMENT": null, "Tipologia": "6- Arquitetura Civil Privada", "Nome": null }, "geometry": { "type": "Point", "coordinates": [ -52.1003165, -32.0310524 ] } },
{ "type": "Feature", "properties": { "Label": "PRS/03-0007.00152", "ENDEREÇO": "RIO GRANDE, RS, Rua Marechal Floriano Peixoto, 582", "COMPLEMENT": null, "Tipologia": "6- Arquitetura Civil Privada", "Nome": null }, "geometry": { "type": "Point", "coordinates": [ -52.100969, -32.0313852 ] } },
{ "type": "Feature", "properties": { "Label": "PRS/03-0007.00153", "ENDEREÇO": "RIO GRANDE, RS, Rua Marechal Floriano Peixoto, 593", "COMPLEMENT": null, "Tipologia": "Arquitetura Eclética", "Nome": null }, "geometry": { "type": "Point", "coordinates": [ -52.1007431, -32.031615 ] } },
{ "type": "Feature", "properties": { "Label": "PRS/03-0007.00155", "ENDEREÇO": "RIO GRANDE, RS, Rua Marechal Floriano Peixoto, 188", "COMPLEMENT": null, "Tipologia": "Arquitetura Eclética", "Nome": null }, "geometry": { "type": "Point", "coordinates": [ -52.0918994, -32.031133 ] } },
{ "type": "Feature", "properties": { "Label": "PRS/03-0007.00162", "ENDEREÇO": "RIO GRANDE, RS, Rua Marechal Floriano Peixoto, 580", "COMPLEMENT": null, "Tipologia": "6- Arquitetura Civil Privada", "Nome": null }, "geometry": { "type": "Point", "coordinates": [ -52.100926, -32.0314099 ] } },
{ "type": "Feature", "properties": { "Label": "PRS/03-0007.00164", "ENDEREÇO": "RIO GRANDE, RS, Rua Marechal Floriano Peixoto, 587", "COMPLEMENT": null, "Tipologia": "6- Arquitetura Civil Privada", "Nome": null }, "geometry": { "type": "Point", "coordinates": [ -52.1005826, -32.031541 ] } },
{ "type": "Feature", "properties": { "Label": "PRS/03-0007.00203", "ENDEREÇO": "RIO GRANDE, RS, Rua João Alfredo, 383", "COMPLEMENT": null, "Tipologia": "6- Arquitetura Civil Privada", "Nome": null }, "geometry": { "type": "Point", "coordinates": [ -52.0976276, -32.0392812 ] } },
{ "type": "Feature", "properties": { "Label": "PRS/03-0007.00204", "ENDEREÇO": "RIO GRANDE, RS, Rua João Alfredo, 387", "COMPLEMENT": null, "Tipologia": "6- Arquitetura Civil Privada", "Nome": null }, "geometry": { "type": "Point", "coordinates": [ -52.0977014, -32.0392789 ] } },
{ "type": "Feature", "properties": { "Label": "PRS/03-0007.00205", "ENDEREÇO": "RIO GRANDE, RS, Rua João Alfredo, 391", "COMPLEMENT": null, "Tipologia": "6- Arquitetura Civil Privada", "Nome": null }, "geometry": { "type": "Point", "coordinates": [ -52.0977902, -32.0392884 ] } },
{ "type": "Feature", "properties": { "Label": "PRS/03-0007.00206", "ENDEREÇO": "RIO GRANDE, RS, Rua João Alfredo, 395", "COMPLEMENT": null, "Tipologia": "6- Arquitetura Civil Privada", "Nome": null }, "geometry": { "type": "Point", "coordinates": [ -52.0978916, -32.0392504 ] } },
{ "type": "Feature", "properties": { "Label": "PRS/03-0007.00209", "ENDEREÇO": "RIO GRANDE, RS, Rua João Alfredo, 485", "COMPLEMENT": null, "Tipologia": "6- Arquitetura Civil Privada", "Nome": null }, "geometry": { "type": "Point", "coordinates": [ -52.100293099999988, -32.0387599 ] } },
{ "type": "Feature", "properties": { "Label": "PRS/03-0007.00238", "ENDEREÇO": "RIO GRANDE, RS, Rua Luiz Loréa, 581", "COMPLEMENT": null, "Tipologia": "6- Arquitetura Civil Privada", "Nome": "Casarão Trajano Lopes" }, "geometry": { "type": "Point", "coordinates": [ -52.10097883350501, -32.031713448920698 ] } },
{ "type": "Feature", "properties": { "Label": "PRS/03-0007.00244", "ENDEREÇO": "RIO GRANDE, RS, Rua Moron, 341", "COMPLEMENT": null, "Tipologia": "6- Arquitetura Civil Privada", "Nome": null }, "geometry": { "type": "Point", "coordinates": [ -52.1055151, -32.0346461 ] } },
{ "type": "Feature", "properties": { "Label": "PRS/03-0007.00246", "ENDEREÇO": "RIO GRANDE, RS, Rua Moron, 549", "COMPLEMENT": null, "Tipologia": "4- Arquitetura Militar", "Nome": "Quartel do Exército" }, "geometry": { "type": "Point", "coordinates": [ -52.103293099999988, -32.0383374 ] } },
{ "type": "Feature", "properties": { "Label": "PRS/03-0007.00247", "ENDEREÇO": "RIO GRANDE, RS, Rua Doutor Napoleão Laureano, 335", "COMPLEMENT": null, "Tipologia": "6- Arquitetura Civil Privada", "Nome": null }, "geometry": { "type": "Point", "coordinates": [ -52.093294507770914, -32.035837178473287 ] } },
{ "type": "Feature", "properties": { "Label": "PRS/03-0007.00248", "ENDEREÇO": "RIO GRANDE, RS, Rua Doutor Napoleão Laureano, 355", "COMPLEMENT": null, "Tipologia": "6- Arquitetura Civil Privada", "Nome": null }, "geometry": { "type": "Point", "coordinates": [ -52.093440400000013, -32.0363532 ] } },
{ "type": "Feature", "properties": { "Label": "PRS/03-0007.00249", "ENDEREÇO": "RIO GRANDE, RS, Rua Doutor Nascimento, 224", "COMPLEMENT": null, "Tipologia": "6- Arquitetura Civil Privada", "Nome": "Colégio Lemos Júnior" }, "geometry": { "type": "Point", "coordinates": [ -52.0940307, -32.0368351 ] } },
{ "type": "Feature", "properties": { "Label": "PRS/03-0007.00251", "ENDEREÇO": "RIO GRANDE, RS, Rua Doutor Nascimento, 743", "COMPLEMENT": null, "Tipologia": "6- Arquitetura Civil Privada", "Nome": null }, "geometry": { "type": "Point", "coordinates": [ -52.1046628, -32.0358495 ] } },
{ "type": "Feature", "properties": { "Label": "PRS/03-0007.00252", "ENDEREÇO": "RIO GRANDE, RS, Rua Doutor Nascimento, 249", "COMPLEMENT": null, "Tipologia": "6- Arquitetura Civil Privada", "Nome": "Antigo Cine Teatro Glória" }, "geometry": { "type": "Point", "coordinates": [ -52.094175112872954, -32.037049296039335 ] } },
{ "type": "Feature", "properties": { "Label": "PRS/03-0007.00257", "ENDEREÇO": "RIO GRANDE, RS, Rua General Netto, 263", "COMPLEMENT": null, "Tipologia": "Arquitetura Eclética", "Nome": null }, "geometry": { "type": "Point", "coordinates": [ -52.0982196, -32.0337896 ] } },
{ "type": "Feature", "properties": { "Label": "PRS/03-0007.00263", "ENDEREÇO": "RIO GRANDE, RS, Rua General Osório, 450", "COMPLEMENT": null, "Tipologia": "Arquitetura Colonial", "Nome": "Banca do Peixe" }, "geometry": { "type": "Point", "coordinates": [ -52.09695989977655, -32.029701805458018 ] } },
{ "type": "Feature", "properties": { "Label": "PRS/03-0007.00272", "ENDEREÇO": "RIO GRANDE, RS, Rua Conselheiro Pinto Lima, 51", "COMPLEMENT": null, "Tipologia": "6- Arquitetura Civil Privada", "Nome": null }, "geometry": { "type": "Point", "coordinates": [ -52.099122, -32.0310095 ] } },
{ "type": "Feature", "properties": { "Label": "PRS/03-0007.00275", "ENDEREÇO": "RIO GRANDE, RS, Rua Conde de Porto Alegre, 409", "COMPLEMENT": null, "Tipologia": "6- Arquitetura Civil Privada", "Nome": null }, "geometry": { "type": "Point", "coordinates": [ -52.0973724, -32.0337567 ] } },
{ "type": "Feature", "properties": { "Label": "PRS/03-0007.00279", "ENDEREÇO": "RIO GRANDE, RS, Avenida Rheingantz, 6", "COMPLEMENT": null, "Tipologia": "6- Arquitetura Civil Privada", "Nome": null }, "geometry": { "type": "Point", "coordinates": [ -52.102980099999989, -32.0416683 ] } },
{ "type": "Feature", "properties": { "Label": "PRS/03-0007.00281", "ENDEREÇO": "RIO GRANDE, RS, Avenida Rheingantz, 51", "COMPLEMENT": null, "Tipologia": "6- Arquitetura Civil Privada", "Nome": null }, "geometry": { "type": "Point", "coordinates": [ -52.103230024594303, -32.042346987080428 ] } },
{ "type": "Feature", "properties": { "Label": "PRS/03-0007.00282", "ENDEREÇO": "RIO GRANDE, RS, Avenida Rheingantz, 60", "COMPLEMENT": null, "Tipologia": "6- Arquitetura Civil Privada", "Nome": null }, "geometry": { "type": "Point", "coordinates": [ -52.103541759065948, -32.042265147338831 ] } },
{ "type": "Feature", "properties": { "Label": "PRS/03-0007.00283", "ENDEREÇO": "RIO GRANDE, RS, Avenida Rheingantz, 62", "COMPLEMENT": null, "Tipologia": "6- Arquitetura Civil Privada", "Nome": null }, "geometry": { "type": "Point", "coordinates": [ -52.103575478697778, -32.042296953667339 ] } },
{ "type": "Feature", "properties": { "Label": "PRS/03-0007.00284", "ENDEREÇO": "RIO GRANDE, RS, Avenida Rheingantz, 64", "COMPLEMENT": null, "Tipologia": "6- Arquitetura Civil Privada", "Nome": null }, "geometry": { "type": "Point", "coordinates": [ -52.1036139, -32.0423272 ] } },
{ "type": "Feature", "properties": { "Label": "PRS/03-0007.00285", "ENDEREÇO": "RIO GRANDE, RS, Avenida Rheingantz, 66", "COMPLEMENT": null, "Tipologia": "6- Arquitetura Civil Privada", "Nome": null }, "geometry": { "type": "Point", "coordinates": [ -52.103670677469381, -32.042378843776206 ] } },
{ "type": "Feature", "properties": { "Label": "PRS/03-0007.00286", "ENDEREÇO": "RIO GRANDE, RS, Avenida Rheingantz, 68", "COMPLEMENT": null, "Tipologia": "6- Arquitetura Civil Privada", "Nome": null }, "geometry": { "type": "Point", "coordinates": [ -52.103713122789145, -32.042413043321005 ] } },
{ "type": "Feature", "properties": { "Label": "PRS/03-0007.00287", "ENDEREÇO": "RIO GRANDE, RS, Avenida Rheingantz, 70", "COMPLEMENT": null, "Tipologia": "6- Arquitetura Civil Privada", "Nome": null }, "geometry": { "type": "Point", "coordinates": [ -52.1038377, -32.0424422 ] } },
{ "type": "Feature", "properties": { "Label": "PRS/03-0007.00289", "ENDEREÇO": "RIO GRANDE, RS, Avenida Rheingantz, 79", "COMPLEMENT": null, "Tipologia": "6- Arquitetura Civil Privada", "Nome": null }, "geometry": { "type": "Point", "coordinates": [ -52.1036513, -32.0427377 ] } },
{ "type": "Feature", "properties": { "Label": "PRS/03-0007.00290", "ENDEREÇO": "RIO GRANDE, RS,  Avenida Rheingantz,102", "COMPLEMENT": null, "Tipologia": "6- Arquitetura Civil Privada", "Nome": null }, "geometry": { "type": "Point", "coordinates": [ -52.104219699999987, -32.0428843 ] } },
{ "type": "Feature", "properties": { "Label": "PRS/03-0007.00291", "ENDEREÇO": "RIO GRANDE, RS, Avenida Rheingantz, 104", "COMPLEMENT": null, "Tipologia": "6- Arquitetura Civil Privada", "Nome": null }, "geometry": { "type": "Point", "coordinates": [ -52.104293399999989, -32.0429055 ] } },
{ "type": "Feature", "properties": { "Label": "PRS/03-0007.00292", "ENDEREÇO": "RIO GRANDE, RS, Avenida Rheingantz, 108", "COMPLEMENT": null, "Tipologia": "6- Arquitetura Civil Privada", "Nome": null }, "geometry": { "type": "Point", "coordinates": [ -52.104348699999989, -32.0429721 ] } },
{ "type": "Feature", "properties": { "Label": "PRS/03-0007.00293", "ENDEREÇO": "RIO GRANDE, RS, Avenida Rheingantz, 112", "COMPLEMENT": null, "Tipologia": "6- Arquitetura Civil Privada", "Nome": null }, "geometry": { "type": "Point", "coordinates": [ -52.1043673, -32.0430032 ] } },
{ "type": "Feature", "properties": { "Label": "PRS/03-0007.00294", "ENDEREÇO": "RIO GRANDE, RS, Avenida Rheingantz, 116", "COMPLEMENT": null, "Tipologia": "6- Arquitetura Civil Privada", "Nome": null }, "geometry": { "type": "Point", "coordinates": [ -52.1044384, -32.0430132 ] } },
{ "type": "Feature", "properties": { "Label": "PRS/03-0007.00295", "ENDEREÇO": "RIO GRANDE, RS, Avenida Rheingantz, 120", "COMPLEMENT": null, "Tipologia": "6- Arquitetura Civil Privada", "Nome": null }, "geometry": { "type": "Point", "coordinates": [ -52.1044879, -32.0430591 ] } },
{ "type": "Feature", "properties": { "Label": "PRS/03-0007.00296", "ENDEREÇO": "RIO GRANDE, RS, Avenida Rheingantz, 124", "COMPLEMENT": null, "Tipologia": "6- Arquitetura Civil Privada", "Nome": null }, "geometry": { "type": "Point", "coordinates": [ -52.104524399999988, -32.043102 ] } },
{ "type": "Feature", "properties": { "Label": "PRS/03-0007.00297", "ENDEREÇO": "RIO GRANDE, RS, Avenida Rheingantz, 128", "COMPLEMENT": null, "Tipologia": "6- Arquitetura Civil Privada", "Nome": null }, "geometry": { "type": "Point", "coordinates": [ -52.1046041, -32.0431472 ] } },
{ "type": "Feature", "properties": { "Label": "PRS/03-0007.00298", "ENDEREÇO": "RIO GRANDE, RS, Avenida Rheingantz, 130", "COMPLEMENT": null, "Tipologia": "6- Arquitetura Civil Privada", "Nome": null }, "geometry": { "type": "Point", "coordinates": [ -52.1047686, -32.0431783 ] } },
{ "type": "Feature", "properties": { "Label": "PRS/03-0007.00299", "ENDEREÇO": "RIO GRANDE, RS, Avenida Rheingantz, 131", "COMPLEMENT": null, "Tipologia": "6- Arquitetura Civil Privada", "Nome": null }, "geometry": { "type": "Point", "coordinates": [ -52.10447639811818, -32.043489260801437 ] } },
{ "type": "Feature", "properties": { "Label": "PRS/03-0007.00300", "ENDEREÇO": "RIO GRANDE, RS, Avenida Rheingantz, 133", "COMPLEMENT": null, "Tipologia": "6- Arquitetura Civil Privada", "Nome": null }, "geometry": { "type": "Point", "coordinates": [ -52.104534841032716, -32.043530629084565 ] } },
{ "type": "Feature", "properties": { "Label": "PRS/03-0007.00301", "ENDEREÇO": "RIO GRANDE, RS, Avenida Rheingantz, 135", "COMPLEMENT": null, "Tipologia": "6- Arquitetura Civil Privada", "Nome": null }, "geometry": { "type": "Point", "coordinates": [ -52.104574006562274, -32.043575156556464 ] } },
{ "type": "Feature", "properties": { "Label": "PRS/03-0007.00302", "ENDEREÇO": "RIO GRANDE, RS, Avenida Rheingantz, 137", "COMPLEMENT": null, "Tipologia": "6- Arquitetura Civil Privada", "Nome": null }, "geometry": { "type": "Point", "coordinates": [ -52.104623598924178, -32.043610619416782 ] } },
{ "type": "Feature", "properties": { "Label": "PRS/03-0007.00303", "ENDEREÇO": "RIO GRANDE, RS, Avenida Rheingantz, 139", "COMPLEMENT": null, "Tipologia": "6- Arquitetura Civil Privada", "Nome": "Vila dos Operários" }, "geometry": { "type": "Point", "coordinates": [ -52.1046796, -32.0436411 ] } },
{ "type": "Feature", "properties": { "Label": "PRS/03-0007.00304", "ENDEREÇO": "RIO GRANDE, RS, Avenida Rheingantz, 141", "COMPLEMENT": null, "Tipologia": "6- Arquitetura Civil Privada", "Nome": "Vila dos Operários" }, "geometry": { "type": "Point", "coordinates": [ -52.1047184, -32.0436787 ] } },
{ "type": "Feature", "properties": { "Label": "PRS/03-0007.00305", "ENDEREÇO": "RIO GRANDE, RS, Avenida Rheingantz, 143", "COMPLEMENT": null, "Tipologia": "6- Arquitetura Civil Privada", "Nome": "Vila dos Operários" }, "geometry": { "type": "Point", "coordinates": [ -52.104737521024205, -32.043698284693122 ] } },
{ "type": "Feature", "properties": { "Label": "PRS/03-0007.00306", "ENDEREÇO": "RIO GRANDE, RS, Avenida Rheingantz, 145", "COMPLEMENT": null, "Tipologia": "6- Arquitetura Civil Privada", "Nome": "Vila dos Operários" }, "geometry": { "type": "Point", "coordinates": [ -52.104774199999987, -32.043725 ] } },
{ "type": "Feature", "properties": { "Label": "PRS/03-0007.00307", "ENDEREÇO": "RIO GRANDE, RS, Avenida Rheingantz, 147", "COMPLEMENT": null, "Tipologia": "6- Arquitetura Civil Privada", "Nome": "Vila dos Operários" }, "geometry": { "type": "Point", "coordinates": [ -52.1048017, -32.0437535 ] } },
{ "type": "Feature", "properties": { "Label": "PRS/03-0007.00308", "ENDEREÇO": "RIO GRANDE, RS, Avenida Rheingantz, 149", "COMPLEMENT": null, "Tipologia": "6- Arquitetura Civil Privada", "Nome": "Vila dos Operários" }, "geometry": { "type": "Point", "coordinates": [ -52.104823791174574, -32.043769988150544 ] } },
{ "type": "Feature", "properties": { "Label": "PRS/03-0007.00310", "ENDEREÇO": "RIO GRANDE, RS, Avenida Rheingantz, 153", "COMPLEMENT": null, "Tipologia": "6- Arquitetura Civil Privada", "Nome": "Vila dos Operários" }, "geometry": { "type": "Point", "coordinates": [ -52.1048862, -32.043828 ] } },
{ "type": "Feature", "properties": { "Label": "PRS/03-0007.00311", "ENDEREÇO": "RIO GRANDE, RS, Avenida Rheingantz, 157", "COMPLEMENT": null, "Tipologia": "6- Arquitetura Civil Privada", "Nome": "Vila dos Operários" }, "geometry": { "type": "Point", "coordinates": [ -52.1049182, -32.0438538 ] } },
{ "type": "Feature", "properties": { "Label": "PRS/03-0007.00312", "ENDEREÇO": "RIO GRANDE, RS, Avenida Rheingantz, 161", "COMPLEMENT": null, "Tipologia": "6- Arquitetura Civil Privada", "Nome": "Vila dos Operários" }, "geometry": { "type": "Point", "coordinates": [ -52.1049148, -32.0439204 ] } },
{ "type": "Feature", "properties": { "Label": "PRS/03-0007.00313", "ENDEREÇO": "RIO GRANDE, RS, Avenida Rheingantz, 165", "COMPLEMENT": null, "Tipologia": "6- Arquitetura Civil Privada", "Nome": "Vila dos Operários" }, "geometry": { "type": "Point", "coordinates": [ -52.1050052, -32.0439433 ] } },
{ "type": "Feature", "properties": { "Label": "PRS/03-0007.00314", "ENDEREÇO": "RIO GRANDE, RS, Avenida Rheingantz, 167", "COMPLEMENT": null, "Tipologia": "6- Arquitetura Civil Privada", "Nome": "Vila dos Operários" }, "geometry": { "type": "Point", "coordinates": [ -52.105027548490327, -32.043964341161519 ] } },
{ "type": "Feature", "properties": { "Label": "PRS/03-0007.00315", "ENDEREÇO": "RIO GRANDE, RS, Avenida Rheingantz, 171", "COMPLEMENT": null, "Tipologia": "6- Arquitetura Civil Privada", "Nome": "Vila dos Operários" }, "geometry": { "type": "Point", "coordinates": [ -52.105065125462588, -32.043999408425861 ] } },
{ "type": "Feature", "properties": { "Label": "PRS/03-0007.00316", "ENDEREÇO": "RIO GRANDE, RS, Avenida Rheingantz, 173", "COMPLEMENT": null, "Tipologia": "6- Arquitetura Civil Privada", "Nome": "Vila dos Operários" }, "geometry": { "type": "Point", "coordinates": [ -52.1050876, -32.0440576 ] } },
{ "type": "Feature", "properties": { "Label": "PRS/03-0007.00317", "ENDEREÇO": "RIO GRANDE, RS, Avenida Rheingantz, 175", "COMPLEMENT": null, "Tipologia": "6- Arquitetura Civil Privada", "Nome": "Vila dos Operários" }, "geometry": { "type": "Point", "coordinates": [ -52.10513830912749, -32.044068310866763 ] } },
{ "type": "Feature", "properties": { "Label": "PRS/03-0007.00318", "ENDEREÇO": "RIO GRANDE, RS, Avenida Rheingantz, 177", "COMPLEMENT": null, "Tipologia": "6- Arquitetura Civil Privada", "Nome": "Vila dos Operários" }, "geometry": { "type": "Point", "coordinates": [ -52.1051982, -32.0440948 ] } },
{ "type": "Feature", "properties": { "Label": "PRS/03-0007.00319", "ENDEREÇO": "RIO GRANDE, RS, Avenida Rheingantz, 179", "COMPLEMENT": null, "Tipologia": "6- Arquitetura Civil Privada", "Nome": "Vila dos Operários" }, "geometry": { "type": "Point", "coordinates": [ -52.1052105, -32.0441227 ] } },
{ "type": "Feature", "properties": { "Label": "PRS/03-0007.00320", "ENDEREÇO": "RIO GRANDE, RS, Avenida Rheingantz, 197", "COMPLEMENT": null, "Tipologia": "6- Arquitetura Civil Privada", "Nome": "Vila dos Operários" }, "geometry": { "type": "Point", "coordinates": [ -52.1052842, -32.0441878 ] } },
{ "type": "Feature", "properties": { "Label": "PRS/03-0007.00322", "ENDEREÇO": "RIO GRANDE, RS, Avenida Rheingantz, 194", "COMPLEMENT": null, "Tipologia": "6- Arquitetura Civil Privada", "Nome": "Cassino dos Mestres" }, "geometry": { "type": "Point", "coordinates": [ -52.106024088521082, -32.044423992660796 ] } },
{ "type": "Feature", "properties": { "Label": "PRS/03-0007.00324", "ENDEREÇO": "RIO GRANDE, RS, Avenida Rheingantz, 166", "COMPLEMENT": null, "Tipologia": "6- Arquitetura Civil Privada", "Nome": null }, "geometry": { "type": "Point", "coordinates": [ -52.1052773, -32.0437151 ] } },
{ "type": "Feature", "properties": { "Label": "PRS/03-0007.00325", "ENDEREÇO": "RIO GRANDE, RS, Avenida Rheingantz, 176", "COMPLEMENT": null, "Tipologia": "6- Arquitetura Civil Privada", "Nome": "Jardim de Infância" }, "geometry": { "type": "Point", "coordinates": [ -52.1054221, -32.0439074 ] } },
{ "type": "Feature", "properties": { "Label": "PRS/03-0007.00333", "ENDEREÇO": "RIO GRANDE, RS, Avenida Rheingantz, 201", "COMPLEMENT": null, "Tipologia": "7- Arquitetura Rural ou Industrial", "Nome": null }, "geometry": { "type": "Point", "coordinates": [ -52.104401015598931, -32.044850657524051 ] } },
{ "type": "Feature", "properties": { "Label": "PRS/03-0007.00334", "ENDEREÇO": "RIO GRANDE, RS, Corredor Rheingantz, 199", "COMPLEMENT": null, "Tipologia": "6- Arquitetura Civil Privada", "Nome": "Ambulatório/Vila dos Operários" }, "geometry": { "type": "Point", "coordinates": [ -52.105043042404937, -32.044400957559844 ] } },
{ "type": "Feature", "properties": { "Label": "PRS/03-0007.00335", "ENDEREÇO": "RIO GRANDE, RS, Corredor Rheingantz, 199", "COMPLEMENT": "Casa 1", "Tipologia": "6- Arquitetura Civil Privada", "Nome": "Vila dos Operários" }, "geometry": { "type": "Point", "coordinates": [ -52.104891302408049, -32.044337980763913 ] } },
{ "type": "Feature", "properties": { "Label": "PRS/03-0007.00336", "ENDEREÇO": "RIO GRANDE, RS, Corredor Rheingantz, 199", "COMPLEMENT": "Casa 2", "Tipologia": "6- Arquitetura Civil Privada", "Nome": "Vila dos Operários" }, "geometry": { "type": "Point", "coordinates": [ -52.104856590572844, -32.044317316097164 ] } },
{ "type": "Feature", "properties": { "Label": "PRS/03-0007.00337", "ENDEREÇO": "RIO GRANDE, RS, Corredor Rheingantz, 199", "COMPLEMENT": "Casa 3", "Tipologia": "6- Arquitetura Civil Privada", "Nome": "Vila dos Operários" }, "geometry": { "type": "Point", "coordinates": [ -52.104831758035445, -32.04429936094693 ] } },
{ "type": "Feature", "properties": { "Label": "PRS/03-0007.00338", "ENDEREÇO": "RIO GRANDE, RS, Corredor Rheingantz, 199", "COMPLEMENT": "Casa 4", "Tipologia": "6- Arquitetura Civil Privada", "Nome": "Vila dos Operários" }, "geometry": { "type": "Point", "coordinates": [ -52.104805234186841, -32.04427722709098 ] } },
{ "type": "Feature", "properties": { "Label": "PRS/03-0007.00339", "ENDEREÇO": "RIO GRANDE, RS, Corredor Rheingantz, 199", "COMPLEMENT": "Casa 5", "Tipologia": "6- Arquitetura Civil Privada", "Nome": "Vila dos Operários" }, "geometry": { "type": "Point", "coordinates": [ -52.104783666779269, -32.044257845661427 ] } },
{ "type": "Feature", "properties": { "Label": "PRS/03-0007.00340", "ENDEREÇO": "RIO GRANDE, RS, Corredor Rheingantz, 199", "COMPLEMENT": "Casa 6", "Tipologia": "6- Arquitetura Civil Privada", "Nome": "Vila dos Operários" }, "geometry": { "type": "Point", "coordinates": [ -52.104752236896402, -32.044237152363095 ] } },
{ "type": "Feature", "properties": { "Label": "PRS/03-0007.00341", "ENDEREÇO": "RIO GRANDE, RS, Corredor Rheingantz, 199", "COMPLEMENT": "Casa 7", "Tipologia": "6- Arquitetura Civil Privada", "Nome": "Vila dos Operários" }, "geometry": { "type": "Point", "coordinates": [ -52.104719166078809, -32.044216473356499 ] } },
{ "type": "Feature", "properties": { "Label": "PRS/03-0007.00342", "ENDEREÇO": "RIO GRANDE, RS, Corredor Rheingantz, 199", "COMPLEMENT": "Casa 8", "Tipologia": "6- Arquitetura Civil Privada", "Nome": "Vila dos Operários" }, "geometry": { "type": "Point", "coordinates": [ -52.10468775301289, -32.044197177708696 ] } },
{ "type": "Feature", "properties": { "Label": "PRS/03-0007.00343", "ENDEREÇO": "RIO GRANDE, RS, Corredor Rheingantz, 199", "COMPLEMENT": "Casa 9", "Tipologia": "6- Arquitetura Civil Privada", "Nome": "Vila dos Operários" }, "geometry": { "type": "Point", "coordinates": [ -52.10466124601632, -32.044176441488133 ] } },
{ "type": "Feature", "properties": { "Label": "PRS/03-0007.00344", "ENDEREÇO": "RIO GRANDE, RS, Corredor Rheingantz, 199", "COMPLEMENT": "Casa 10", "Tipologia": "6- Arquitetura Civil Privada", "Nome": "Vila dos Operários" }, "geometry": { "type": "Point", "coordinates": [ -52.104629749038146, -32.044150157488609 ] } },
{ "type": "Feature", "properties": { "Label": "PRS/03-0007.00345", "ENDEREÇO": "RIO GRANDE, RS, Corredor Rheingantz, 199", "COMPLEMENT": "Casa 11", "Tipologia": "6- Arquitetura Civil Privada", "Nome": "Vila dos Operários" }, "geometry": { "type": "Point", "coordinates": [ -52.104603242068173, -32.044129421255171 ] } },
{ "type": "Feature", "properties": { "Label": "PRS/03-0007.00346", "ENDEREÇO": "RIO GRANDE, RS, Corredor Rheingantz, 199", "COMPLEMENT": "Casa 12", "Tipologia": "6- Arquitetura Civil Privada", "Nome": "Vila dos Operários" }, "geometry": { "type": "Point", "coordinates": [ -52.104575110949902, -32.044110096981221 ] } },
{ "type": "Feature", "properties": { "Label": "PRS/03-0007.00347", "ENDEREÇO": "RIO GRANDE, RS, Corredor Rheingantz, 199", "COMPLEMENT": "Casa 13", "Tipologia": "6- Arquitetura Civil Privada", "Nome": "Vila dos Operários" }, "geometry": { "type": "Point", "coordinates": [ -52.104556775163871, -32.044086493912445 ] } },
{ "type": "Feature", "properties": { "Label": "PRS/03-0007.00348", "ENDEREÇO": "RIO GRANDE, RS, Corredor Rheingantz, 199", "COMPLEMENT": "Casa 14", "Tipologia": "6- Arquitetura Civil Privada", "Nome": "Vila dos Operários" }, "geometry": { "type": "Point", "coordinates": [ -52.104526986336289, -32.044065786257505 ] } },
{ "type": "Feature", "properties": { "Label": "PRS/03-0007.00349", "ENDEREÇO": "RIO GRANDE, RS, Corredor Rheingantz, 199", "COMPLEMENT": "Casa 15", "Tipologia": "6- Arquitetura Civil Privada", "Nome": "Vila dos Operários" }, "geometry": { "type": "Point", "coordinates": [ -52.104492190757433, -32.044038133148888 ] } },
{ "type": "Feature", "properties": { "Label": "PRS/03-0007.00350", "ENDEREÇO": "RIO GRANDE, RS, Corredor Rheingantz, 199", "COMPLEMENT": "Casa 16", "Tipologia": "6- Arquitetura Civil Privada", "Nome": "Vila dos Operários" }, "geometry": { "type": "Point", "coordinates": [ -52.104450814633708, -32.044009139548223 ] } },
{ "type": "Feature", "properties": { "Label": "PRS/03-0007.00351", "ENDEREÇO": "RIO GRANDE, RS, Corredor Rheingantz, 199", "COMPLEMENT": "Casa 17", "Tipologia": "6- Arquitetura Civil Privada", "Nome": "Vila dos Operários" }, "geometry": { "type": "Point", "coordinates": [ -52.104414394938523, -32.043982898380804 ] } },
{ "type": "Feature", "properties": { "Label": "PRS/03-0007.00352", "ENDEREÇO": "RIO GRANDE, RS, Corredor Rheingantz, 199", "COMPLEMENT": "Casa 18", "Tipologia": "6- Arquitetura Civil Privada", "Nome": "Vila dos Operários" }, "geometry": { "type": "Point", "coordinates": [ -52.104376351103291, -32.043958069165228 ] } },
{ "type": "Feature", "properties": { "Label": "PRS/03-0007.00353", "ENDEREÇO": "RIO GRANDE, RS, Corredor Rheingantz, 199", "COMPLEMENT": "Casa 19", "Tipologia": "6- Arquitetura Civil Privada", "Nome": "Vila dos Operários" }, "geometry": { "type": "Point", "coordinates": [ -52.10432760758718, -32.043930537518762 ] } },
{ "type": "Feature", "properties": { "Label": "PRS/03-0007.00354", "ENDEREÇO": "RIO GRANDE, RS, Corredor Rheingantz, 199", "COMPLEMENT": "Casa 20", "Tipologia": "6- Arquitetura Civil Privada", "Nome": "Vila dos Operários" }, "geometry": { "type": "Point", "coordinates": [ -52.104243239651609, -32.044021808076458 ] } },
{ "type": "Feature", "properties": { "Label": "PRS/03-0007.00355", "ENDEREÇO": "RIO GRANDE, RS, Corredor Rheingantz, 199", "COMPLEMENT": "Casa 21", "Tipologia": "6- Arquitetura Civil Privada", "Nome": "Vila dos Operários" }, "geometry": { "type": "Point", "coordinates": [ -52.104297372461062, -32.044053385619961 ] } },
{ "type": "Feature", "properties": { "Label": "PRS/03-0007.00356", "ENDEREÇO": "RIO GRANDE, RS, Corredor Rheingantz, 199", "COMPLEMENT": "Casa 22", "Tipologia": "6- Arquitetura Civil Privada", "Nome": "Vila dos Operários" }, "geometry": { "type": "Point", "coordinates": [ -52.10434066407592, -32.044077426847593 ] } },
{ "type": "Feature", "properties": { "Label": "PRS/03-0007.00357", "ENDEREÇO": "RIO GRANDE, RS, Corredor Rheingantz, 199", "COMPLEMENT": "Casa 23", "Tipologia": "6- Arquitetura Civil Privada", "Nome": "Vila dos Operários" }, "geometry": { "type": "Point", "coordinates": [ -52.104380537430863, -32.044115233161158 ] } },
{ "type": "Feature", "properties": { "Label": "PRS/03-0007.00358", "ENDEREÇO": "RIO GRANDE, RS, Corredor Rheingantz, 199", "COMPLEMENT": "Casa 24", "Tipologia": "6- Arquitetura Civil Privada", "Nome": "Vila dos Operários" }, "geometry": { "type": "Point", "coordinates": [ -52.104418545914143, -32.044146951120773 ] } },
{ "type": "Feature", "properties": { "Label": "PRS/03-0007.00359", "ENDEREÇO": "RIO GRANDE, RS, Corredor Rheingantz, 199", "COMPLEMENT": "Casa 25", "Tipologia": "6- Arquitetura Civil Privada", "Nome": "Vila dos Operários" }, "geometry": { "type": "Point", "coordinates": [ -52.104460174283048, -32.044181689824548 ] } },
{ "type": "Feature", "properties": { "Label": "PRS/03-0007.00360", "ENDEREÇO": "RIO GRANDE, RS, Corredor Rheingantz, 199", "COMPLEMENT": "Casa 26", "Tipologia": "6- Arquitetura Civil Privada", "Nome": "Vila dos Operários" }, "geometry": { "type": "Point", "coordinates": [ -52.104507122515905, -32.04421180372298 ] } },
{ "type": "Feature", "properties": { "Label": "PRS/03-0007.00361", "ENDEREÇO": "RIO GRANDE, RS, Corredor Rheingantz, 199", "COMPLEMENT": "Casa 27", "Tipologia": "6- Arquitetura Civil Privada", "Nome": "Vila dos Operários" }, "geometry": { "type": "Point", "coordinates": [ -52.104552279174449, -32.044241933213655 ] } },
{ "type": "Feature", "properties": { "Label": "PRS/03-0007.00362", "ENDEREÇO": "RIO GRANDE, RS, Corredor Rheingantz, 199", "COMPLEMENT": "Casa 28", "Tipologia": "6- Arquitetura Civil Privada", "Nome": "Vila dos Operários" }, "geometry": { "type": "Point", "coordinates": [ -52.10459564425701, -32.044272078298498 ] } },
{ "type": "Feature", "properties": { "Label": "PRS/03-0007.00363", "ENDEREÇO": "RIO GRANDE, RS, Corredor Rheingantz, 199", "COMPLEMENT": "Casa 29", "Tipologia": "6- Arquitetura Civil Privada", "Nome": "Vila dos Operários" }, "geometry": { "type": "Point", "coordinates": [ -52.104635352839765, -32.044296150642701 ] } },
{ "type": "Feature", "properties": { "Label": "PRS/03-0007.00364", "ENDEREÇO": "RIO GRANDE, RS, Corredor Rheingantz, 199", "COMPLEMENT": "Casa 30", "Tipologia": "6- Arquitetura Civil Privada", "Nome": "Vila dos Operários" }, "geometry": { "type": "Point", "coordinates": [ -52.104680527911007, -32.044327806072481 ] } },
{ "type": "Feature", "properties": { "Label": "PRS/03-0007.00365", "ENDEREÇO": "RIO GRANDE, RS, Corredor Rheingantz, 199", "COMPLEMENT": "Casa 31", "Tipologia": "6- Arquitetura Civil Privada", "Nome": "Vila dos Operários" }, "geometry": { "type": "Point", "coordinates": [ -52.104719450719109, -32.044361042117451 ] } },
{ "type": "Feature", "properties": { "Label": "PRS/03-0007.00366", "ENDEREÇO": "RIO GRANDE, RS, Corredor Rheingantz, 199", "COMPLEMENT": "Casa 32", "Tipologia": "6- Arquitetura Civil Privada", "Nome": "Vila dos Operários" }, "geometry": { "type": "Point", "coordinates": [ -52.104761042635673, -32.04439272874253 ] } },
{ "type": "Feature", "properties": { "Label": "PRS/03-0007.00367", "ENDEREÇO": "RIO GRANDE, RS, Corredor Rheingantz, 199", "COMPLEMENT": "Casa 33", "Tipologia": "6- Arquitetura Civil Privada", "Nome": "Vila dos Operários" }, "geometry": { "type": "Point", "coordinates": [ -52.104804407857102, -32.044422873752133 ] } },
{ "type": "Feature", "properties": { "Label": "PRS/03-0007.00368", "ENDEREÇO": "RIO GRANDE, RS, Corredor Rheingantz, 199", "COMPLEMENT": "Casa 34", "Tipologia": "6- Arquitetura Civil Privada", "Nome": "Vila dos Operários" }, "geometry": { "type": "Point", "coordinates": [ -52.104851392989815, -32.044456039490555 ] } },
{ "type": "Feature", "properties": { "Label": "PRS/03-0007.00369", "ENDEREÇO": "RIO GRANDE, RS, Corredor Rheingantz, 199", "COMPLEMENT": "Casa 35", "Tipologia": "6- Arquitetura Civil Privada", "Nome": "Vila dos Operários" }, "geometry": { "type": "Point", "coordinates": [ -52.104922035757667, -32.04451952194583 ] } },
{ "type": "Feature", "properties": { "Label": "PRS/03-0007.00370", "ENDEREÇO": "RIO GRANDE, RS, Corredor Rheingantz, 199", "COMPLEMENT": "Casa 36", "Tipologia": "6- Arquitetura Civil Privada", "Nome": "Vila dos Operários" }, "geometry": { "type": "Point", "coordinates": [ -52.104867302501397, -32.04458714944662 ] } },
{ "type": "Feature", "properties": { "Label": "PRS/03-0007.00371", "ENDEREÇO": "RIO GRANDE, RS, Corredor Rheingantz, 199", "COMPLEMENT": "Casa 37", "Tipologia": "6- Arquitetura Civil Privada", "Nome": "Vila dos Operários" }, "geometry": { "type": "Point", "coordinates": [ -52.104817559025051, -32.044622684356703 ] } },
{ "type": "Feature", "properties": { "Label": "PRS/03-0007.00372", "ENDEREÇO": "RIO GRANDE, RS, Corredor Rheingantz, 199", "COMPLEMENT": "Casa 38", "Tipologia": "6- Arquitetura Civil Privada", "Nome": "Vila dos Operários" }, "geometry": { "type": "Point", "coordinates": [ -52.104766353863873, -32.044685702626374 ] } },
{ "type": "Feature", "properties": { "Label": "PRS/03-0007.00373", "ENDEREÇO": "RIO GRANDE, RS, Corredor Rheingantz, 199", "COMPLEMENT": "Casa 39", "Tipologia": "6- Arquitetura Civil Privada", "Nome": "Vila dos Operários" }, "geometry": { "type": "Point", "coordinates": [ -52.104722076791276, -32.044728820594081 ] } },
{ "type": "Feature", "properties": { "Label": "PRS/03-0007.00374", "ENDEREÇO": "RIO GRANDE, RS, Rua Riachuelo", "COMPLEMENT": null, "Tipologia": "3- Arquitetura Civil Oficial", "Nome": "Cais do Porto Velho" }, "geometry": { "type": "Point", "coordinates": [ -52.0915477, -32.030311 ] } },
{ "type": "Feature", "properties": { "Label": "PRS/03-0007.00375", "ENDEREÇO": "RIO GRANDE, RS, Rua Riachuelo", "COMPLEMENT": null, "Tipologia": "3- Arquitetura Civil Oficial", "Nome": "Armazéns do Porto Velho" }, "geometry": { "type": "Point", "coordinates": [ -52.092195300131451, -32.029989680425295 ] } },
{ "type": "Feature", "properties": { "Label": "PRS/03-0007.00377", "ENDEREÇO": "RIO GRANDE, RS, Rua Riachuelo, 109", "COMPLEMENT": null, "Tipologia": "Arquitetura Eclética", "Nome": null }, "geometry": { "type": "Point", "coordinates": [ -52.0903392, -32.0306429 ] } },
{ "type": "Feature", "properties": { "Label": "PRS/03-0007.00381", "ENDEREÇO": "RIO GRANDE, RS, R. Riachuelo, 201", "COMPLEMENT": null, "Tipologia": "6- Arquitetura Civil Privada", "Nome": null }, "geometry": { "type": "Point", "coordinates": [ -52.0919386, -32.0303503 ] } },
{ "type": "Feature", "properties": { "Label": "PRS/03-0007.00385", "ENDEREÇO": "RIO GRANDE, RS, Rua Coronel Sampaio, 244", "COMPLEMENT": null, "Tipologia": "6- Arquitetura Civil Privada", "Nome": null }, "geometry": { "type": "Point", "coordinates": [ -52.0892753, -32.0350914 ] } },
{ "type": "Feature", "properties": { "Label": "PRS/03-0007.00386", "ENDEREÇO": "RIO GRANDE, RS, Praça Sete de Setembro, 187", "COMPLEMENT": null, "Tipologia": "1- Arquitetura Religiosa", "Nome": "Igreja Nossa Senhora da Conceição" }, "geometry": { "type": "Point", "coordinates": [ -52.091352282038272, -32.033542910679131 ] } },
{ "type": "Feature", "properties": { "Label": "PRS/03-0007.00389", "ENDEREÇO": "RIO GRANDE, RS, Avenida Silva Paes, 403", "COMPLEMENT": null, "Tipologia": "6- Arquitetura Civil Privada", "Nome": null }, "geometry": { "type": "Point", "coordinates": [ -52.096897658688853, -32.033123166718767 ] } },
{ "type": "Feature", "properties": { "Label": "PRS/03-0007.00400", "ENDEREÇO": "RIO GRANDE, RS, Avenida Silva Paes, 387", "COMPLEMENT": null, "Tipologia": "6- Arquitetura Civil Privada", "Nome": null }, "geometry": { "type": "Point", "coordinates": [ -52.0963647, -32.0331977 ] } },
{ "type": "Feature", "properties": { "Label": "PRS/03-0007.00401", "ENDEREÇO": "RIO GRANDE, RS, Praça Tamandaré", "COMPLEMENT": null, "Tipologia": "3- Arquitetura Civil Oficial", "Nome": "Coreto da Praça Tamandaré" }, "geometry": { "type": "Point", "coordinates": [ -52.098924310887433, -32.032637605166421 ] } },
{ "type": "Feature", "properties": { "Label": "PRS/03-0007.00402", "ENDEREÇO": "RIO GRANDE, RS, Praça Tamandaré", "COMPLEMENT": null, "Tipologia": "3- Arquitetura Civil Oficial", "Nome": "Praça Tamandaré" }, "geometry": { "type": "Point", "coordinates": [ -52.09922790000001, -32.0335309 ] } },
{ "type": "Feature", "properties": { "Label": "PRS/03-0007.00421", "ENDEREÇO": "RIO GRANDE, RS, Avenida Comendador Vasco Vieira da Fonseca", "COMPLEMENT": null, "Tipologia": "6- Arquitetura Civil Privada", "Nome": "Mirante do Entreposto de Pesca" }, "geometry": { "type": "Point", "coordinates": [ -52.101783595329252, -32.02759519317236 ] } },
{ "type": "Feature", "properties": { "Label": "PRS/03-0007.00422", "ENDEREÇO": "RIO GRANDE, RS, Rua Vinte e Quatro de Maio, 182", "COMPLEMENT": null, "Tipologia": "6- Arquitetura Civil Privada", "Nome": null }, "geometry": { "type": "Point", "coordinates": [ -52.099766930648101, -32.03191963609104 ] } },
{ "type": "Feature", "properties": { "Label": "PRS/03-0007.00440", "ENDEREÇO": "RIO GRANDE, RS, Rua Zalony, 319", "COMPLEMENT": null, "Tipologia": "6- Arquitetura Civil Privada", "Nome": null }, "geometry": { "type": "Point", "coordinates": [ -52.095167103230274, -32.035171178415425 ] } },
{ "type": "Feature", "properties": { "Label": "PRS/03-0007.00382", "ENDEREÇO": "Rua Riachuelo, 227", "COMPLEMENT": null, "Tipologia": "Arquitetura Eclética", "Nome": null }, "geometry": { "type": "Point", "coordinates": [ -52.092208074951422, -32.030308863848312 ] } }
]
}
