{
"type": "FeatureCollection",
"name": "patrimonio_ATINGIDOS_rio_grande___nivel_da_lagoa_16_05_2024",
"crs": { "type": "name", "properties": { "name": "urn:ogc:def:crs:OGC:1.3:CRS84" } },
"features": [
{ "type": "Feature", "properties": { "Label": "PRS/03-0007.00002", "ENDEREÇO": "RIO GRANDE, RS, Rua General Abreu,  82", "COMPLEMENT": null, "Tipologia": "6- Arquitetura Civil Privada", "Nome": null }, "geometry": { "type": "Point", "coordinates": [ -52.1058655, -32.0401491 ] } },
{ "type": "Feature", "properties": { "Label": "PRS/03-0007.00054", "ENDEREÇO": "RIO GRANDE, RS, Rua General Bacelar, 122", "COMPLEMENT": null, "Tipologia": "6- Arquitetura Civil Privada", "Nome": null }, "geometry": { "type": "Point", "coordinates": [ -52.090862781898586, -32.032120284876825 ] } },
{ "type": "Feature", "properties": { "Label": "PRS/03-0007.00074", "ENDEREÇO": "RIO GRANDE, RS, Avenida Major Carlos Pinto", "COMPLEMENT": "sem nº", "Tipologia": "3- Arquitetura Civil Oficial", "Nome": "Canalete da Avenida Major Carlos Pinto" }, "geometry": { "type": "Point", "coordinates": [ -52.1054357, -32.0364277 ] } },
{ "type": "Feature", "properties": { "Label": "PRS/03-0007.00090", "ENDEREÇO": "RIO GRANDE, RS, Rua Almirante Cerqueira e Souza, 167", "COMPLEMENT": null, "Tipologia": "4- Arquitetura Militar", "Nome": "Hotel de Trânsito de Oficiais- Vila da Marinha" }, "geometry": { "type": "Point", "coordinates": [ -52.08323116059799, -32.031403719717723 ] } },
{ "type": "Feature", "properties": { "Label": "PRS/03-0007.00091", "ENDEREÇO": "RIO GRANDE, RS, Rua Almirante Cerqueira e Souza,179", "COMPLEMENT": null, "Tipologia": "4- Arquitetura Militar", "Nome": "Museu Naval - Vila da Marinha" }, "geometry": { "type": "Point", "coordinates": [ -52.083488862812878, -32.031402516326324 ] } },
{ "type": "Feature", "properties": { "Label": "PRS/03-0007.00117", "ENDEREÇO": "RIO GRANDE, RS, Rua Doutor Fernando Duprat da Silva, 65", "COMPLEMENT": "/67", "Tipologia": "6- Arquitetura Civil Privada", "Nome": null }, "geometry": { "type": "Point", "coordinates": [ -52.091180704113548, -32.031670147734559 ] } },
{ "type": "Feature", "properties": { "Label": "PRS/03-0007.00127", "ENDEREÇO": "RIO GRANDE, RS, Rua Marechal Floriano Peixoto, 125", "COMPLEMENT": null, "Tipologia": "6- Arquitetura Civil Privada", "Nome": null }, "geometry": { "type": "Point", "coordinates": [ -52.0905384, -32.0316137 ] } },
{ "type": "Feature", "properties": { "Label": "PRS/03-0007.00130", "ENDEREÇO": "RIO GRANDE, RS, Rua Marechal Floriano Peixoto, 145", "COMPLEMENT": "145/147", "Tipologia": "Arquitetura Eclética", "Nome": null }, "geometry": { "type": "Point", "coordinates": [ -52.0909813, -32.0314918 ] } },
{ "type": "Feature", "properties": { "Label": "PRS/03-0007.00149", "ENDEREÇO": "RIO GRANDE, RS, Rua Marechal Floriano Peixoto, 554", "COMPLEMENT": null, "Tipologia": "6- Arquitetura Civil Privada", "Nome": null }, "geometry": { "type": "Point", "coordinates": [ -52.100034, -32.031169 ] } },
{ "type": "Feature", "properties": { "Label": "PRS/03-0007.00153", "ENDEREÇO": "RIO GRANDE, RS, Rua Marechal Floriano Peixoto, 593", "COMPLEMENT": null, "Tipologia": "Arquitetura Eclética", "Nome": null }, "geometry": { "type": "Point", "coordinates": [ -52.1007431, -32.031615 ] } },
{ "type": "Feature", "properties": { "Label": "PRS/03-0007.00164", "ENDEREÇO": "RIO GRANDE, RS, Rua Marechal Floriano Peixoto, 587", "COMPLEMENT": null, "Tipologia": "6- Arquitetura Civil Privada", "Nome": null }, "geometry": { "type": "Point", "coordinates": [ -52.1005826, -32.031541 ] } },
{ "type": "Feature", "properties": { "Label": "PRS/03-0007.00272", "ENDEREÇO": "RIO GRANDE, RS, Rua Conselheiro Pinto Lima, 51", "COMPLEMENT": null, "Tipologia": "6- Arquitetura Civil Privada", "Nome": null }, "geometry": { "type": "Point", "coordinates": [ -52.099122, -32.0310095 ] } },
{ "type": "Feature", "properties": { "Label": "PRS/03-0007.00337", "ENDEREÇO": "RIO GRANDE, RS, Corredor Rheingantz, 199", "COMPLEMENT": "Casa 3", "Tipologia": "6- Arquitetura Civil Privada", "Nome": "Vila dos Operários" }, "geometry": { "type": "Point", "coordinates": [ -52.104831758035445, -32.04429936094693 ] } },
{ "type": "Feature", "properties": { "Label": "PRS/03-0007.00338", "ENDEREÇO": "RIO GRANDE, RS, Corredor Rheingantz, 199", "COMPLEMENT": "Casa 4", "Tipologia": "6- Arquitetura Civil Privada", "Nome": "Vila dos Operários" }, "geometry": { "type": "Point", "coordinates": [ -52.104805234186841, -32.04427722709098 ] } },
{ "type": "Feature", "properties": { "Label": "PRS/03-0007.00341", "ENDEREÇO": "RIO GRANDE, RS, Corredor Rheingantz, 199", "COMPLEMENT": "Casa 7", "Tipologia": "6- Arquitetura Civil Privada", "Nome": "Vila dos Operários" }, "geometry": { "type": "Point", "coordinates": [ -52.104719166078809, -32.044216473356499 ] } },
{ "type": "Feature", "properties": { "Label": "PRS/03-0007.00342", "ENDEREÇO": "RIO GRANDE, RS, Corredor Rheingantz, 199", "COMPLEMENT": "Casa 8", "Tipologia": "6- Arquitetura Civil Privada", "Nome": "Vila dos Operários" }, "geometry": { "type": "Point", "coordinates": [ -52.10468775301289, -32.044197177708696 ] } },
{ "type": "Feature", "properties": { "Label": "PRS/03-0007.00344", "ENDEREÇO": "RIO GRANDE, RS, Corredor Rheingantz, 199", "COMPLEMENT": "Casa 10", "Tipologia": "6- Arquitetura Civil Privada", "Nome": "Vila dos Operários" }, "geometry": { "type": "Point", "coordinates": [ -52.104629749038146, -32.044150157488609 ] } },
{ "type": "Feature", "properties": { "Label": "PRS/03-0007.00345", "ENDEREÇO": "RIO GRANDE, RS, Corredor Rheingantz, 199", "COMPLEMENT": "Casa 11", "Tipologia": "6- Arquitetura Civil Privada", "Nome": "Vila dos Operários" }, "geometry": { "type": "Point", "coordinates": [ -52.104603242068173, -32.044129421255171 ] } },
{ "type": "Feature", "properties": { "Label": "PRS/03-0007.00348", "ENDEREÇO": "RIO GRANDE, RS, Corredor Rheingantz, 199", "COMPLEMENT": "Casa 14", "Tipologia": "6- Arquitetura Civil Privada", "Nome": "Vila dos Operários" }, "geometry": { "type": "Point", "coordinates": [ -52.104526986336289, -32.044065786257505 ] } },
{ "type": "Feature", "properties": { "Label": "PRS/03-0007.00349", "ENDEREÇO": "RIO GRANDE, RS, Corredor Rheingantz, 199", "COMPLEMENT": "Casa 15", "Tipologia": "6- Arquitetura Civil Privada", "Nome": "Vila dos Operários" }, "geometry": { "type": "Point", "coordinates": [ -52.104492190757433, -32.044038133148888 ] } },
{ "type": "Feature", "properties": { "Label": "PRS/03-0007.00374", "ENDEREÇO": "RIO GRANDE, RS, Rua Riachuelo", "COMPLEMENT": null, "Tipologia": "3- Arquitetura Civil Oficial", "Nome": "Cais do Porto Velho" }, "geometry": { "type": "Point", "coordinates": [ -52.0915477, -32.030311 ] } },
{ "type": "Feature", "properties": { "Label": "PRS/03-0007.00392", "ENDEREÇO": "RIO GRANDE, RS, Avenida Silva Paes, 20", "COMPLEMENT": "B", "Tipologia": "6- Arquitetura Civil Privada", "Nome": null }, "geometry": { "type": "Point", "coordinates": [ -52.088545971985916, -32.034447062360528 ] } },
{ "type": "Feature", "properties": { "Label": "PRS/03-0007.00421", "ENDEREÇO": "RIO GRANDE, RS, Avenida Comendador Vasco Vieira da Fonseca", "COMPLEMENT": null, "Tipologia": "6- Arquitetura Civil Privada", "Nome": "Mirante do Entreposto de Pesca" }, "geometry": { "type": "Point", "coordinates": [ -52.101783595329252, -32.02759519317236 ] } }
]
}
