{
"type": "FeatureCollection",
"name": "patrimonio_ATINGIDOS_rio_grande___cenario_maio_2024",
"crs": { "type": "name", "properties": { "name": "urn:ogc:def:crs:OGC:1.3:CRS84" } },
"features": [
{ "type": "Feature", "properties": { "Label": "PRS/03-0007.00019", "ENDEREÇO": "RIO GRANDE, RS, Rua Andrade Neves, 335", "COMPLEMENT": null, "Tipologia": "6- Arquitetura Civil Privada", "Nome": null }, "geometry": { "type": "Point", "coordinates": [ -52.0921035, -32.0359858 ] } },
{ "type": "Feature", "properties": { "Label": "PRS/03-0007.00020", "ENDEREÇO": "RIO GRANDE, RS, Rua Marechal Andrea, 267", "COMPLEMENT": null, "Tipologia": "Arquitetura Mista", "Nome": "Sobrado da Macega" }, "geometry": { "type": "Point", "coordinates": [ -52.0860249, -32.0315756 ] } },
{ "type": "Feature", "properties": { "Label": "PRS/03-0007.00022", "ENDEREÇO": "RIO GRANDE, RS, Rua Aquidaban, 668", "COMPLEMENT": "668/670", "Tipologia": "6- Arquitetura Civil Privada", "Nome": null }, "geometry": { "type": "Point", "coordinates": [ -52.1033136, -32.0319823 ] } },
{ "type": "Feature", "properties": { "Label": "PRS/03-0007.00023", "ENDEREÇO": "RIO GRANDE, RS, Rua Aquidaban, 679", "COMPLEMENT": null, "Tipologia": "6- Arquitetura Civil Privada", "Nome": null }, "geometry": { "type": "Point", "coordinates": [ -52.1034545, -32.0322324 ] } },
{ "type": "Feature", "properties": { "Label": "PRS/03-0007.00025", "ENDEREÇO": "RIO GRANDE, RS, Rua Aquidaban, 685", "COMPLEMENT": null, "Tipologia": "6- Arquitetura Civil Privada", "Nome": null }, "geometry": { "type": "Point", "coordinates": [ -52.103606199999987, -32.0322508 ] } },
{ "type": "Feature", "properties": { "Label": "PRS/03-0007.00026", "ENDEREÇO": "RIO GRANDE, RS, Rua Aquidaban, 700", "COMPLEMENT": "700/702/704", "Tipologia": "6- Arquitetura Civil Privada", "Nome": null }, "geometry": { "type": "Point", "coordinates": [ -52.1043183, -32.0320411 ] } },
{ "type": "Feature", "properties": { "Label": "PRS/03-0007.00030", "ENDEREÇO": "RIO GRANDE, RS, Rua General Bacelar, 125", "COMPLEMENT": null, "Tipologia": "6- Arquitetura Civil Privada", "Nome": null }, "geometry": { "type": "Point", "coordinates": [ -52.0908419, -32.0322378 ] } },
{ "type": "Feature", "properties": { "Label": "PRS/03-0007.00031", "ENDEREÇO": "RIO GRANDE, RS, Rua General Bacelar, 98", "COMPLEMENT": "98A", "Tipologia": "6- Arquitetura Civil Privada", "Nome": null }, "geometry": { "type": "Point", "coordinates": [ -52.089988540688353, -32.032199084866441 ] } },
{ "type": "Feature", "properties": { "Label": "PRS/03-0007.00053", "ENDEREÇO": "RIO GRANDE, RS, Rua General Bacelar, 105", "COMPLEMENT": null, "Tipologia": "Arquitetura Luso Brasileira", "Nome": null }, "geometry": { "type": "Point", "coordinates": [ -52.09033035679488, -32.032300187802029 ] } },
{ "type": "Feature", "properties": { "Label": "PRS/03-0007.00054", "ENDEREÇO": "RIO GRANDE, RS, Rua General Bacelar, 122", "COMPLEMENT": null, "Tipologia": "6- Arquitetura Civil Privada", "Nome": null }, "geometry": { "type": "Point", "coordinates": [ -52.090862781898586, -32.032120284876825 ] } },
{ "type": "Feature", "properties": { "Label": "PRS/03-0007.00055", "ENDEREÇO": "RIO GRANDE, RS, Rua General Bacelar, 141", "COMPLEMENT": "141/145", "Tipologia": "6- Arquitetura Civil Privada", "Nome": null }, "geometry": { "type": "Point", "coordinates": [ -52.091182783583122, -32.032218562397084 ] } },
{ "type": "Feature", "properties": { "Label": "PRS/03-0007.00056", "ENDEREÇO": "RIO GRANDE, RS, Rua Almirante Barroso, 2", "COMPLEMENT": null, "Tipologia": "6- Arquitetura Civil Privada", "Nome": null }, "geometry": { "type": "Point", "coordinates": [ -52.0884726, -32.0309633 ] } },
{ "type": "Feature", "properties": { "Label": "PRS/03-0007.00066", "ENDEREÇO": "RIO GRANDE, RS, Rua General Canabarro, 186", "COMPLEMENT": "186/188", "Tipologia": "6- Arquitetura Civil Privada", "Nome": null }, "geometry": { "type": "Point", "coordinates": [ -52.1030149, -32.0316599 ] } },
{ "type": "Feature", "properties": { "Label": "PRS/03-0007.00068", "ENDEREÇO": "RIO GRANDE, RS, Rua General Canabarro, 194", "COMPLEMENT": null, "Tipologia": "6- Arquitetura Civil Privada", "Nome": null }, "geometry": { "type": "Point", "coordinates": [ -52.1029206, -32.0318371 ] } },
{ "type": "Feature", "properties": { "Label": "PRS/03-0007.00090", "ENDEREÇO": "RIO GRANDE, RS, Rua Almirante Cerqueira e Souza, 167", "COMPLEMENT": null, "Tipologia": "4- Arquitetura Militar", "Nome": "Hotel de Trânsito de Oficiais- Vila da Marinha" }, "geometry": { "type": "Point", "coordinates": [ -52.08323116059799, -32.031403719717723 ] } },
{ "type": "Feature", "properties": { "Label": "PRS/03-0007.00091", "ENDEREÇO": "RIO GRANDE, RS, Rua Almirante Cerqueira e Souza,179", "COMPLEMENT": null, "Tipologia": "4- Arquitetura Militar", "Nome": "Museu Naval - Vila da Marinha" }, "geometry": { "type": "Point", "coordinates": [ -52.083488862812878, -32.031402516326324 ] } },
{ "type": "Feature", "properties": { "Label": "PRS/03-0007.00095", "ENDEREÇO": "RIO GRANDE, RS, Rua General Câmara, 96", "COMPLEMENT": "96A", "Tipologia": "6- Arquitetura Civil Privada", "Nome": null }, "geometry": { "type": "Point", "coordinates": [ -52.0907586, -32.0354525 ] } },
{ "type": "Feature", "properties": { "Label": "PRS/03-0007.00096", "ENDEREÇO": "RIO GRANDE, RS, Rua General Câmara, 133", "COMPLEMENT": null, "Tipologia": "6- Arquitetura Civil Privada", "Nome": null }, "geometry": { "type": "Point", "coordinates": [ -52.091822699999987, -32.0356265 ] } },
{ "type": "Feature", "properties": { "Label": "PRS/03-0007.00100", "ENDEREÇO": "RIO GRANDE, RS, Rua Senador Corrêa, 395", "COMPLEMENT": null, "Tipologia": "6- Arquitetura Civil Privada", "Nome": null }, "geometry": { "type": "Point", "coordinates": [ -52.0982221, -32.0402002 ] } },
{ "type": "Feature", "properties": { "Label": "PRS/03-0007.00101", "ENDEREÇO": "RIO GRANDE, RS, Rua Barão de Cotegipe, 105", "COMPLEMENT": "105/107/115", "Tipologia": "6- Arquitetura Civil Privada", "Nome": null }, "geometry": { "type": "Point", "coordinates": [ -52.092073600000013, -32.0385323 ] } },
{ "type": "Feature", "properties": { "Label": "PRS/03-0007.00116", "ENDEREÇO": "RIO GRANDE, RS, Rua Doutor Fernando Duprat da Silva,10", "COMPLEMENT": null, "Tipologia": "6- Arquitetura Civil Privada", "Nome": null }, "geometry": { "type": "Point", "coordinates": [ -52.090981585693143, -32.03056337428481 ] } },
{ "type": "Feature", "properties": { "Label": "PRS/03-0007.00117", "ENDEREÇO": "RIO GRANDE, RS, Rua Doutor Fernando Duprat da Silva, 65", "COMPLEMENT": "/67", "Tipologia": "6- Arquitetura Civil Privada", "Nome": null }, "geometry": { "type": "Point", "coordinates": [ -52.091180704113548, -32.031670147734559 ] } },
{ "type": "Feature", "properties": { "Label": "PRS/03-0007.00118", "ENDEREÇO": "RIO GRANDE, RS, Rua Doutor Fernando Duprat da Silva, 94", "COMPLEMENT": null, "Tipologia": "6- Arquitetura Civil Privada", "Nome": null }, "geometry": { "type": "Point", "coordinates": [ -52.0914419, -32.031923 ] } },
{ "type": "Feature", "properties": { "Label": "PRS/03-0007.00119", "ENDEREÇO": "RIO GRANDE, RS, Rua Marechal Floriano Peixoto, 33", "COMPLEMENT": null, "Tipologia": "6- Arquitetura Civil Privada", "Nome": "Prédio São José do Norte" }, "geometry": { "type": "Point", "coordinates": [ -52.088820408713097, -32.031982813545916 ] } },
{ "type": "Feature", "properties": { "Label": "PRS/03-0007.00120", "ENDEREÇO": "RIO GRANDE, RS, Rua Marechal Floriano Peixoto, 45", "COMPLEMENT": null, "Tipologia": "8- Arquitetura Mista", "Nome": null }, "geometry": { "type": "Point", "coordinates": [ -52.0893025, -32.031855 ] } },
{ "type": "Feature", "properties": { "Label": "PRS/03-0007.00121", "ENDEREÇO": "RIO GRANDE, RS, Rua Marechal Floriano Peixoto, 72", "COMPLEMENT": null, "Tipologia": "6- Arquitetura Civil Privada", "Nome": null }, "geometry": { "type": "Point", "coordinates": [ -52.089967599999987, -32.0315534 ] } },
{ "type": "Feature", "properties": { "Label": "PRS/03-0007.00122", "ENDEREÇO": "RIO GRANDE, RS, Rua Marechal Floriano Peixoto, 91", "COMPLEMENT": null, "Tipologia": "6- Arquitetura Civil Privada", "Nome": "Centro Municipal de Cultura" }, "geometry": { "type": "Point", "coordinates": [ -52.0897438, -32.0319738 ] } },
{ "type": "Feature", "properties": { "Label": "PRS/03-0007.00123", "ENDEREÇO": "RIO GRANDE, RS, Rua Marechal Floriano Peixoto, 101", "COMPLEMENT": "101/103", "Tipologia": "8- Arquitetura Mista", "Nome": "Sobrado dos Azulejos" }, "geometry": { "type": "Point", "coordinates": [ -52.090154495581245, -32.031749149395758 ] } },
{ "type": "Feature", "properties": { "Label": "PRS/03-0007.00124", "ENDEREÇO": "RIO GRANDE, RS, Rua Marechal Floriano Peixoto, 105", "COMPLEMENT": null, "Tipologia": "6- Arquitetura Civil Privada", "Nome": null }, "geometry": { "type": "Point", "coordinates": [ -52.090250641529835, -32.0317288394874 ] } },
{ "type": "Feature", "properties": { "Label": "PRS/03-0007.00125", "ENDEREÇO": "RIO GRANDE, RS, Rua Marechal Floriano Peixoto, 113", "COMPLEMENT": "113/117", "Tipologia": "Arquitetura Mista", "Nome": "Antigo Hotel Gaúcho" }, "geometry": { "type": "Point", "coordinates": [ -52.090455753954075, -32.031667234297835 ] } },
{ "type": "Feature", "properties": { "Label": "PRS/03-0007.00126", "ENDEREÇO": "RIO GRANDE, RS, Rua Marechal Floriano Peixoto, 122", "COMPLEMENT": null, "Tipologia": "6- Arquitetura Civil Privada", "Nome": null }, "geometry": { "type": "Point", "coordinates": [ -52.09069190000001, -32.0311969 ] } },
{ "type": "Feature", "properties": { "Label": "PRS/03-0007.00127", "ENDEREÇO": "RIO GRANDE, RS, Rua Marechal Floriano Peixoto, 125", "COMPLEMENT": null, "Tipologia": "6- Arquitetura Civil Privada", "Nome": null }, "geometry": { "type": "Point", "coordinates": [ -52.0905384, -32.0316137 ] } },
{ "type": "Feature", "properties": { "Label": "PRS/03-0007.00128", "ENDEREÇO": "RIO GRANDE, RS, Rua Marechal Floriano Peixoto, 129", "COMPLEMENT": null, "Tipologia": "6- Arquitetura Civil Privada", "Nome": null }, "geometry": { "type": "Point", "coordinates": [ -52.090685699999987, -32.0316096 ] } },
{ "type": "Feature", "properties": { "Label": "PRS/03-0007.00129", "ENDEREÇO": "RIO GRANDE, RS, Rua Marechal Floriano Peixoto, 132", "COMPLEMENT": null, "Tipologia": "Arquitetura Eclética", "Nome": null }, "geometry": { "type": "Point", "coordinates": [ -52.0908385, -32.0312149 ] } },
{ "type": "Feature", "properties": { "Label": "PRS/03-0007.00130", "ENDEREÇO": "RIO GRANDE, RS, Rua Marechal Floriano Peixoto, 145", "COMPLEMENT": "145/147", "Tipologia": "Arquitetura Eclética", "Nome": null }, "geometry": { "type": "Point", "coordinates": [ -52.0909813, -32.0314918 ] } },
{ "type": "Feature", "properties": { "Label": "PRS/03-0007.00131", "ENDEREÇO": "RIO GRANDE, RS, Rua Marechal Floriano Peixoto, 171", "COMPLEMENT": null, "Tipologia": "8- Arquitetura Mista", "Nome": null }, "geometry": { "type": "Point", "coordinates": [ -52.091562103000705, -32.031387648982673 ] } },
{ "type": "Feature", "properties": { "Label": "PRS/03-0007.00132", "ENDEREÇO": "RIO GRANDE, RS, Rua Marechal Floriano Peixoto, 172", "COMPLEMENT": null, "Tipologia": "Arquitetura Eclética", "Nome": null }, "geometry": { "type": "Point", "coordinates": [ -52.091517399999987, -32.0311934 ] } },
{ "type": "Feature", "properties": { "Label": "PRS/03-0007.00133", "ENDEREÇO": "RIO GRANDE, RS, Rua Marechal Floriano Peixoto, 175", "COMPLEMENT": "175/177", "Tipologia": "Arquitetura Eclética", "Nome": null }, "geometry": { "type": "Point", "coordinates": [ -52.0916074, -32.0313549 ] } },
{ "type": "Feature", "properties": { "Label": "PRS/03-0007.00135", "ENDEREÇO": "RIO GRANDE, RS, Rua Marechal Floriano Peixoto, 284", "COMPLEMENT": "284/286/288", "Tipologia": "Arquitetura Eclética", "Nome": "Sindicato dos Despachantes Aduaneiros" }, "geometry": { "type": "Point", "coordinates": [ -52.093747644919731, -32.030902873259613 ] } },
{ "type": "Feature", "properties": { "Label": "PRS/03-0007.00142", "ENDEREÇO": "RIO GRANDE, RS, Rua Marechal Floriano Peixoto, 458", "COMPLEMENT": null, "Tipologia": "Arquitetura Eclética", "Nome": null }, "geometry": { "type": "Point", "coordinates": [ -52.0980237, -32.0308421 ] } },
{ "type": "Feature", "properties": { "Label": "PRS/03-0007.00144", "ENDEREÇO": "RIO GRANDE, RS, Rua Marechal Floriano Peixoto, 470", "COMPLEMENT": null, "Tipologia": "Arquitetura Eclética", "Nome": "Clube Caixeral" }, "geometry": { "type": "Point", "coordinates": [ -52.098221, -32.0306616 ] } },
{ "type": "Feature", "properties": { "Label": "PRS/03-0007.00146", "ENDEREÇO": "RIO GRANDE, RS, Rua Marechal Floriano Peixoto, 482", "COMPLEMENT": "482/484/486/488", "Tipologia": "6- Arquitetura Civil Privada", "Nome": null }, "geometry": { "type": "Point", "coordinates": [ -52.0985543, -32.0308501 ] } },
{ "type": "Feature", "properties": { "Label": "PRS/03-0007.00148", "ENDEREÇO": "RIO GRANDE, RS, Rua Marechal Floriano Peixoto, 518", "COMPLEMENT": null, "Tipologia": "6- Arquitetura Civil Privada", "Nome": "Ministério Público Federal" }, "geometry": { "type": "Point", "coordinates": [ -52.099505099999988, -32.0309564 ] } },
{ "type": "Feature", "properties": { "Label": "PRS/03-0007.00149", "ENDEREÇO": "RIO GRANDE, RS, Rua Marechal Floriano Peixoto, 554", "COMPLEMENT": null, "Tipologia": "6- Arquitetura Civil Privada", "Nome": null }, "geometry": { "type": "Point", "coordinates": [ -52.100034, -32.031169 ] } },
{ "type": "Feature", "properties": { "Label": "PRS/03-0007.00150", "ENDEREÇO": "RIO GRANDE, RS, Rua Marechal Floriano Peixoto, 560", "COMPLEMENT": null, "Tipologia": "6- Arquitetura Civil Privada", "Nome": null }, "geometry": { "type": "Point", "coordinates": [ -52.1003165, -32.0310524 ] } },
{ "type": "Feature", "properties": { "Label": "PRS/03-0007.00152", "ENDEREÇO": "RIO GRANDE, RS, Rua Marechal Floriano Peixoto, 582", "COMPLEMENT": null, "Tipologia": "6- Arquitetura Civil Privada", "Nome": null }, "geometry": { "type": "Point", "coordinates": [ -52.100969, -32.0313852 ] } },
{ "type": "Feature", "properties": { "Label": "PRS/03-0007.00155", "ENDEREÇO": "RIO GRANDE, RS, Rua Marechal Floriano Peixoto, 188", "COMPLEMENT": null, "Tipologia": "Arquitetura Eclética", "Nome": null }, "geometry": { "type": "Point", "coordinates": [ -52.0918994, -32.031133 ] } },
{ "type": "Feature", "properties": { "Label": "PRS/03-0007.00158", "ENDEREÇO": "RIO GRANDE, RS, Rua Marechal Floriano Peixoto, 498", "COMPLEMENT": null, "Tipologia": "6- Arquitetura Civil Privada", "Nome": "Pacotão" }, "geometry": { "type": "Point", "coordinates": [ -52.0989185, -32.0306485 ] } },
{ "type": "Feature", "properties": { "Label": "PRS/03-0007.00159", "ENDEREÇO": "RIO GRANDE, RS, Rua Marechal Floriano Peixoto, 112", "COMPLEMENT": null, "Tipologia": "9- Arquitetura Comercial", "Nome": "Paris Hotel" }, "geometry": { "type": "Point", "coordinates": [ -52.0904614, -32.0313367 ] } },
{ "type": "Feature", "properties": { "Label": "PRS/03-0007.00160", "ENDEREÇO": "RIO GRANDE, RS, Rua Marechal Floriano Peixoto, 510", "COMPLEMENT": null, "Tipologia": "6- Arquitetura Civil Privada", "Nome": null }, "geometry": { "type": "Point", "coordinates": [ -52.0993453, -32.0307952 ] } },
{ "type": "Feature", "properties": { "Label": "PRS/03-0007.00161", "ENDEREÇO": "RIO GRANDE, RS, Rua Marechal Floriano Peixoto, 512", "COMPLEMENT": "516", "Tipologia": "6- Arquitetura Civil Privada", "Nome": null }, "geometry": { "type": "Point", "coordinates": [ -52.099407288765036, -32.030906213157188 ] } },
{ "type": "Feature", "properties": { "Label": "PRS/03-0007.00162", "ENDEREÇO": "RIO GRANDE, RS, Rua Marechal Floriano Peixoto, 580", "COMPLEMENT": null, "Tipologia": "6- Arquitetura Civil Privada", "Nome": null }, "geometry": { "type": "Point", "coordinates": [ -52.100926, -32.0314099 ] } },
{ "type": "Feature", "properties": { "Label": "PRS/03-0007.00163", "ENDEREÇO": "RIO GRANDE, RS, Rua Marechal Floriano Peixoto, 300", "COMPLEMENT": null, "Tipologia": "3- Arquitetura Civil Oficial", "Nome": "Alfândega" }, "geometry": { "type": "Point", "coordinates": [ -52.09469346562112, -32.030355533739062 ] } },
{ "type": "Feature", "properties": { "Label": "PRS/03-0007.00165", "ENDEREÇO": "RIO GRANDE, RS, Rua Francisco Campelo, 457", "COMPLEMENT": null, "Tipologia": "6- Arquitetura Civil Privada", "Nome": null }, "geometry": { "type": "Point", "coordinates": [ -52.097870099999987, -32.0293269 ] } },
{ "type": "Feature", "properties": { "Label": "PRS/03-0007.00166", "ENDEREÇO": "RIO GRANDE, RS, Rua Francisco Marques, 171", "COMPLEMENT": null, "Tipologia": "6- Arquitetura Civil Privada", "Nome": null }, "geometry": { "type": "Point", "coordinates": [ -52.090351991658153, -32.033566799889243 ] } },
{ "type": "Feature", "properties": { "Label": "PRS/03-0007.00167", "ENDEREÇO": "RIO GRANDE, RS, Rua Francisco Marques, 178", "COMPLEMENT": null, "Tipologia": "6- Arquitetura Civil Privada", "Nome": "Antiga residência do comerciante Raffaele Anselmi" }, "geometry": { "type": "Point", "coordinates": [ -52.0908083, -32.0337208 ] } },
{ "type": "Feature", "properties": { "Label": "PRS/03-0007.00168", "ENDEREÇO": "RIO GRANDE, RS, Rua Francisco Marques, 244", "COMPLEMENT": null, "Tipologia": "6- Arquitetura Civil Privada", "Nome": null }, "geometry": { "type": "Point", "coordinates": [ -52.0910277, -32.0346256 ] } },
{ "type": "Feature", "properties": { "Label": "PRS/03-0007.00169", "ENDEREÇO": "RIO GRANDE, RS, Rua Francisco Marques, 329", "COMPLEMENT": null, "Tipologia": "6- Arquitetura Civil Privada", "Nome": null }, "geometry": { "type": "Point", "coordinates": [ -52.091078, -32.0360706 ] } },
{ "type": "Feature", "properties": { "Label": "PRS/03-0007.00174", "ENDEREÇO": "RIO GRANDE, RS, Rua Capitão Heitor Perdigão", "COMPLEMENT": "sem n°", "Tipologia": "5- Arquitetura Civil Oficial", "Nome": "Museu Oceanográfico do Rio Grande" }, "geometry": { "type": "Point", "coordinates": [ -52.105945888368019, -32.026497864811645 ] } },
{ "type": "Feature", "properties": { "Label": "PRS/03-0007.00197", "ENDEREÇO": "RIO GRANDE, RS, João Alfredo, Rua 363", "COMPLEMENT": null, "Tipologia": "6- Arquitetura Civil Privada", "Nome": null }, "geometry": { "type": "Point", "coordinates": [ -52.0971994, -32.0394064 ] } },
{ "type": "Feature", "properties": { "Label": "PRS/03-0007.00199", "ENDEREÇO": "RIO GRANDE, RS, Rua João Alfredo, 367", "COMPLEMENT": null, "Tipologia": "6- Arquitetura Civil Privada", "Nome": null }, "geometry": { "type": "Point", "coordinates": [ -52.097289, -32.039382 ] } },
{ "type": "Feature", "properties": { "Label": "PRS/03-0007.00200", "ENDEREÇO": "RIO GRANDE, RS, Rua João Alfredo, 371", "COMPLEMENT": null, "Tipologia": "6- Arquitetura Civil Privada", "Nome": null }, "geometry": { "type": "Point", "coordinates": [ -52.097406500000012, -32.039365 ] } },
{ "type": "Feature", "properties": { "Label": "PRS/03-0007.00201", "ENDEREÇO": "RIO GRANDE, RS, Rua João Alfredo, 375", "COMPLEMENT": null, "Tipologia": "6- Arquitetura Civil Privada", "Nome": null }, "geometry": { "type": "Point", "coordinates": [ -52.0974445, -32.0393363 ] } },
{ "type": "Feature", "properties": { "Label": "PRS/03-0007.00202", "ENDEREÇO": "RIO GRANDE, RS, Rua João Alfredo, 379", "COMPLEMENT": null, "Tipologia": "6- Arquitetura Civil Privada", "Nome": null }, "geometry": { "type": "Point", "coordinates": [ -52.0975323, -32.0393112 ] } },
{ "type": "Feature", "properties": { "Label": "PRS/03-0007.00203", "ENDEREÇO": "RIO GRANDE, RS, Rua João Alfredo, 383", "COMPLEMENT": null, "Tipologia": "6- Arquitetura Civil Privada", "Nome": null }, "geometry": { "type": "Point", "coordinates": [ -52.0976276, -32.0392812 ] } },
{ "type": "Feature", "properties": { "Label": "PRS/03-0007.00248", "ENDEREÇO": "RIO GRANDE, RS, Rua Doutor Napoleão Laureano, 355", "COMPLEMENT": null, "Tipologia": "6- Arquitetura Civil Privada", "Nome": null }, "geometry": { "type": "Point", "coordinates": [ -52.093440400000013, -32.0363532 ] } },
{ "type": "Feature", "properties": { "Label": "PRS/03-0007.00249", "ENDEREÇO": "RIO GRANDE, RS, Rua Doutor Nascimento, 224", "COMPLEMENT": null, "Tipologia": "6- Arquitetura Civil Privada", "Nome": "Colégio Lemos Júnior" }, "geometry": { "type": "Point", "coordinates": [ -52.0940307, -32.0368351 ] } },
{ "type": "Feature", "properties": { "Label": "PRS/03-0007.00252", "ENDEREÇO": "RIO GRANDE, RS, Rua Doutor Nascimento, 249", "COMPLEMENT": null, "Tipologia": "6- Arquitetura Civil Privada", "Nome": "Antigo Cine Teatro Glória" }, "geometry": { "type": "Point", "coordinates": [ -52.094175112872954, -32.037049296039335 ] } },
{ "type": "Feature", "properties": { "Label": "PRS/03-0007.00254", "ENDEREÇO": "RIO GRANDE, RS, Rua General Netto, 8", "COMPLEMENT": null, "Tipologia": "Arquitetura Eclética", "Nome": "Hotel Portugal" }, "geometry": { "type": "Point", "coordinates": [ -52.097701887987192, -32.029523340452258 ] } },
{ "type": "Feature", "properties": { "Label": "PRS/03-0007.00261", "ENDEREÇO": "RIO GRANDE, RS, Rua General Osório, 430", "COMPLEMENT": null, "Tipologia": "6- Arquitetura Civil Privada", "Nome": "Câmara do Comércio" }, "geometry": { "type": "Point", "coordinates": [ -52.095352299999988, -32.0298737 ] } },
{ "type": "Feature", "properties": { "Label": "PRS/03-0007.00262", "ENDEREÇO": "RIO GRANDE, RS, Rua General Osório, 443", "COMPLEMENT": null, "Tipologia": "Arquitetura Neoclássica", "Nome": "Mercado Municipal" }, "geometry": { "type": "Point", "coordinates": [ -52.096329362016597, -32.029823158679513 ] } },
{ "type": "Feature", "properties": { "Label": "PRS/03-0007.00263", "ENDEREÇO": "RIO GRANDE, RS, Rua General Osório, 450", "COMPLEMENT": null, "Tipologia": "Arquitetura Colonial", "Nome": "Banca do Peixe" }, "geometry": { "type": "Point", "coordinates": [ -52.09695989977655, -32.029701805458018 ] } },
{ "type": "Feature", "properties": { "Label": "PRS/03-0007.00264", "ENDEREÇO": "RIO GRANDE, RS, Rua General Osório, 454", "COMPLEMENT": null, "Tipologia": "6- Arquitetura Civil Privada", "Nome": "Biblioteca Rio Grandense" }, "geometry": { "type": "Point", "coordinates": [ -52.097345399999988, -32.029881 ] } },
{ "type": "Feature", "properties": { "Label": "PRS/03-0007.00265", "ENDEREÇO": "RIO GRANDE, RS, Rua General Osório, 468", "COMPLEMENT": "468/470", "Tipologia": "6- Arquitetura Civil Privada", "Nome": null }, "geometry": { "type": "Point", "coordinates": [ -52.0981574, -32.0298654 ] } },
{ "type": "Feature", "properties": { "Label": "PRS/03-0007.00266", "ENDEREÇO": "RIO GRANDE, RS, Rua General Osório, 471", "COMPLEMENT": null, "Tipologia": "6- Arquitetura Civil Privada", "Nome": "Ferragem F. A. Nader" }, "geometry": { "type": "Point", "coordinates": [ -52.098235, -32.0301244 ] } },
{ "type": "Feature", "properties": { "Label": "PRS/03-0007.00267", "ENDEREÇO": "RIO GRANDE, RS, Rua General Osório, 472", "COMPLEMENT": null, "Tipologia": "6- Arquitetura Civil Privada", "Nome": null }, "geometry": { "type": "Point", "coordinates": [ -52.0982853, -32.0298359 ] } },
{ "type": "Feature", "properties": { "Label": "PRS/03-0007.00268", "ENDEREÇO": "RIO GRANDE, RS, Rua General Osório, 473", "COMPLEMENT": null, "Tipologia": "Arquitetura Eclética", "Nome": "Casa Nader" }, "geometry": { "type": "Point", "coordinates": [ -52.0983785, -32.0302046 ] } },
{ "type": "Feature", "properties": { "Label": "PRS/03-0007.00269", "ENDEREÇO": "RIO GRANDE, RS, Rua General Osório, 512", "COMPLEMENT": null, "Tipologia": "5- Arquitetura Civil Oficial", "Nome": "Polícia Federal" }, "geometry": { "type": "Point", "coordinates": [ -52.09957330000001, -32.0297514 ] } },
{ "type": "Feature", "properties": { "Label": "PRS/03-0007.00270", "ENDEREÇO": "RIO GRANDE, RS, Rua General Osório, 625", "COMPLEMENT": null, "Tipologia": "2- Arquitetura Hospitalar", "Nome": "Santa Casa de Misericórdia" }, "geometry": { "type": "Point", "coordinates": [ -52.1025503, -32.0307789 ] } },
{ "type": "Feature", "properties": { "Label": "PRS/03-0007.00271", "ENDEREÇO": "RIO GRANDE, RS, Rua General Osório, 548", "COMPLEMENT": null, "Tipologia": "6- Arquitetura Civil Privada", "Nome": "Antiga Usina do Gasômetro" }, "geometry": { "type": "Point", "coordinates": [ -52.100198199999987, -32.0297471 ] } },
{ "type": "Feature", "properties": { "Label": "PRS/03-0007.00272", "ENDEREÇO": "RIO GRANDE, RS, Rua Conselheiro Pinto Lima, 51", "COMPLEMENT": null, "Tipologia": "6- Arquitetura Civil Privada", "Nome": null }, "geometry": { "type": "Point", "coordinates": [ -52.099122, -32.0310095 ] } },
{ "type": "Feature", "properties": { "Label": "PRS/03-0007.00281", "ENDEREÇO": "RIO GRANDE, RS, Avenida Rheingantz, 51", "COMPLEMENT": null, "Tipologia": "6- Arquitetura Civil Privada", "Nome": null }, "geometry": { "type": "Point", "coordinates": [ -52.103230024594303, -32.042346987080428 ] } },
{ "type": "Feature", "properties": { "Label": "PRS/03-0007.00288", "ENDEREÇO": "RIO GRANDE, RS, Avenida Rheingantz, 61", "COMPLEMENT": null, "Tipologia": "6- Arquitetura Civil Privada", "Nome": null }, "geometry": { "type": "Point", "coordinates": [ -52.1034234, -32.042563 ] } },
{ "type": "Feature", "properties": { "Label": "PRS/03-0007.00289", "ENDEREÇO": "RIO GRANDE, RS, Avenida Rheingantz, 79", "COMPLEMENT": null, "Tipologia": "6- Arquitetura Civil Privada", "Nome": null }, "geometry": { "type": "Point", "coordinates": [ -52.1036513, -32.0427377 ] } },
{ "type": "Feature", "properties": { "Label": "PRS/03-0007.00299", "ENDEREÇO": "RIO GRANDE, RS, Avenida Rheingantz, 131", "COMPLEMENT": null, "Tipologia": "6- Arquitetura Civil Privada", "Nome": null }, "geometry": { "type": "Point", "coordinates": [ -52.10447639811818, -32.043489260801437 ] } },
{ "type": "Feature", "properties": { "Label": "PRS/03-0007.00300", "ENDEREÇO": "RIO GRANDE, RS, Avenida Rheingantz, 133", "COMPLEMENT": null, "Tipologia": "6- Arquitetura Civil Privada", "Nome": null }, "geometry": { "type": "Point", "coordinates": [ -52.104534841032716, -32.043530629084565 ] } },
{ "type": "Feature", "properties": { "Label": "PRS/03-0007.00301", "ENDEREÇO": "RIO GRANDE, RS, Avenida Rheingantz, 135", "COMPLEMENT": null, "Tipologia": "6- Arquitetura Civil Privada", "Nome": null }, "geometry": { "type": "Point", "coordinates": [ -52.104574006562274, -32.043575156556464 ] } },
{ "type": "Feature", "properties": { "Label": "PRS/03-0007.00302", "ENDEREÇO": "RIO GRANDE, RS, Avenida Rheingantz, 137", "COMPLEMENT": null, "Tipologia": "6- Arquitetura Civil Privada", "Nome": null }, "geometry": { "type": "Point", "coordinates": [ -52.104623598924178, -32.043610619416782 ] } },
{ "type": "Feature", "properties": { "Label": "PRS/03-0007.00303", "ENDEREÇO": "RIO GRANDE, RS, Avenida Rheingantz, 139", "COMPLEMENT": null, "Tipologia": "6- Arquitetura Civil Privada", "Nome": "Vila dos Operários" }, "geometry": { "type": "Point", "coordinates": [ -52.1046796, -32.0436411 ] } },
{ "type": "Feature", "properties": { "Label": "PRS/03-0007.00304", "ENDEREÇO": "RIO GRANDE, RS, Avenida Rheingantz, 141", "COMPLEMENT": null, "Tipologia": "6- Arquitetura Civil Privada", "Nome": "Vila dos Operários" }, "geometry": { "type": "Point", "coordinates": [ -52.1047184, -32.0436787 ] } },
{ "type": "Feature", "properties": { "Label": "PRS/03-0007.00305", "ENDEREÇO": "RIO GRANDE, RS, Avenida Rheingantz, 143", "COMPLEMENT": null, "Tipologia": "6- Arquitetura Civil Privada", "Nome": "Vila dos Operários" }, "geometry": { "type": "Point", "coordinates": [ -52.104737521024205, -32.043698284693122 ] } },
{ "type": "Feature", "properties": { "Label": "PRS/03-0007.00306", "ENDEREÇO": "RIO GRANDE, RS, Avenida Rheingantz, 145", "COMPLEMENT": null, "Tipologia": "6- Arquitetura Civil Privada", "Nome": "Vila dos Operários" }, "geometry": { "type": "Point", "coordinates": [ -52.104774199999987, -32.043725 ] } },
{ "type": "Feature", "properties": { "Label": "PRS/03-0007.00307", "ENDEREÇO": "RIO GRANDE, RS, Avenida Rheingantz, 147", "COMPLEMENT": null, "Tipologia": "6- Arquitetura Civil Privada", "Nome": "Vila dos Operários" }, "geometry": { "type": "Point", "coordinates": [ -52.1048017, -32.0437535 ] } },
{ "type": "Feature", "properties": { "Label": "PRS/03-0007.00308", "ENDEREÇO": "RIO GRANDE, RS, Avenida Rheingantz, 149", "COMPLEMENT": null, "Tipologia": "6- Arquitetura Civil Privada", "Nome": "Vila dos Operários" }, "geometry": { "type": "Point", "coordinates": [ -52.104823791174574, -32.043769988150544 ] } },
{ "type": "Feature", "properties": { "Label": "PRS/03-0007.00309", "ENDEREÇO": "RIO GRANDE, RS, Avenida Rheingantz, 151", "COMPLEMENT": null, "Tipologia": "6- Arquitetura Civil Privada", "Nome": "Vila dos Operários" }, "geometry": { "type": "Point", "coordinates": [ -52.1047829, -32.0438374 ] } },
{ "type": "Feature", "properties": { "Label": "PRS/03-0007.00310", "ENDEREÇO": "RIO GRANDE, RS, Avenida Rheingantz, 153", "COMPLEMENT": null, "Tipologia": "6- Arquitetura Civil Privada", "Nome": "Vila dos Operários" }, "geometry": { "type": "Point", "coordinates": [ -52.1048862, -32.043828 ] } },
{ "type": "Feature", "properties": { "Label": "PRS/03-0007.00311", "ENDEREÇO": "RIO GRANDE, RS, Avenida Rheingantz, 157", "COMPLEMENT": null, "Tipologia": "6- Arquitetura Civil Privada", "Nome": "Vila dos Operários" }, "geometry": { "type": "Point", "coordinates": [ -52.1049182, -32.0438538 ] } },
{ "type": "Feature", "properties": { "Label": "PRS/03-0007.00312", "ENDEREÇO": "RIO GRANDE, RS, Avenida Rheingantz, 161", "COMPLEMENT": null, "Tipologia": "6- Arquitetura Civil Privada", "Nome": "Vila dos Operários" }, "geometry": { "type": "Point", "coordinates": [ -52.1049148, -32.0439204 ] } },
{ "type": "Feature", "properties": { "Label": "PRS/03-0007.00313", "ENDEREÇO": "RIO GRANDE, RS, Avenida Rheingantz, 165", "COMPLEMENT": null, "Tipologia": "6- Arquitetura Civil Privada", "Nome": "Vila dos Operários" }, "geometry": { "type": "Point", "coordinates": [ -52.1050052, -32.0439433 ] } },
{ "type": "Feature", "properties": { "Label": "PRS/03-0007.00314", "ENDEREÇO": "RIO GRANDE, RS, Avenida Rheingantz, 167", "COMPLEMENT": null, "Tipologia": "6- Arquitetura Civil Privada", "Nome": "Vila dos Operários" }, "geometry": { "type": "Point", "coordinates": [ -52.105027548490327, -32.043964341161519 ] } },
{ "type": "Feature", "properties": { "Label": "PRS/03-0007.00315", "ENDEREÇO": "RIO GRANDE, RS, Avenida Rheingantz, 171", "COMPLEMENT": null, "Tipologia": "6- Arquitetura Civil Privada", "Nome": "Vila dos Operários" }, "geometry": { "type": "Point", "coordinates": [ -52.105065125462588, -32.043999408425861 ] } },
{ "type": "Feature", "properties": { "Label": "PRS/03-0007.00316", "ENDEREÇO": "RIO GRANDE, RS, Avenida Rheingantz, 173", "COMPLEMENT": null, "Tipologia": "6- Arquitetura Civil Privada", "Nome": "Vila dos Operários" }, "geometry": { "type": "Point", "coordinates": [ -52.1050876, -32.0440576 ] } },
{ "type": "Feature", "properties": { "Label": "PRS/03-0007.00317", "ENDEREÇO": "RIO GRANDE, RS, Avenida Rheingantz, 175", "COMPLEMENT": null, "Tipologia": "6- Arquitetura Civil Privada", "Nome": "Vila dos Operários" }, "geometry": { "type": "Point", "coordinates": [ -52.10513830912749, -32.044068310866763 ] } },
{ "type": "Feature", "properties": { "Label": "PRS/03-0007.00318", "ENDEREÇO": "RIO GRANDE, RS, Avenida Rheingantz, 177", "COMPLEMENT": null, "Tipologia": "6- Arquitetura Civil Privada", "Nome": "Vila dos Operários" }, "geometry": { "type": "Point", "coordinates": [ -52.1051982, -32.0440948 ] } },
{ "type": "Feature", "properties": { "Label": "PRS/03-0007.00319", "ENDEREÇO": "RIO GRANDE, RS, Avenida Rheingantz, 179", "COMPLEMENT": null, "Tipologia": "6- Arquitetura Civil Privada", "Nome": "Vila dos Operários" }, "geometry": { "type": "Point", "coordinates": [ -52.1052105, -32.0441227 ] } },
{ "type": "Feature", "properties": { "Label": "PRS/03-0007.00320", "ENDEREÇO": "RIO GRANDE, RS, Avenida Rheingantz, 197", "COMPLEMENT": null, "Tipologia": "6- Arquitetura Civil Privada", "Nome": "Vila dos Operários" }, "geometry": { "type": "Point", "coordinates": [ -52.1052842, -32.0441878 ] } },
{ "type": "Feature", "properties": { "Label": "PRS/03-0007.00332", "ENDEREÇO": "RIO GRANDE, RS, Avenida Rheingantz, 201", "COMPLEMENT": null, "Tipologia": "7- Arquitetura Rural ou Industrial", "Nome": null }, "geometry": { "type": "Point", "coordinates": [ -52.104070509310574, -32.045241489485583 ] } },
{ "type": "Feature", "properties": { "Label": "PRS/03-0007.00333", "ENDEREÇO": "RIO GRANDE, RS, Avenida Rheingantz, 201", "COMPLEMENT": null, "Tipologia": "7- Arquitetura Rural ou Industrial", "Nome": null }, "geometry": { "type": "Point", "coordinates": [ -52.104401015598931, -32.044850657524051 ] } },
{ "type": "Feature", "properties": { "Label": "PRS/03-0007.00334", "ENDEREÇO": "RIO GRANDE, RS, Corredor Rheingantz, 199", "COMPLEMENT": null, "Tipologia": "6- Arquitetura Civil Privada", "Nome": "Ambulatório/Vila dos Operários" }, "geometry": { "type": "Point", "coordinates": [ -52.105043042404937, -32.044400957559844 ] } },
{ "type": "Feature", "properties": { "Label": "PRS/03-0007.00335", "ENDEREÇO": "RIO GRANDE, RS, Corredor Rheingantz, 199", "COMPLEMENT": "Casa 1", "Tipologia": "6- Arquitetura Civil Privada", "Nome": "Vila dos Operários" }, "geometry": { "type": "Point", "coordinates": [ -52.104891302408049, -32.044337980763913 ] } },
{ "type": "Feature", "properties": { "Label": "PRS/03-0007.00336", "ENDEREÇO": "RIO GRANDE, RS, Corredor Rheingantz, 199", "COMPLEMENT": "Casa 2", "Tipologia": "6- Arquitetura Civil Privada", "Nome": "Vila dos Operários" }, "geometry": { "type": "Point", "coordinates": [ -52.104856590572844, -32.044317316097164 ] } },
{ "type": "Feature", "properties": { "Label": "PRS/03-0007.00337", "ENDEREÇO": "RIO GRANDE, RS, Corredor Rheingantz, 199", "COMPLEMENT": "Casa 3", "Tipologia": "6- Arquitetura Civil Privada", "Nome": "Vila dos Operários" }, "geometry": { "type": "Point", "coordinates": [ -52.104831758035445, -32.04429936094693 ] } },
{ "type": "Feature", "properties": { "Label": "PRS/03-0007.00338", "ENDEREÇO": "RIO GRANDE, RS, Corredor Rheingantz, 199", "COMPLEMENT": "Casa 4", "Tipologia": "6- Arquitetura Civil Privada", "Nome": "Vila dos Operários" }, "geometry": { "type": "Point", "coordinates": [ -52.104805234186841, -32.04427722709098 ] } },
{ "type": "Feature", "properties": { "Label": "PRS/03-0007.00339", "ENDEREÇO": "RIO GRANDE, RS, Corredor Rheingantz, 199", "COMPLEMENT": "Casa 5", "Tipologia": "6- Arquitetura Civil Privada", "Nome": "Vila dos Operários" }, "geometry": { "type": "Point", "coordinates": [ -52.104783666779269, -32.044257845661427 ] } },
{ "type": "Feature", "properties": { "Label": "PRS/03-0007.00340", "ENDEREÇO": "RIO GRANDE, RS, Corredor Rheingantz, 199", "COMPLEMENT": "Casa 6", "Tipologia": "6- Arquitetura Civil Privada", "Nome": "Vila dos Operários" }, "geometry": { "type": "Point", "coordinates": [ -52.104752236896402, -32.044237152363095 ] } },
{ "type": "Feature", "properties": { "Label": "PRS/03-0007.00341", "ENDEREÇO": "RIO GRANDE, RS, Corredor Rheingantz, 199", "COMPLEMENT": "Casa 7", "Tipologia": "6- Arquitetura Civil Privada", "Nome": "Vila dos Operários" }, "geometry": { "type": "Point", "coordinates": [ -52.104719166078809, -32.044216473356499 ] } },
{ "type": "Feature", "properties": { "Label": "PRS/03-0007.00342", "ENDEREÇO": "RIO GRANDE, RS, Corredor Rheingantz, 199", "COMPLEMENT": "Casa 8", "Tipologia": "6- Arquitetura Civil Privada", "Nome": "Vila dos Operários" }, "geometry": { "type": "Point", "coordinates": [ -52.10468775301289, -32.044197177708696 ] } },
{ "type": "Feature", "properties": { "Label": "PRS/03-0007.00343", "ENDEREÇO": "RIO GRANDE, RS, Corredor Rheingantz, 199", "COMPLEMENT": "Casa 9", "Tipologia": "6- Arquitetura Civil Privada", "Nome": "Vila dos Operários" }, "geometry": { "type": "Point", "coordinates": [ -52.10466124601632, -32.044176441488133 ] } },
{ "type": "Feature", "properties": { "Label": "PRS/03-0007.00344", "ENDEREÇO": "RIO GRANDE, RS, Corredor Rheingantz, 199", "COMPLEMENT": "Casa 10", "Tipologia": "6- Arquitetura Civil Privada", "Nome": "Vila dos Operários" }, "geometry": { "type": "Point", "coordinates": [ -52.104629749038146, -32.044150157488609 ] } },
{ "type": "Feature", "properties": { "Label": "PRS/03-0007.00345", "ENDEREÇO": "RIO GRANDE, RS, Corredor Rheingantz, 199", "COMPLEMENT": "Casa 11", "Tipologia": "6- Arquitetura Civil Privada", "Nome": "Vila dos Operários" }, "geometry": { "type": "Point", "coordinates": [ -52.104603242068173, -32.044129421255171 ] } },
{ "type": "Feature", "properties": { "Label": "PRS/03-0007.00346", "ENDEREÇO": "RIO GRANDE, RS, Corredor Rheingantz, 199", "COMPLEMENT": "Casa 12", "Tipologia": "6- Arquitetura Civil Privada", "Nome": "Vila dos Operários" }, "geometry": { "type": "Point", "coordinates": [ -52.104575110949902, -32.044110096981221 ] } },
{ "type": "Feature", "properties": { "Label": "PRS/03-0007.00347", "ENDEREÇO": "RIO GRANDE, RS, Corredor Rheingantz, 199", "COMPLEMENT": "Casa 13", "Tipologia": "6- Arquitetura Civil Privada", "Nome": "Vila dos Operários" }, "geometry": { "type": "Point", "coordinates": [ -52.104556775163871, -32.044086493912445 ] } },
{ "type": "Feature", "properties": { "Label": "PRS/03-0007.00348", "ENDEREÇO": "RIO GRANDE, RS, Corredor Rheingantz, 199", "COMPLEMENT": "Casa 14", "Tipologia": "6- Arquitetura Civil Privada", "Nome": "Vila dos Operários" }, "geometry": { "type": "Point", "coordinates": [ -52.104526986336289, -32.044065786257505 ] } },
{ "type": "Feature", "properties": { "Label": "PRS/03-0007.00349", "ENDEREÇO": "RIO GRANDE, RS, Corredor Rheingantz, 199", "COMPLEMENT": "Casa 15", "Tipologia": "6- Arquitetura Civil Privada", "Nome": "Vila dos Operários" }, "geometry": { "type": "Point", "coordinates": [ -52.104492190757433, -32.044038133148888 ] } },
{ "type": "Feature", "properties": { "Label": "PRS/03-0007.00350", "ENDEREÇO": "RIO GRANDE, RS, Corredor Rheingantz, 199", "COMPLEMENT": "Casa 16", "Tipologia": "6- Arquitetura Civil Privada", "Nome": "Vila dos Operários" }, "geometry": { "type": "Point", "coordinates": [ -52.104450814633708, -32.044009139548223 ] } },
{ "type": "Feature", "properties": { "Label": "PRS/03-0007.00351", "ENDEREÇO": "RIO GRANDE, RS, Corredor Rheingantz, 199", "COMPLEMENT": "Casa 17", "Tipologia": "6- Arquitetura Civil Privada", "Nome": "Vila dos Operários" }, "geometry": { "type": "Point", "coordinates": [ -52.104414394938523, -32.043982898380804 ] } },
{ "type": "Feature", "properties": { "Label": "PRS/03-0007.00352", "ENDEREÇO": "RIO GRANDE, RS, Corredor Rheingantz, 199", "COMPLEMENT": "Casa 18", "Tipologia": "6- Arquitetura Civil Privada", "Nome": "Vila dos Operários" }, "geometry": { "type": "Point", "coordinates": [ -52.104376351103291, -32.043958069165228 ] } },
{ "type": "Feature", "properties": { "Label": "PRS/03-0007.00353", "ENDEREÇO": "RIO GRANDE, RS, Corredor Rheingantz, 199", "COMPLEMENT": "Casa 19", "Tipologia": "6- Arquitetura Civil Privada", "Nome": "Vila dos Operários" }, "geometry": { "type": "Point", "coordinates": [ -52.10432760758718, -32.043930537518762 ] } },
{ "type": "Feature", "properties": { "Label": "PRS/03-0007.00354", "ENDEREÇO": "RIO GRANDE, RS, Corredor Rheingantz, 199", "COMPLEMENT": "Casa 20", "Tipologia": "6- Arquitetura Civil Privada", "Nome": "Vila dos Operários" }, "geometry": { "type": "Point", "coordinates": [ -52.104243239651609, -32.044021808076458 ] } },
{ "type": "Feature", "properties": { "Label": "PRS/03-0007.00355", "ENDEREÇO": "RIO GRANDE, RS, Corredor Rheingantz, 199", "COMPLEMENT": "Casa 21", "Tipologia": "6- Arquitetura Civil Privada", "Nome": "Vila dos Operários" }, "geometry": { "type": "Point", "coordinates": [ -52.104297372461062, -32.044053385619961 ] } },
{ "type": "Feature", "properties": { "Label": "PRS/03-0007.00356", "ENDEREÇO": "RIO GRANDE, RS, Corredor Rheingantz, 199", "COMPLEMENT": "Casa 22", "Tipologia": "6- Arquitetura Civil Privada", "Nome": "Vila dos Operários" }, "geometry": { "type": "Point", "coordinates": [ -52.10434066407592, -32.044077426847593 ] } },
{ "type": "Feature", "properties": { "Label": "PRS/03-0007.00357", "ENDEREÇO": "RIO GRANDE, RS, Corredor Rheingantz, 199", "COMPLEMENT": "Casa 23", "Tipologia": "6- Arquitetura Civil Privada", "Nome": "Vila dos Operários" }, "geometry": { "type": "Point", "coordinates": [ -52.104380537430863, -32.044115233161158 ] } },
{ "type": "Feature", "properties": { "Label": "PRS/03-0007.00358", "ENDEREÇO": "RIO GRANDE, RS, Corredor Rheingantz, 199", "COMPLEMENT": "Casa 24", "Tipologia": "6- Arquitetura Civil Privada", "Nome": "Vila dos Operários" }, "geometry": { "type": "Point", "coordinates": [ -52.104418545914143, -32.044146951120773 ] } },
{ "type": "Feature", "properties": { "Label": "PRS/03-0007.00359", "ENDEREÇO": "RIO GRANDE, RS, Corredor Rheingantz, 199", "COMPLEMENT": "Casa 25", "Tipologia": "6- Arquitetura Civil Privada", "Nome": "Vila dos Operários" }, "geometry": { "type": "Point", "coordinates": [ -52.104460174283048, -32.044181689824548 ] } },
{ "type": "Feature", "properties": { "Label": "PRS/03-0007.00360", "ENDEREÇO": "RIO GRANDE, RS, Corredor Rheingantz, 199", "COMPLEMENT": "Casa 26", "Tipologia": "6- Arquitetura Civil Privada", "Nome": "Vila dos Operários" }, "geometry": { "type": "Point", "coordinates": [ -52.104507122515905, -32.04421180372298 ] } },
{ "type": "Feature", "properties": { "Label": "PRS/03-0007.00361", "ENDEREÇO": "RIO GRANDE, RS, Corredor Rheingantz, 199", "COMPLEMENT": "Casa 27", "Tipologia": "6- Arquitetura Civil Privada", "Nome": "Vila dos Operários" }, "geometry": { "type": "Point", "coordinates": [ -52.104552279174449, -32.044241933213655 ] } },
{ "type": "Feature", "properties": { "Label": "PRS/03-0007.00362", "ENDEREÇO": "RIO GRANDE, RS, Corredor Rheingantz, 199", "COMPLEMENT": "Casa 28", "Tipologia": "6- Arquitetura Civil Privada", "Nome": "Vila dos Operários" }, "geometry": { "type": "Point", "coordinates": [ -52.10459564425701, -32.044272078298498 ] } },
{ "type": "Feature", "properties": { "Label": "PRS/03-0007.00363", "ENDEREÇO": "RIO GRANDE, RS, Corredor Rheingantz, 199", "COMPLEMENT": "Casa 29", "Tipologia": "6- Arquitetura Civil Privada", "Nome": "Vila dos Operários" }, "geometry": { "type": "Point", "coordinates": [ -52.104635352839765, -32.044296150642701 ] } },
{ "type": "Feature", "properties": { "Label": "PRS/03-0007.00364", "ENDEREÇO": "RIO GRANDE, RS, Corredor Rheingantz, 199", "COMPLEMENT": "Casa 30", "Tipologia": "6- Arquitetura Civil Privada", "Nome": "Vila dos Operários" }, "geometry": { "type": "Point", "coordinates": [ -52.104680527911007, -32.044327806072481 ] } },
{ "type": "Feature", "properties": { "Label": "PRS/03-0007.00365", "ENDEREÇO": "RIO GRANDE, RS, Corredor Rheingantz, 199", "COMPLEMENT": "Casa 31", "Tipologia": "6- Arquitetura Civil Privada", "Nome": "Vila dos Operários" }, "geometry": { "type": "Point", "coordinates": [ -52.104719450719109, -32.044361042117451 ] } },
{ "type": "Feature", "properties": { "Label": "PRS/03-0007.00366", "ENDEREÇO": "RIO GRANDE, RS, Corredor Rheingantz, 199", "COMPLEMENT": "Casa 32", "Tipologia": "6- Arquitetura Civil Privada", "Nome": "Vila dos Operários" }, "geometry": { "type": "Point", "coordinates": [ -52.104761042635673, -32.04439272874253 ] } },
{ "type": "Feature", "properties": { "Label": "PRS/03-0007.00367", "ENDEREÇO": "RIO GRANDE, RS, Corredor Rheingantz, 199", "COMPLEMENT": "Casa 33", "Tipologia": "6- Arquitetura Civil Privada", "Nome": "Vila dos Operários" }, "geometry": { "type": "Point", "coordinates": [ -52.104804407857102, -32.044422873752133 ] } },
{ "type": "Feature", "properties": { "Label": "PRS/03-0007.00368", "ENDEREÇO": "RIO GRANDE, RS, Corredor Rheingantz, 199", "COMPLEMENT": "Casa 34", "Tipologia": "6- Arquitetura Civil Privada", "Nome": "Vila dos Operários" }, "geometry": { "type": "Point", "coordinates": [ -52.104851392989815, -32.044456039490555 ] } },
{ "type": "Feature", "properties": { "Label": "PRS/03-0007.00369", "ENDEREÇO": "RIO GRANDE, RS, Corredor Rheingantz, 199", "COMPLEMENT": "Casa 35", "Tipologia": "6- Arquitetura Civil Privada", "Nome": "Vila dos Operários" }, "geometry": { "type": "Point", "coordinates": [ -52.104922035757667, -32.04451952194583 ] } },
{ "type": "Feature", "properties": { "Label": "PRS/03-0007.00370", "ENDEREÇO": "RIO GRANDE, RS, Corredor Rheingantz, 199", "COMPLEMENT": "Casa 36", "Tipologia": "6- Arquitetura Civil Privada", "Nome": "Vila dos Operários" }, "geometry": { "type": "Point", "coordinates": [ -52.104867302501397, -32.04458714944662 ] } },
{ "type": "Feature", "properties": { "Label": "PRS/03-0007.00371", "ENDEREÇO": "RIO GRANDE, RS, Corredor Rheingantz, 199", "COMPLEMENT": "Casa 37", "Tipologia": "6- Arquitetura Civil Privada", "Nome": "Vila dos Operários" }, "geometry": { "type": "Point", "coordinates": [ -52.104817559025051, -32.044622684356703 ] } },
{ "type": "Feature", "properties": { "Label": "PRS/03-0007.00372", "ENDEREÇO": "RIO GRANDE, RS, Corredor Rheingantz, 199", "COMPLEMENT": "Casa 38", "Tipologia": "6- Arquitetura Civil Privada", "Nome": "Vila dos Operários" }, "geometry": { "type": "Point", "coordinates": [ -52.104766353863873, -32.044685702626374 ] } },
{ "type": "Feature", "properties": { "Label": "PRS/03-0007.00373", "ENDEREÇO": "RIO GRANDE, RS, Corredor Rheingantz, 199", "COMPLEMENT": "Casa 39", "Tipologia": "6- Arquitetura Civil Privada", "Nome": "Vila dos Operários" }, "geometry": { "type": "Point", "coordinates": [ -52.104722076791276, -32.044728820594081 ] } },
{ "type": "Feature", "properties": { "Label": "PRS/03-0007.00374", "ENDEREÇO": "RIO GRANDE, RS, Rua Riachuelo", "COMPLEMENT": null, "Tipologia": "3- Arquitetura Civil Oficial", "Nome": "Cais do Porto Velho" }, "geometry": { "type": "Point", "coordinates": [ -52.0915477, -32.030311 ] } },
{ "type": "Feature", "properties": { "Label": "PRS/03-0007.00375", "ENDEREÇO": "RIO GRANDE, RS, Rua Riachuelo", "COMPLEMENT": null, "Tipologia": "3- Arquitetura Civil Oficial", "Nome": "Armazéns do Porto Velho" }, "geometry": { "type": "Point", "coordinates": [ -52.092195300131451, -32.029989680425295 ] } },
{ "type": "Feature", "properties": { "Label": "PRS/03-0007.00376", "ENDEREÇO": "RIO GRANDE, RS, Rua Riachuelo, 21", "COMPLEMENT": null, "Tipologia": "8- Arquitetura Mista", "Nome": null }, "geometry": { "type": "Point", "coordinates": [ -52.089049061841855, -32.031017773702466 ] } },
{ "type": "Feature", "properties": { "Label": "PRS/03-0007.00377", "ENDEREÇO": "RIO GRANDE, RS, Rua Riachuelo, 109", "COMPLEMENT": null, "Tipologia": "Arquitetura Eclética", "Nome": null }, "geometry": { "type": "Point", "coordinates": [ -52.0903392, -32.0306429 ] } },
{ "type": "Feature", "properties": { "Label": "PRS/03-0007.00378", "ENDEREÇO": "RIO GRANDE, RS, Rua Riachuelo, 123", "COMPLEMENT": null, "Tipologia": "6- Arquitetura Civil Privada", "Nome": null }, "geometry": { "type": "Point", "coordinates": [ -52.0904479, -32.0307396 ] } },
{ "type": "Feature", "properties": { "Label": "PRS/03-0007.00379", "ENDEREÇO": "RIO GRANDE, RS, Rua Riachuelo, 183", "COMPLEMENT": null, "Tipologia": "Arquitetura Eclética", "Nome": null }, "geometry": { "type": "Point", "coordinates": [ -52.091555137503811, -32.030458350968857 ] } },
{ "type": "Feature", "properties": { "Label": "PRS/03-0007.00380", "ENDEREÇO": "RIO GRANDE, RS, Rua Riachuelo, 197", "COMPLEMENT": null, "Tipologia": "6- Arquitetura Civil Privada", "Nome": null }, "geometry": { "type": "Point", "coordinates": [ -52.091696948921587, -32.030426849188622 ] } },
{ "type": "Feature", "properties": { "Label": "PRS/03-0007.00381", "ENDEREÇO": "RIO GRANDE, RS, R. Riachuelo, 201", "COMPLEMENT": null, "Tipologia": "6- Arquitetura Civil Privada", "Nome": null }, "geometry": { "type": "Point", "coordinates": [ -52.0919386, -32.0303503 ] } },
{ "type": "Feature", "properties": { "Label": "PRS/03-0007.00383", "ENDEREÇO": "RIO GRANDE, RS, Rua Riachuelo, 299", "COMPLEMENT": null, "Tipologia": "6- Arquitetura Civil Privada", "Nome": null }, "geometry": { "type": "Point", "coordinates": [ -52.094042, -32.0299915 ] } },
{ "type": "Feature", "properties": { "Label": "PRS/03-0007.00384", "ENDEREÇO": "RIO GRANDE, RS, Rua Coronel Sampaio, 119", "COMPLEMENT": null, "Tipologia": "6- Arquitetura Civil Privada", "Nome": null }, "geometry": { "type": "Point", "coordinates": [ -52.0892849, -32.0327106 ] } },
{ "type": "Feature", "properties": { "Label": "PRS/03-0007.00385", "ENDEREÇO": "RIO GRANDE, RS, Rua Coronel Sampaio, 244", "COMPLEMENT": null, "Tipologia": "6- Arquitetura Civil Privada", "Nome": null }, "geometry": { "type": "Point", "coordinates": [ -52.0892753, -32.0350914 ] } },
{ "type": "Feature", "properties": { "Label": "PRS/03-0007.00392", "ENDEREÇO": "RIO GRANDE, RS, Avenida Silva Paes, 20", "COMPLEMENT": "B", "Tipologia": "6- Arquitetura Civil Privada", "Nome": null }, "geometry": { "type": "Point", "coordinates": [ -52.088545971985916, -32.034447062360528 ] } },
{ "type": "Feature", "properties": { "Label": "PRS/03-0007.00393", "ENDEREÇO": "RIO GRANDE, RS, Avenida Silva Paes, 55", "COMPLEMENT": null, "Tipologia": "6- Arquitetura Civil Privada", "Nome": null }, "geometry": { "type": "Point", "coordinates": [ -52.089425, -32.0345831 ] } },
{ "type": "Feature", "properties": { "Label": "PRS/03-0007.00394", "ENDEREÇO": "RIO GRANDE, RS, Avenida Silva Paes, 115", "COMPLEMENT": null, "Tipologia": "6- Arquitetura Civil Privada", "Nome": null }, "geometry": { "type": "Point", "coordinates": [ -52.0910883, -32.034321 ] } },
{ "type": "Feature", "properties": { "Label": "PRS/03-0007.00421", "ENDEREÇO": "RIO GRANDE, RS, Avenida Comendador Vasco Vieira da Fonseca", "COMPLEMENT": null, "Tipologia": "6- Arquitetura Civil Privada", "Nome": "Mirante do Entreposto de Pesca" }, "geometry": { "type": "Point", "coordinates": [ -52.101783595329252, -32.02759519317236 ] } },
{ "type": "Feature", "properties": { "Label": "PRS/03-0007.00441", "ENDEREÇO": "RIO GRANDE, RS, Rua Zalony, 441", "COMPLEMENT": null, "Tipologia": "6- Arquitetura Civil Privada", "Nome": null }, "geometry": { "type": "Point", "coordinates": [ -52.0957393, -32.0374428 ] } },
{ "type": "Feature", "properties": { "Label": "PRS/03-0007.00382", "ENDEREÇO": "Rua Riachuelo, 227", "COMPLEMENT": null, "Tipologia": "Arquitetura Eclética", "Nome": null }, "geometry": { "type": "Point", "coordinates": [ -52.092208074951422, -32.030308863848312 ] } }
]
}
