{
"type": "FeatureCollection",
"name": "saude_ATINGIDOS_rio_grande___nivel_da_lagoa_16_05_2024",
"crs": { "type": "name", "properties": { "name": "urn:ogc:def:crs:OGC:1.3:CRS84" } },
"features": [
{ "type": "Feature", "properties": { "co_cnes": 670065, "no_fantasia": "AMBULATORIO DE SAUDE LGBT", "municipio": "Rio Grande", "tp_unidade": 16.0, "tp_unidade_label": "Ambulatorio", "rua": "RUA MARECHAL FLORIANO PEIXOTO", "numero": "5", "complemento": null, "bairro": "CENTRO", "cep": 96200380, "vinc_sus": 1.0, "leitos_total": 0, "qtd_profissionais": 8, "endereco_geocode": "RUA MARECHAL FLORIANO PEIXOTO, 05, CENTRO, 96200380, Rio Grande - RS", "co_tipo_estabelecimento": "Ambulatório", "no_razao_social": "AMBULATORIO DE SAUDE LGBT", "staff_acs_endemias": 0, "staff_admin_gestao_apoio": 0, "staff_diag_lab_imagem": 0, "staff_enfermagem": 2, "staff_farmacia": 0, "staff_medicos": 1, "staff_odontologia": 0, "staff_outros": 2, "staff_outros_superior_saude": 2, "staff_servicos_gerais": 1, "staff_transporte_urgencia": 0 }, "geometry": { "type": "Point", "coordinates": [ -52.0900013, -32.0317049 ] } },
{ "type": "Feature", "properties": { "co_cnes": 656860, "no_fantasia": "CLINICA VITALITA", "municipio": "Rio Grande", "tp_unidade": 16.0, "tp_unidade_label": "Ambulatorio", "rua": "RUA BENJAMIN CONSTANT", "numero": "210", "complemento": null, "bairro": "CENTRO", "cep": 96200090, "vinc_sus": 0.0, "leitos_total": 0, "qtd_profissionais": 1, "endereco_geocode": "RUA BENJAMIN CONSTANT, 210, CENTRO, 96200090, Rio Grande - RS", "co_tipo_estabelecimento": "Ambulatório", "no_razao_social": "CLINICA VITALITA", "staff_acs_endemias": 0, "staff_admin_gestao_apoio": 0, "staff_diag_lab_imagem": 0, "staff_enfermagem": 0, "staff_farmacia": 0, "staff_medicos": 1, "staff_odontologia": 0, "staff_outros": 0, "staff_outros_superior_saude": 0, "staff_servicos_gerais": 0, "staff_transporte_urgencia": 0 }, "geometry": { "type": "Point", "coordinates": [ -52.0943684, -32.0369814 ] } },
{ "type": "Feature", "properties": { "co_cnes": 2818442, "no_fantasia": "POSTO DE PUERICULTURA DRA RITA LOBATO", "municipio": "Rio Grande", "tp_unidade": 1.0, "tp_unidade_label": "Unidade Basica de Saude", "rua": "RUA APELLES PORTO ALEGRE", "numero": "21", "complemento": null, "bairro": "CENTRO", "cep": 96201220, "vinc_sus": 1.0, "leitos_total": 0, "qtd_profissionais": 50, "endereco_geocode": "RUA APELLES PORTO ALEGRE, 21, CENTRO, 96201220, Rio Grande - RS", "co_tipo_estabelecimento": "Unidade Básica de Saúde", "no_razao_social": "POSTO DE PUERICULTURA DRA RITA LOBATO", "staff_acs_endemias": 4, "staff_admin_gestao_apoio": 0, "staff_diag_lab_imagem": 0, "staff_enfermagem": 18, "staff_farmacia": 0, "staff_medicos": 24, "staff_odontologia": 0, "staff_outros": 2, "staff_outros_superior_saude": 0, "staff_servicos_gerais": 2, "staff_transporte_urgencia": 0 }, "geometry": { "type": "Point", "coordinates": [ -52.09618091583252, -32.039821667868573 ] } },
{ "type": "Feature", "properties": { "co_cnes": 9233121, "no_fantasia": "CLINICA BROETTO LTDA EPP", "municipio": "Rio Grande", "tp_unidade": 16.0, "tp_unidade_label": "Ambulatorio", "rua": "DR NASCIMENTO", "numero": "418", "complemento": null, "bairro": "CENTRO", "cep": 96200300, "vinc_sus": 0.0, "leitos_total": 0, "qtd_profissionais": 3, "endereco_geocode": "DR NASCIMENTO, 418, CENTRO, 96200300, Rio Grande - RS", "co_tipo_estabelecimento": "Ambulatório", "no_razao_social": "CLINICA BROETTO LTDA EPP", "staff_acs_endemias": 0, "staff_admin_gestao_apoio": 2, "staff_diag_lab_imagem": 0, "staff_enfermagem": 0, "staff_farmacia": 0, "staff_medicos": 1, "staff_odontologia": 0, "staff_outros": 0, "staff_outros_superior_saude": 0, "staff_servicos_gerais": 0, "staff_transporte_urgencia": 0 }, "geometry": { "type": "Point", "coordinates": [ -52.0936824, -32.0370213 ] } },
{ "type": "Feature", "properties": { "co_cnes": 741361, "no_fantasia": "SAO JOAO FARMACIAS", "municipio": "Rio Grande", "tp_unidade": 9.0, "tp_unidade_label": "Farmacia", "rua": "R MAL FLORIANO PEIXOTO", "numero": "295", "complemento": null, "bairro": "CENTRO", "cep": 96200380, "vinc_sus": 0.0, "leitos_total": 0, "qtd_profissionais": 2, "endereco_geocode": "R MAL FLORIANO PEIXOTO, 295, CENTRO, 96200380, Rio Grande - RS", "co_tipo_estabelecimento": "Farmacia", "no_razao_social": "SAO JOAO FARMACIAS", "staff_acs_endemias": 0, "staff_admin_gestao_apoio": 0, "staff_diag_lab_imagem": 0, "staff_enfermagem": 0, "staff_farmacia": 2, "staff_medicos": 0, "staff_odontologia": 0, "staff_outros": 0, "staff_outros_superior_saude": 0, "staff_servicos_gerais": 0, "staff_transporte_urgencia": 0 }, "geometry": { "type": "Point", "coordinates": [ -52.095816135406494, -32.030908511034575 ] } },
{ "type": "Feature", "properties": { "co_cnes": 9037810, "no_fantasia": "GRUPO BR MED RIO GRANDE", "municipio": "Rio Grande", "tp_unidade": 16.0, "tp_unidade_label": "Ambulatorio", "rua": "AQUIDABAN", "numero": "746", "complemento": "C", "bairro": "CENTRO", "cep": 96200480, "vinc_sus": 0.0, "leitos_total": 0, "qtd_profissionais": 11, "endereco_geocode": "AQUIDABAN, 746, CENTRO, 96200480, Rio Grande - RS", "co_tipo_estabelecimento": "Ambulatório", "no_razao_social": "GRUPO BR MED RIO GRANDE", "staff_acs_endemias": 0, "staff_admin_gestao_apoio": 3, "staff_diag_lab_imagem": 0, "staff_enfermagem": 4, "staff_farmacia": 0, "staff_medicos": 1, "staff_odontologia": 0, "staff_outros": 1, "staff_outros_superior_saude": 1, "staff_servicos_gerais": 1, "staff_transporte_urgencia": 0 }, "geometry": { "type": "Point", "coordinates": [ -52.1053805, -32.032353 ] } },
{ "type": "Feature", "properties": { "co_cnes": 9732616, "no_fantasia": "CLINICA AMORSAUDE RIO GRANDE RS", "municipio": "Rio Grande", "tp_unidade": 16.0, "tp_unidade_label": "Ambulatorio", "rua": "MARECHAL FLORIANO", "numero": "323", "complemento": null, "bairro": "CENTRO", "cep": 96200380, "vinc_sus": 0.0, "leitos_total": 0, "qtd_profissionais": 76, "endereco_geocode": "MARECHAL FLORIANO, 323, CENTRO, 96200380, Rio Grande - RS", "co_tipo_estabelecimento": "Ambulatório", "no_razao_social": "CLINICA AMORSAUDE RIO GRANDE RS", "staff_acs_endemias": 0, "staff_admin_gestao_apoio": 24, "staff_diag_lab_imagem": 0, "staff_enfermagem": 1, "staff_farmacia": 0, "staff_medicos": 18, "staff_odontologia": 8, "staff_outros": 16, "staff_outros_superior_saude": 2, "staff_servicos_gerais": 7, "staff_transporte_urgencia": 0 }, "geometry": { "type": "Point", "coordinates": [ -52.094850540161133, -32.031035847955039 ] } },
{ "type": "Feature", "properties": { "co_cnes": 9913866, "no_fantasia": "AMBULATORIO TECON", "municipio": "Rio Grande", "tp_unidade": 16.0, "tp_unidade_label": "Ambulatorio", "rua": "AV ALMIRANTE MAXIMIANO DA FONSECA", "numero": "201", "complemento": null, "bairro": "ZONA PORTUARIA", "cep": 96204040, "vinc_sus": 0.0, "leitos_total": 0, "qtd_profissionais": 8, "endereco_geocode": "AV ALMIRANTE MAXIMIANO DA FONSECA, 201, ZONA PORTUARIA, 96204040, Rio Grande - RS", "co_tipo_estabelecimento": "Ambulatório", "no_razao_social": "AMBULATORIO TECON", "staff_acs_endemias": 0, "staff_admin_gestao_apoio": 0, "staff_diag_lab_imagem": 0, "staff_enfermagem": 5, "staff_farmacia": 0, "staff_medicos": 2, "staff_odontologia": 0, "staff_outros": 1, "staff_outros_superior_saude": 0, "staff_servicos_gerais": 0, "staff_transporte_urgencia": 0 }, "geometry": { "type": "Point", "coordinates": [ -52.095, -32.039 ] } },
{ "type": "Feature", "properties": { "co_cnes": 4080211, "no_fantasia": "MAYARA FONTOURA RITER", "municipio": "Rio Grande", "tp_unidade": 16.0, "tp_unidade_label": "Ambulatorio", "rua": "DR NASCIMENTO", "numero": "455", "complemento": null, "bairro": "CENTRO", "cep": 96200300, "vinc_sus": 0.0, "leitos_total": 0, "qtd_profissionais": 1, "endereco_geocode": "DR NASCIMENTO, 455, CENTRO, 96200300, Rio Grande - RS", "co_tipo_estabelecimento": "Ambulatório", "no_razao_social": "MAYARA FONTOURA RITER", "staff_acs_endemias": 0, "staff_admin_gestao_apoio": 0, "staff_diag_lab_imagem": 0, "staff_enfermagem": 0, "staff_farmacia": 0, "staff_medicos": 0, "staff_odontologia": 0, "staff_outros": 1, "staff_outros_superior_saude": 0, "staff_servicos_gerais": 0, "staff_transporte_urgencia": 0 }, "geometry": { "type": "Point", "coordinates": [ -52.097446918487549, -32.036383838733045 ] } },
{ "type": "Feature", "properties": { "co_cnes": 684252, "no_fantasia": "CEAT RIO GRANDE", "municipio": "Rio Grande", "tp_unidade": 15.0, "tp_unidade_label": "Unidade de Reabilitacao", "rua": "RUA REVOCATA DE MELLO", "numero": "15", "complemento": null, "bairro": "RESIDENCIAL SALGADO", "cep": 96201510, "vinc_sus": 1.0, "leitos_total": 0, "qtd_profissionais": 12, "endereco_geocode": "RUA REVOCATA DE MELLO, 15, RESIDENCIAL SALGADO, 96201510, Rio Grande - RS", "co_tipo_estabelecimento": "Unidade de Reabilitacao", "no_razao_social": "CEAT RIO GRANDE", "staff_acs_endemias": 0, "staff_admin_gestao_apoio": 5, "staff_diag_lab_imagem": 0, "staff_enfermagem": 0, "staff_farmacia": 0, "staff_medicos": 3, "staff_odontologia": 0, "staff_outros": 1, "staff_outros_superior_saude": 2, "staff_servicos_gerais": 1, "staff_transporte_urgencia": 0 }, "geometry": { "type": "Point", "coordinates": [ -52.091667, -32.0407038 ] } },
{ "type": "Feature", "properties": { "co_cnes": 847372, "no_fantasia": "PANVEL FARMACIAS", "municipio": "Rio Grande", "tp_unidade": 9.0, "tp_unidade_label": "Farmacia", "rua": "NAPOLEAO LAUREANO", "numero": "517", "complemento": "LOJA 01", "bairro": "CENTRO", "cep": 96200100, "vinc_sus": 0.0, "leitos_total": 0, "qtd_profissionais": 9, "endereco_geocode": "NAPOLEAO LAUREANO, 517, CENTRO, 96200100, Rio Grande - RS", "co_tipo_estabelecimento": "Farmacia", "no_razao_social": "PANVEL FARMACIAS", "staff_acs_endemias": 0, "staff_admin_gestao_apoio": 0, "staff_diag_lab_imagem": 0, "staff_enfermagem": 0, "staff_farmacia": 2, "staff_medicos": 0, "staff_odontologia": 0, "staff_outros": 2, "staff_outros_superior_saude": 0, "staff_servicos_gerais": 5, "staff_transporte_urgencia": 0 }, "geometry": { "type": "Point", "coordinates": [ -52.094120979309082, -32.039876235544234 ] } },
{ "type": "Feature", "properties": { "co_cnes": 3880702, "no_fantasia": "ALINE KOSINSKI DE OLIVEIRA ROCHA LTDA", "municipio": "Rio Grande", "tp_unidade": 16.0, "tp_unidade_label": "Ambulatorio", "rua": "RUA GOMES FREIRE", "numero": "589", "complemento": null, "bairro": "CENTRO", "cep": 96200470, "vinc_sus": 0.0, "leitos_total": 0, "qtd_profissionais": 1, "endereco_geocode": "RUA GOMES FREIRE, 589, CENTRO, 96200470, Rio Grande - RS", "co_tipo_estabelecimento": "Ambulatório", "no_razao_social": "ALINE KOSINSKI DE OLIVEIRA ROCHA LTDA", "staff_acs_endemias": 0, "staff_admin_gestao_apoio": 0, "staff_diag_lab_imagem": 0, "staff_enfermagem": 0, "staff_farmacia": 0, "staff_medicos": 1, "staff_odontologia": 0, "staff_outros": 0, "staff_outros_superior_saude": 0, "staff_servicos_gerais": 0, "staff_transporte_urgencia": 0 }, "geometry": { "type": "Point", "coordinates": [ -52.1039853, -32.0332074 ] } },
{ "type": "Feature", "properties": { "co_cnes": 2818388, "no_fantasia": "POLICLINICA DE ASSISTENCIA MEDICA PAM", "municipio": "Rio Grande", "tp_unidade": 16.0, "tp_unidade_label": "Ambulatorio", "rua": "RUA MARECHAL FLORIANO", "numero": "5", "complemento": null, "bairro": "CENTRO", "cep": 96201220, "vinc_sus": 1.0, "leitos_total": 0, "qtd_profissionais": 88, "endereco_geocode": "RUA MARECHAL FLORIANO, 5, CENTRO, 96201220, Rio Grande - RS", "co_tipo_estabelecimento": "Ambulatório", "no_razao_social": "POLICLINICA DE ASSISTENCIA MEDICA PAM", "staff_acs_endemias": 0, "staff_admin_gestao_apoio": 15, "staff_diag_lab_imagem": 0, "staff_enfermagem": 23, "staff_farmacia": 7, "staff_medicos": 10, "staff_odontologia": 3, "staff_outros": 7, "staff_outros_superior_saude": 7, "staff_servicos_gerais": 16, "staff_transporte_urgencia": 0 }, "geometry": { "type": "Point", "coordinates": [ -52.089550495147705, -32.032291016696988 ] } },
{ "type": "Feature", "properties": { "co_cnes": 3933741, "no_fantasia": "DRA MARILIA COTTA DE MELLO", "municipio": "Rio Grande", "tp_unidade": 16.0, "tp_unidade_label": "Ambulatorio", "rua": "RUA BARAO DE COTEGIPE", "numero": "443", "complemento": "SALA 515", "bairro": "CENTRO", "cep": 96200290, "vinc_sus": null, "leitos_total": 0, "qtd_profissionais": 0, "endereco_geocode": "RUA BARAO DE COTEGIPE, 443, CENTRO, 96200290, Rio Grande - RS", "co_tipo_estabelecimento": "Ambulatório", "no_razao_social": "DRA MARILIA COTTA DE MELLO", "staff_acs_endemias": 0, "staff_admin_gestao_apoio": 0, "staff_diag_lab_imagem": 0, "staff_enfermagem": 0, "staff_farmacia": 0, "staff_medicos": 0, "staff_odontologia": 0, "staff_outros": 0, "staff_outros_superior_saude": 0, "staff_servicos_gerais": 0, "staff_transporte_urgencia": 0 }, "geometry": { "type": "Point", "coordinates": [ -52.0977393, -32.0372939 ] } },
{ "type": "Feature", "properties": { "co_cnes": 3319571, "no_fantasia": "ALESSANDRA ISABEL ZILLE", "municipio": "Rio Grande", "tp_unidade": 16.0, "tp_unidade_label": "Ambulatorio", "rua": "RUA VISCONDE DE PARANAGUA", "numero": "17", "complemento": "SALA402", "bairro": "CENTRO", "cep": 96200190, "vinc_sus": 0.0, "leitos_total": 0, "qtd_profissionais": 1, "endereco_geocode": "RUA VISCONDE DE PARANAGUA, 17, CENTRO, 96200190, Rio Grande - RS", "co_tipo_estabelecimento": "Ambulatório", "no_razao_social": "ALESSANDRA ISABEL ZILLE", "staff_acs_endemias": 0, "staff_admin_gestao_apoio": 0, "staff_diag_lab_imagem": 0, "staff_enfermagem": 0, "staff_farmacia": 0, "staff_medicos": 1, "staff_odontologia": 0, "staff_outros": 0, "staff_outros_superior_saude": 0, "staff_servicos_gerais": 0, "staff_transporte_urgencia": 0 }, "geometry": { "type": "Point", "coordinates": [ -52.1017995, -32.0315278 ] } },
{ "type": "Feature", "properties": { "co_cnes": 950521, "no_fantasia": "ROGERIO HERNANDES SOUSA", "municipio": "Rio Grande", "tp_unidade": 16.0, "tp_unidade_label": "Ambulatorio", "rua": "MORON", "numero": "183", "complemento": null, "bairro": "CENTRO", "cep": 96200450, "vinc_sus": 0.0, "leitos_total": 0, "qtd_profissionais": 1, "endereco_geocode": "MORON, 183, CENTRO, 96200450, Rio Grande - RS", "co_tipo_estabelecimento": "Ambulatório", "no_razao_social": "ROGERIO HERNANDES SOUSA", "staff_acs_endemias": 0, "staff_admin_gestao_apoio": 0, "staff_diag_lab_imagem": 0, "staff_enfermagem": 0, "staff_farmacia": 0, "staff_medicos": 0, "staff_odontologia": 1, "staff_outros": 0, "staff_outros_superior_saude": 0, "staff_servicos_gerais": 0, "staff_transporte_urgencia": 0 }, "geometry": { "type": "Point", "coordinates": [ -52.107124328613281, -32.031918106040948 ] } },
{ "type": "Feature", "properties": { "co_cnes": 472735, "no_fantasia": "CLINICA CLARISSA RESENDE", "municipio": "Rio Grande", "tp_unidade": 16.0, "tp_unidade_label": "Ambulatorio", "rua": "RUA GENERAL CANABARRO", "numero": "454", "complemento": null, "bairro": "CENTRO", "cep": 96200200, "vinc_sus": 0.0, "leitos_total": 0, "qtd_profissionais": 1, "endereco_geocode": "RUA GENERAL CANABARRO, 454, CENTRO, 96200200, Rio Grande - RS", "co_tipo_estabelecimento": "Ambulatório", "no_razao_social": "CLINICA CLARISSA RESENDE", "staff_acs_endemias": 0, "staff_admin_gestao_apoio": 0, "staff_diag_lab_imagem": 0, "staff_enfermagem": 0, "staff_farmacia": 0, "staff_medicos": 1, "staff_odontologia": 0, "staff_outros": 0, "staff_outros_superior_saude": 0, "staff_servicos_gerais": 0, "staff_transporte_urgencia": 0 }, "geometry": { "type": "Point", "coordinates": [ -52.1032033, -32.0299999 ] } },
{ "type": "Feature", "properties": { "co_cnes": 9595333, "no_fantasia": "UNIMED LITORAL SULRS DEPART SAUDE OCUPACIONAL DSO", "municipio": "Rio Grande", "tp_unidade": 16.0, "tp_unidade_label": "Ambulatorio", "rua": "GENERAL OSORIO", "numero": "487", "complemento": "LETRA A", "bairro": "CENTRO", "cep": 96200400, "vinc_sus": 0.0, "leitos_total": 0, "qtd_profissionais": 2, "endereco_geocode": "GENERAL OSORIO, 487, CENTRO, 96200400, Rio Grande - RS", "co_tipo_estabelecimento": "Ambulatório", "no_razao_social": "UNIMED LITORAL SULRS DEPART SAUDE OCUPACIONAL DSO", "staff_acs_endemias": 0, "staff_admin_gestao_apoio": 0, "staff_diag_lab_imagem": 0, "staff_enfermagem": 0, "staff_farmacia": 0, "staff_medicos": 2, "staff_odontologia": 0, "staff_outros": 0, "staff_outros_superior_saude": 0, "staff_servicos_gerais": 0, "staff_transporte_urgencia": 0 }, "geometry": { "type": "Point", "coordinates": [ -52.098777294158936, -32.029944382891671 ] } },
{ "type": "Feature", "properties": { "co_cnes": 7830831, "no_fantasia": "CONSULTORIO DE PSICOLOGIA", "municipio": "Rio Grande", "tp_unidade": 16.0, "tp_unidade_label": "Ambulatorio", "rua": "AVENIDA PORTUGAL", "numero": "391", "complemento": null, "bairro": "CIDADE NOVA", "cep": 96211041, "vinc_sus": 0.0, "leitos_total": 0, "qtd_profissionais": 1, "endereco_geocode": "AVENIDA PORTUGAL, 391, CIDADE NOVA, 96211041, Rio Grande - RS", "co_tipo_estabelecimento": "Ambulatório", "no_razao_social": "CONSULTORIO DE PSICOLOGIA", "staff_acs_endemias": 0, "staff_admin_gestao_apoio": 0, "staff_diag_lab_imagem": 0, "staff_enfermagem": 0, "staff_farmacia": 0, "staff_medicos": 0, "staff_odontologia": 0, "staff_outros": 1, "staff_outros_superior_saude": 0, "staff_servicos_gerais": 0, "staff_transporte_urgencia": 0 }, "geometry": { "type": "Point", "coordinates": [ -52.1090866, -32.0331172 ] } },
{ "type": "Feature", "properties": { "co_cnes": 4038649, "no_fantasia": "CIEVS ESTRATEGICO", "municipio": "Rio Grande", "tp_unidade": 22.0, "tp_unidade_label": "Laboratorio de Saude Publica", "rua": "MAJOR CARLOS PINTO", "numero": "551", "complemento": "A", "bairro": "CENTRO", "cep": 96211021, "vinc_sus": 1.0, "leitos_total": 0, "qtd_profissionais": 4, "endereco_geocode": "MAJOR CARLOS PINTO, 551, CENTRO, 96211021, Rio Grande - RS", "co_tipo_estabelecimento": "Laboratorio de Saude Publica", "no_razao_social": "CIEVS ESTRATEGICO", "staff_acs_endemias": 1, "staff_admin_gestao_apoio": 0, "staff_diag_lab_imagem": 0, "staff_enfermagem": 1, "staff_farmacia": 0, "staff_medicos": 1, "staff_odontologia": 0, "staff_outros": 0, "staff_outros_superior_saude": 0, "staff_servicos_gerais": 0, "staff_transporte_urgencia": 1 }, "geometry": { "type": "Point", "coordinates": [ -52.1080247, -32.0325209 ] } },
{ "type": "Feature", "properties": { "co_cnes": 4042883, "no_fantasia": "NEUROEDUCANDO", "municipio": "Rio Grande", "tp_unidade": 16.0, "tp_unidade_label": "Ambulatorio", "rua": "BARAO DE COTEGIPE", "numero": "443", "complemento": "SALA 704 706 708 71", "bairro": "CENTRO", "cep": 96200290, "vinc_sus": 0.0, "leitos_total": 0, "qtd_profissionais": 1, "endereco_geocode": "BARAO DE COTEGIPE, 443, CENTRO, 96200290, Rio Grande - RS", "co_tipo_estabelecimento": "Ambulatório", "no_razao_social": "NEUROEDUCANDO", "staff_acs_endemias": 0, "staff_admin_gestao_apoio": 0, "staff_diag_lab_imagem": 0, "staff_enfermagem": 0, "staff_farmacia": 0, "staff_medicos": 0, "staff_odontologia": 0, "staff_outros": 0, "staff_outros_superior_saude": 1, "staff_servicos_gerais": 0, "staff_transporte_urgencia": 0 }, "geometry": { "type": "Point", "coordinates": [ -52.092189788818359, -32.035365197903189 ] } },
{ "type": "Feature", "properties": { "co_cnes": 4061861, "no_fantasia": "PANVEL FARMACIAS", "municipio": "Rio Grande", "tp_unidade": 9.0, "tp_unidade_label": "Farmacia", "rua": "VAL PORTO", "numero": "393", "complemento": null, "bairro": "PARQUE RESIDENCIAL C", "cep": 96202700, "vinc_sus": 0.0, "leitos_total": 0, "qtd_profissionais": 4, "endereco_geocode": "VAL PORTO, 393, PARQUE RESIDENCIAL C, 96202700, Rio Grande - RS", "co_tipo_estabelecimento": "Farmacia", "no_razao_social": "PANVEL FARMACIAS", "staff_acs_endemias": 0, "staff_admin_gestao_apoio": 0, "staff_diag_lab_imagem": 0, "staff_enfermagem": 0, "staff_farmacia": 3, "staff_medicos": 0, "staff_odontologia": 0, "staff_outros": 1, "staff_outros_superior_saude": 0, "staff_servicos_gerais": 0, "staff_transporte_urgencia": 0 }, "geometry": { "type": "Point", "coordinates": [ -52.098455429077148, -32.041285889226238 ] } },
{ "type": "Feature", "properties": { "co_cnes": 6743684, "no_fantasia": "PURA MEDICINA", "municipio": "Rio Grande", "tp_unidade": 16.0, "tp_unidade_label": "Ambulatorio", "rua": "AVENIDA MAJOR CARLOS PINTO", "numero": "422", "complemento": null, "bairro": "CIDADE NOVA", "cep": 96211020, "vinc_sus": 0.0, "leitos_total": 0, "qtd_profissionais": 1, "endereco_geocode": "AVENIDA MAJOR CARLOS PINTO, 422, CIDADE NOVA, 96211020, Rio Grande - RS", "co_tipo_estabelecimento": "Ambulatório", "no_razao_social": "PURA MEDICINA", "staff_acs_endemias": 0, "staff_admin_gestao_apoio": 0, "staff_diag_lab_imagem": 0, "staff_enfermagem": 0, "staff_farmacia": 0, "staff_medicos": 1, "staff_odontologia": 0, "staff_outros": 0, "staff_outros_superior_saude": 0, "staff_servicos_gerais": 0, "staff_transporte_urgencia": 0 }, "geometry": { "type": "Point", "coordinates": [ -52.10615873336792, -32.035619859173032 ] } },
{ "type": "Feature", "properties": { "co_cnes": 4011813, "no_fantasia": "LUIZ EDUARDO SCHEIN SERVICOS MEDICOS LTDA", "municipio": "Rio Grande", "tp_unidade": 16.0, "tp_unidade_label": "Ambulatorio", "rua": "AQUIDABAN", "numero": "684", "complemento": "APT 1101", "bairro": "CENTRO", "cep": 96200480, "vinc_sus": 0.0, "leitos_total": 0, "qtd_profissionais": 1, "endereco_geocode": "AQUIDABAN, 684, CENTRO, 96200480, Rio Grande - RS", "co_tipo_estabelecimento": "Ambulatório", "no_razao_social": "LUIZ EDUARDO SCHEIN SERVICOS MEDICOS LTDA", "staff_acs_endemias": 0, "staff_admin_gestao_apoio": 0, "staff_diag_lab_imagem": 0, "staff_enfermagem": 0, "staff_farmacia": 0, "staff_medicos": 1, "staff_odontologia": 0, "staff_outros": 0, "staff_outros_superior_saude": 0, "staff_servicos_gerais": 0, "staff_transporte_urgencia": 0 }, "geometry": { "type": "Point", "coordinates": [ -52.104763984680176, -32.032309207421861 ] } },
{ "type": "Feature", "properties": { "co_cnes": 4036360, "no_fantasia": "UNIMED LITORAL SUL RS CENTRO DE DIAGNOSTICO POR IMAGE", "municipio": "Rio Grande", "tp_unidade": 16.0, "tp_unidade_label": "Ambulatorio", "rua": "AQUIDABAN", "numero": "692", "complemento": null, "bairro": "CENTRO", "cep": 96200480, "vinc_sus": 0.0, "leitos_total": 0, "qtd_profissionais": 16, "endereco_geocode": "AQUIDABAN, 692, CENTRO, 96200480, Rio Grande - RS", "co_tipo_estabelecimento": "Ambulatório", "no_razao_social": "UNIMED LITORAL SUL RS CENTRO DE DIAGNOSTICO POR IMAGE", "staff_acs_endemias": 0, "staff_admin_gestao_apoio": 4, "staff_diag_lab_imagem": 0, "staff_enfermagem": 1, "staff_farmacia": 0, "staff_medicos": 7, "staff_odontologia": 0, "staff_outros": 4, "staff_outros_superior_saude": 0, "staff_servicos_gerais": 0, "staff_transporte_urgencia": 0 }, "geometry": { "type": "Point", "coordinates": [ -52.103605270385742, -32.032163681521773 ] } },
{ "type": "Feature", "properties": { "co_cnes": 472719, "no_fantasia": "CONSULTORIO EDUARDA PAVAO XAVIER", "municipio": "Rio Grande", "tp_unidade": 16.0, "tp_unidade_label": "Ambulatorio", "rua": "RUA GENERAL BACELAR", "numero": "378", "complemento": "SALA 701", "bairro": "CENTRO", "cep": 96200370, "vinc_sus": null, "leitos_total": 0, "qtd_profissionais": 0, "endereco_geocode": "RUA GENERAL BACELAR, 378, CENTRO, 96200370, Rio Grande - RS", "co_tipo_estabelecimento": "Ambulatório", "no_razao_social": "CONSULTORIO EDUARDA PAVAO XAVIER", "staff_acs_endemias": 0, "staff_admin_gestao_apoio": 0, "staff_diag_lab_imagem": 0, "staff_enfermagem": 0, "staff_farmacia": 0, "staff_medicos": 0, "staff_odontologia": 0, "staff_outros": 0, "staff_outros_superior_saude": 0, "staff_servicos_gerais": 0, "staff_transporte_urgencia": 0 }, "geometry": { "type": "Point", "coordinates": [ -52.0912098, -32.0321568 ] } },
{ "type": "Feature", "properties": { "co_cnes": 164135, "no_fantasia": "CLINICA ONCOFISIO", "municipio": "Rio Grande", "tp_unidade": 16.0, "tp_unidade_label": "Ambulatorio", "rua": "MAJOR MIGUEL PEREIRA", "numero": "16", "complemento": null, "bairro": "PARQUE RESIDENCIAL S", "cep": 96201520, "vinc_sus": 0.0, "leitos_total": 0, "qtd_profissionais": 2, "endereco_geocode": "MAJOR MIGUEL PEREIRA, 16, PARQUE RESIDENCIAL S, 96201520, Rio Grande - RS", "co_tipo_estabelecimento": "Ambulatório", "no_razao_social": "CLINICA ONCOFISIO", "staff_acs_endemias": 0, "staff_admin_gestao_apoio": 0, "staff_diag_lab_imagem": 0, "staff_enfermagem": 0, "staff_farmacia": 0, "staff_medicos": 0, "staff_odontologia": 0, "staff_outros": 1, "staff_outros_superior_saude": 1, "staff_servicos_gerais": 0, "staff_transporte_urgencia": 0 }, "geometry": { "type": "Point", "coordinates": [ -52.0932244, -32.0411472 ] } },
{ "type": "Feature", "properties": { "co_cnes": 5250080, "no_fantasia": "ADRIANA CAMERINI", "municipio": "Rio Grande", "tp_unidade": 16.0, "tp_unidade_label": "Ambulatorio", "rua": "ZALONY", "numero": "160", "complemento": "503", "bairro": "CENTRO", "cep": 96200070, "vinc_sus": 0.0, "leitos_total": 0, "qtd_profissionais": 1, "endereco_geocode": "ZALONY, 160, CENTRO, 96200070, Rio Grande - RS", "co_tipo_estabelecimento": "Ambulatório", "no_razao_social": "ADRIANA CAMERINI", "staff_acs_endemias": 0, "staff_admin_gestao_apoio": 0, "staff_diag_lab_imagem": 0, "staff_enfermagem": 0, "staff_farmacia": 0, "staff_medicos": 0, "staff_odontologia": 1, "staff_outros": 0, "staff_outros_superior_saude": 0, "staff_servicos_gerais": 0, "staff_transporte_urgencia": 0 }, "geometry": { "type": "Point", "coordinates": [ -52.0956658, -32.0367217 ] } },
{ "type": "Feature", "properties": { "co_cnes": 3535541, "no_fantasia": "LABORATORIO LUNAV", "municipio": "Rio Grande", "tp_unidade": 18.0, "tp_unidade_label": "Unidade de Apoio Diagnostico", "rua": "RUA AQUIDABAN", "numero": "697", "complemento": null, "bairro": "CENTRO", "cep": 96200480, "vinc_sus": 0.0, "leitos_total": 0, "qtd_profissionais": 53, "endereco_geocode": "RUA AQUIDABAN, 697, CENTRO, 96200480, Rio Grande - RS", "co_tipo_estabelecimento": "Unidade de Apoio Diagnostico", "no_razao_social": "LABORATORIO LUNAV", "staff_acs_endemias": 0, "staff_admin_gestao_apoio": 17, "staff_diag_lab_imagem": 0, "staff_enfermagem": 0, "staff_farmacia": 3, "staff_medicos": 0, "staff_odontologia": 0, "staff_outros": 13, "staff_outros_superior_saude": 0, "staff_servicos_gerais": 20, "staff_transporte_urgencia": 0 }, "geometry": { "type": "Point", "coordinates": [ -52.1053805, -32.032353 ] } },
{ "type": "Feature", "properties": { "co_cnes": 2232987, "no_fantasia": "CEAT", "municipio": "Rio Grande", "tp_unidade": 19.0, "tp_unidade_label": "Unidade de Terapias Especiais", "rua": "AVENIDA SENADOR SALGADO FILHO", "numero": "133", "complemento": null, "bairro": "SALGADO FILHO", "cep": 96201610, "vinc_sus": null, "leitos_total": 0, "qtd_profissionais": 0, "endereco_geocode": "AVENIDA SENADOR SALGADO FILHO, 133, SALGADO FILHO, 96201610, Rio Grande - RS", "co_tipo_estabelecimento": "Unidade de Terapias Especiais", "no_razao_social": "CEAT", "staff_acs_endemias": 0, "staff_admin_gestao_apoio": 0, "staff_diag_lab_imagem": 0, "staff_enfermagem": 0, "staff_farmacia": 0, "staff_medicos": 0, "staff_odontologia": 0, "staff_outros": 0, "staff_outros_superior_saude": 0, "staff_servicos_gerais": 0, "staff_transporte_urgencia": 0 }, "geometry": { "type": "Point", "coordinates": [ -52.091611599999965, -32.0395605 ] } },
{ "type": "Feature", "properties": { "co_cnes": 6303587, "no_fantasia": "CHRISTIANE VENSKE", "municipio": "Rio Grande", "tp_unidade": 16.0, "tp_unidade_label": "Ambulatorio", "rua": "GOMES FREIRE", "numero": "728", "complemento": "CJ 102", "bairro": "CENTRO", "cep": 96200470, "vinc_sus": 0.0, "leitos_total": 0, "qtd_profissionais": 1, "endereco_geocode": "GOMES FREIRE, 728, CENTRO, 96200470, Rio Grande - RS", "co_tipo_estabelecimento": "Ambulatório", "no_razao_social": "CHRISTIANE VENSKE", "staff_acs_endemias": 0, "staff_admin_gestao_apoio": 0, "staff_diag_lab_imagem": 0, "staff_enfermagem": 0, "staff_farmacia": 0, "staff_medicos": 1, "staff_odontologia": 0, "staff_outros": 0, "staff_outros_superior_saude": 0, "staff_servicos_gerais": 0, "staff_transporte_urgencia": 0 }, "geometry": { "type": "Point", "coordinates": [ -52.10390567779541, -32.03312778630098 ] } },
{ "type": "Feature", "properties": { "co_cnes": 3295885, "no_fantasia": "ENDOCENTRO", "municipio": "Rio Grande", "tp_unidade": 16.0, "tp_unidade_label": "Ambulatorio", "rua": "AQUIDABAN", "numero": "689", "complemento": "SALA 06", "bairro": "CENTRO", "cep": 96200200, "vinc_sus": 0.0, "leitos_total": 0, "qtd_profissionais": 4, "endereco_geocode": "AQUIDABAN, 689, CENTRO, 96200200, Rio Grande - RS", "co_tipo_estabelecimento": "Ambulatório", "no_razao_social": "ENDOCENTRO", "staff_acs_endemias": 0, "staff_admin_gestao_apoio": 0, "staff_diag_lab_imagem": 0, "staff_enfermagem": 0, "staff_farmacia": 0, "staff_medicos": 3, "staff_odontologia": 0, "staff_outros": 1, "staff_outros_superior_saude": 0, "staff_servicos_gerais": 0, "staff_transporte_urgencia": 0 }, "geometry": { "type": "Point", "coordinates": [ -52.1032033, -32.0299999 ] } },
{ "type": "Feature", "properties": { "co_cnes": 664502, "no_fantasia": "CLINICA DRA VIVIAN BERTOGLIO", "municipio": "Rio Grande", "tp_unidade": 16.0, "tp_unidade_label": "Ambulatorio", "rua": "RUA BARAO DE COTEGIPE", "numero": "443", "complemento": null, "bairro": "CENTRO", "cep": 96200290, "vinc_sus": 0.0, "leitos_total": 0, "qtd_profissionais": 4, "endereco_geocode": "RUA BARAO DE COTEGIPE, 443, CENTRO, 96200290, Rio Grande - RS", "co_tipo_estabelecimento": "Ambulatório", "no_razao_social": "CLINICA DRA VIVIAN BERTOGLIO", "staff_acs_endemias": 0, "staff_admin_gestao_apoio": 0, "staff_diag_lab_imagem": 0, "staff_enfermagem": 0, "staff_farmacia": 0, "staff_medicos": 0, "staff_odontologia": 4, "staff_outros": 0, "staff_outros_superior_saude": 0, "staff_servicos_gerais": 0, "staff_transporte_urgencia": 0 }, "geometry": { "type": "Point", "coordinates": [ -52.0977644, -32.037279 ] } },
{ "type": "Feature", "properties": { "co_cnes": 804762, "no_fantasia": "GASTROCLINICA", "municipio": "Rio Grande", "tp_unidade": 16.0, "tp_unidade_label": "Ambulatorio", "rua": "RUA GENERAL VITORINO", "numero": "690", "complemento": null, "bairro": "CENTRO", "cep": 96200310, "vinc_sus": 0.0, "leitos_total": 0, "qtd_profissionais": 1, "endereco_geocode": "RUA GENERAL VITORINO, 690, CENTRO, 96200310, Rio Grande - RS", "co_tipo_estabelecimento": "Ambulatório", "no_razao_social": "GASTROCLINICA", "staff_acs_endemias": 0, "staff_admin_gestao_apoio": 0, "staff_diag_lab_imagem": 0, "staff_enfermagem": 0, "staff_farmacia": 0, "staff_medicos": 1, "staff_odontologia": 0, "staff_outros": 0, "staff_outros_superior_saude": 0, "staff_servicos_gerais": 0, "staff_transporte_urgencia": 0 }, "geometry": { "type": "Point", "coordinates": [ -52.0935215, -32.0361452 ] } },
{ "type": "Feature", "properties": { "co_cnes": 4038088, "no_fantasia": "GTFARMA MANIPULACAO", "municipio": "Rio Grande", "tp_unidade": 19.0, "tp_unidade_label": "Unidade de Terapias Especiais", "rua": "GENERAL BACELAR", "numero": "134", "complemento": null, "bairro": "CENTRO", "cep": 96200370, "vinc_sus": 0.0, "leitos_total": 0, "qtd_profissionais": 5, "endereco_geocode": "GENERAL BACELAR, 134, CENTRO, 96200370, Rio Grande - RS", "co_tipo_estabelecimento": "Unidade de Terapias Especiais", "no_razao_social": "GTFARMA MANIPULACAO", "staff_acs_endemias": 0, "staff_admin_gestao_apoio": 0, "staff_diag_lab_imagem": 0, "staff_enfermagem": 0, "staff_farmacia": 1, "staff_medicos": 0, "staff_odontologia": 0, "staff_outros": 1, "staff_outros_superior_saude": 0, "staff_servicos_gerais": 3, "staff_transporte_urgencia": 0 }, "geometry": { "type": "Point", "coordinates": [ -52.0912098, -32.0321568 ] } },
{ "type": "Feature", "properties": { "co_cnes": 2884968, "no_fantasia": "ARYANE CAMARGO PEREIRA", "municipio": "Rio Grande", "tp_unidade": 16.0, "tp_unidade_label": "Ambulatorio", "rua": "GENERAL BACELAR", "numero": "378", "complemento": "SALA 701", "bairro": "CENTRO", "cep": 96200370, "vinc_sus": 0.0, "leitos_total": 0, "qtd_profissionais": 1, "endereco_geocode": "GENERAL BACELAR, 378, CENTRO, 96200370, Rio Grande - RS", "co_tipo_estabelecimento": "Ambulatório", "no_razao_social": "ARYANE CAMARGO PEREIRA", "staff_acs_endemias": 0, "staff_admin_gestao_apoio": 0, "staff_diag_lab_imagem": 0, "staff_enfermagem": 0, "staff_farmacia": 0, "staff_medicos": 0, "staff_odontologia": 0, "staff_outros": 1, "staff_outros_superior_saude": 0, "staff_servicos_gerais": 0, "staff_transporte_urgencia": 0 }, "geometry": { "type": "Point", "coordinates": [ -52.0912098, -32.0321568 ] } },
{ "type": "Feature", "properties": { "co_cnes": 2867451, "no_fantasia": "FER RAD SERVICOS DE RADIOLOGIA", "municipio": "Rio Grande", "tp_unidade": 16.0, "tp_unidade_label": "Ambulatorio", "rua": "DOUTORA RITA LOBATO", "numero": "119", "complemento": null, "bairro": "LAR GAUCHO", "cep": 96202380, "vinc_sus": 0.0, "leitos_total": 0, "qtd_profissionais": 2, "endereco_geocode": "DOUTORA RITA LOBATO, 119, LAR GAUCHO, 96202380, Rio Grande - RS", "co_tipo_estabelecimento": "Ambulatório", "no_razao_social": "FER RAD SERVICOS DE RADIOLOGIA", "staff_acs_endemias": 0, "staff_admin_gestao_apoio": 0, "staff_diag_lab_imagem": 0, "staff_enfermagem": 0, "staff_farmacia": 0, "staff_medicos": 0, "staff_odontologia": 0, "staff_outros": 2, "staff_outros_superior_saude": 0, "staff_servicos_gerais": 0, "staff_transporte_urgencia": 0 }, "geometry": { "type": "Point", "coordinates": [ -52.093391418457031, -32.046314992911803 ] } },
{ "type": "Feature", "properties": { "co_cnes": 2849763, "no_fantasia": "TOP CLINICA", "municipio": "Rio Grande", "tp_unidade": 18.0, "tp_unidade_label": "Unidade de Apoio Diagnostico", "rua": "EWBANK", "numero": "7", "complemento": null, "bairro": "CENTRO", "cep": 96200080, "vinc_sus": 0.0, "leitos_total": 0, "qtd_profissionais": 8, "endereco_geocode": "EWBANK, 7, CENTRO, 96200080, Rio Grande - RS", "co_tipo_estabelecimento": "Unidade de Apoio Diagnostico", "no_razao_social": "TOP CLINICA", "staff_acs_endemias": 0, "staff_admin_gestao_apoio": 4, "staff_diag_lab_imagem": 0, "staff_enfermagem": 1, "staff_farmacia": 0, "staff_medicos": 1, "staff_odontologia": 0, "staff_outros": 2, "staff_outros_superior_saude": 0, "staff_servicos_gerais": 0, "staff_transporte_urgencia": 0 }, "geometry": { "type": "Point", "coordinates": [ -52.09416389465332, -32.030180868092579 ] } },
{ "type": "Feature", "properties": { "co_cnes": 262129, "no_fantasia": "SUPPORT LIFE", "municipio": "Rio Grande", "tp_unidade": 16.0, "tp_unidade_label": "Ambulatorio", "rua": "ZALONY", "numero": "479", "complemento": null, "bairro": "CENTRO", "cep": 96200070, "vinc_sus": 0.0, "leitos_total": 0, "qtd_profissionais": 3, "endereco_geocode": "ZALONY, 479, CENTRO, 96200070, Rio Grande - RS", "co_tipo_estabelecimento": "Ambulatório", "no_razao_social": "SUPPORT LIFE", "staff_acs_endemias": 0, "staff_admin_gestao_apoio": 0, "staff_diag_lab_imagem": 0, "staff_enfermagem": 2, "staff_farmacia": 0, "staff_medicos": 0, "staff_odontologia": 0, "staff_outros": 1, "staff_outros_superior_saude": 0, "staff_servicos_gerais": 0, "staff_transporte_urgencia": 0 }, "geometry": { "type": "Point", "coordinates": [ -52.0956658, -32.0367217 ] } },
{ "type": "Feature", "properties": { "co_cnes": 773530, "no_fantasia": "ANALISA LABORATORIO", "municipio": "Rio Grande", "tp_unidade": 18.0, "tp_unidade_label": "Unidade de Apoio Diagnostico", "rua": "AVENIDA PORTUGAL", "numero": "213", "complemento": "SALA 01", "bairro": "CIDADE NOVA", "cep": 96211041, "vinc_sus": 0.0, "leitos_total": 0, "qtd_profissionais": 1, "endereco_geocode": "AVENIDA PORTUGAL, 213, CIDADE NOVA, 96211041, Rio Grande - RS", "co_tipo_estabelecimento": "Unidade de Apoio Diagnostico", "no_razao_social": "ANALISA LABORATORIO", "staff_acs_endemias": 0, "staff_admin_gestao_apoio": 0, "staff_diag_lab_imagem": 0, "staff_enfermagem": 0, "staff_farmacia": 1, "staff_medicos": 0, "staff_odontologia": 0, "staff_outros": 0, "staff_outros_superior_saude": 0, "staff_servicos_gerais": 0, "staff_transporte_urgencia": 0 }, "geometry": { "type": "Point", "coordinates": [ -52.110836505889893, -32.033709882385537 ] } },
{ "type": "Feature", "properties": { "co_cnes": 4080203, "no_fantasia": "ELAINE VIEIRA NEVES", "municipio": "Rio Grande", "tp_unidade": 16.0, "tp_unidade_label": "Ambulatorio", "rua": "AQUIDABAN", "numero": "714", "complemento": "SALA 79", "bairro": "CENTRO", "cep": 96200210, "vinc_sus": 0.0, "leitos_total": 0, "qtd_profissionais": 1, "endereco_geocode": "AQUIDABAN, 714, CENTRO, 96200210, Rio Grande - RS", "co_tipo_estabelecimento": "Ambulatório", "no_razao_social": "ELAINE VIEIRA NEVES", "staff_acs_endemias": 0, "staff_admin_gestao_apoio": 0, "staff_diag_lab_imagem": 0, "staff_enfermagem": 0, "staff_farmacia": 0, "staff_medicos": 0, "staff_odontologia": 0, "staff_outros": 1, "staff_outros_superior_saude": 0, "staff_servicos_gerais": 0, "staff_transporte_urgencia": 0 }, "geometry": { "type": "Point", "coordinates": [ -52.104871273040771, -32.032309207421861 ] } },
{ "type": "Feature", "properties": { "co_cnes": 4092554, "no_fantasia": "SALA DE IMUNIZACAO", "municipio": "Rio Grande", "tp_unidade": 25.0, "tp_unidade_label": "Centro de Imunizacao", "rua": "MAJOR CARLOS PINTO", "numero": "551", "complemento": null, "bairro": "CENTRO", "cep": 96211020, "vinc_sus": 1.0, "leitos_total": 0, "qtd_profissionais": 1, "endereco_geocode": "MAJOR CARLOS PINTO, 551, CENTRO, 96211020, Rio Grande - RS", "co_tipo_estabelecimento": "Centro de Imunizacao", "no_razao_social": "SALA DE IMUNIZACAO", "staff_acs_endemias": 0, "staff_admin_gestao_apoio": 0, "staff_diag_lab_imagem": 0, "staff_enfermagem": 1, "staff_farmacia": 0, "staff_medicos": 0, "staff_odontologia": 0, "staff_outros": 0, "staff_outros_superior_saude": 0, "staff_servicos_gerais": 0, "staff_transporte_urgencia": 0 }, "geometry": { "type": "Point", "coordinates": [ -52.1051497, -32.0369267 ] } },
{ "type": "Feature", "properties": { "co_cnes": 3395952, "no_fantasia": "SIMONE PERES FUCOLO", "municipio": "Rio Grande", "tp_unidade": 16.0, "tp_unidade_label": "Ambulatorio", "rua": "AVENIDA SILVA PAES", "numero": "369", "complemento": "APTO 801", "bairro": "CENTRO", "cep": 96200340, "vinc_sus": 0.0, "leitos_total": 0, "qtd_profissionais": 1, "endereco_geocode": "AVENIDA SILVA PAES, 369, CENTRO, 96200340, Rio Grande - RS", "co_tipo_estabelecimento": "Ambulatório", "no_razao_social": "SIMONE PERES FUCOLO", "staff_acs_endemias": 0, "staff_admin_gestao_apoio": 0, "staff_diag_lab_imagem": 0, "staff_enfermagem": 0, "staff_farmacia": 0, "staff_medicos": 0, "staff_odontologia": 0, "staff_outros": 1, "staff_outros_superior_saude": 0, "staff_servicos_gerais": 0, "staff_transporte_urgencia": 0 }, "geometry": { "type": "Point", "coordinates": [ -52.0879346, -32.0347267 ] } },
{ "type": "Feature", "properties": { "co_cnes": 425257, "no_fantasia": "CONSULTORIO ODONTOLOGICO DRA ANDREA DA ROCHA CARVALHO", "municipio": "Rio Grande", "tp_unidade": 16.0, "tp_unidade_label": "Ambulatorio", "rua": "RUA ZALONY", "numero": "160", "complemento": "SALA 505", "bairro": "CENTRO", "cep": 96200070, "vinc_sus": 0.0, "leitos_total": 0, "qtd_profissionais": 1, "endereco_geocode": "RUA ZALONY, 160, CENTRO, 96200070, Rio Grande - RS", "co_tipo_estabelecimento": "Ambulatório", "no_razao_social": "CONSULTORIO ODONTOLOGICO DRA ANDREA DA ROCHA CARVALHO", "staff_acs_endemias": 0, "staff_admin_gestao_apoio": 0, "staff_diag_lab_imagem": 0, "staff_enfermagem": 0, "staff_farmacia": 0, "staff_medicos": 0, "staff_odontologia": 1, "staff_outros": 0, "staff_outros_superior_saude": 0, "staff_servicos_gerais": 0, "staff_transporte_urgencia": 0 }, "geometry": { "type": "Point", "coordinates": [ -52.0956658, -32.0367217 ] } },
{ "type": "Feature", "properties": { "co_cnes": 974412, "no_fantasia": "TCHE DA PORTUGAL", "municipio": "Rio Grande", "tp_unidade": 9.0, "tp_unidade_label": "Farmacia", "rua": "AV PORTUGAL", "numero": "279", "complemento": null, "bairro": "CIDADE NOVA", "cep": 96211041, "vinc_sus": 0.0, "leitos_total": 0, "qtd_profissionais": 2, "endereco_geocode": "AV PORTUGAL, 279, CIDADE NOVA, 96211041, Rio Grande - RS", "co_tipo_estabelecimento": "Farmacia", "no_razao_social": "TCHE DA PORTUGAL", "staff_acs_endemias": 0, "staff_admin_gestao_apoio": 0, "staff_diag_lab_imagem": 0, "staff_enfermagem": 0, "staff_farmacia": 1, "staff_medicos": 0, "staff_odontologia": 0, "staff_outros": 0, "staff_outros_superior_saude": 0, "staff_servicos_gerais": 1, "staff_transporte_urgencia": 0 }, "geometry": { "type": "Point", "coordinates": [ -52.1082071, -32.0330137 ] } },
{ "type": "Feature", "properties": { "co_cnes": 637130, "no_fantasia": "SAO JOAO FARMACIAS", "municipio": "Rio Grande", "tp_unidade": 9.0, "tp_unidade_label": "Farmacia", "rua": "RUA GENERAL BACELAR", "numero": "291", "complemento": null, "bairro": "CENTRO", "cep": 96200370, "vinc_sus": 0.0, "leitos_total": 0, "qtd_profissionais": 1, "endereco_geocode": "RUA GENERAL BACELAR, 291, CENTRO, 96200370, Rio Grande - RS", "co_tipo_estabelecimento": "Farmacia", "no_razao_social": "SAO JOAO FARMACIAS", "staff_acs_endemias": 0, "staff_admin_gestao_apoio": 0, "staff_diag_lab_imagem": 0, "staff_enfermagem": 0, "staff_farmacia": 1, "staff_medicos": 0, "staff_odontologia": 0, "staff_outros": 0, "staff_outros_superior_saude": 0, "staff_servicos_gerais": 0, "staff_transporte_urgencia": 0 }, "geometry": { "type": "Point", "coordinates": [ -52.0912098, -32.0321568 ] } },
{ "type": "Feature", "properties": { "co_cnes": 446386, "no_fantasia": "CONSULTORIO ODONTOLOGICO GABRIELA FONINI", "municipio": "Rio Grande", "tp_unidade": 16.0, "tp_unidade_label": "Ambulatorio", "rua": "BARAO DE COTEGIPE", "numero": "443", "complemento": "1210", "bairro": "CENTRO", "cep": 96200290, "vinc_sus": 0.0, "leitos_total": 0, "qtd_profissionais": 1, "endereco_geocode": "BARAO DE COTEGIPE, 443, CENTRO, 96200290, Rio Grande - RS", "co_tipo_estabelecimento": "Ambulatório", "no_razao_social": "CONSULTORIO ODONTOLOGICO GABRIELA FONINI", "staff_acs_endemias": 0, "staff_admin_gestao_apoio": 0, "staff_diag_lab_imagem": 0, "staff_enfermagem": 0, "staff_farmacia": 0, "staff_medicos": 0, "staff_odontologia": 1, "staff_outros": 0, "staff_outros_superior_saude": 0, "staff_servicos_gerais": 0, "staff_transporte_urgencia": 0 }, "geometry": { "type": "Point", "coordinates": [ -52.098837115341617, -32.037045265182471 ] } },
{ "type": "Feature", "properties": { "co_cnes": 3896129, "no_fantasia": "CLINICA SA MEDICINA E FISIOTERAPIA LTDA", "municipio": "Rio Grande", "tp_unidade": 16.0, "tp_unidade_label": "Ambulatorio", "rua": "AVENIDA MAJOR CARLOS PINTO", "numero": "411", "complemento": null, "bairro": "CIDADE NOVA", "cep": 96211020, "vinc_sus": 0.0, "leitos_total": 0, "qtd_profissionais": 2, "endereco_geocode": "AVENIDA MAJOR CARLOS PINTO, 411, CIDADE NOVA, 96211020, Rio Grande - RS", "co_tipo_estabelecimento": "Ambulatório", "no_razao_social": "CLINICA SA MEDICINA E FISIOTERAPIA LTDA", "staff_acs_endemias": 0, "staff_admin_gestao_apoio": 0, "staff_diag_lab_imagem": 0, "staff_enfermagem": 0, "staff_farmacia": 0, "staff_medicos": 1, "staff_odontologia": 0, "staff_outros": 0, "staff_outros_superior_saude": 1, "staff_servicos_gerais": 0, "staff_transporte_urgencia": 0 }, "geometry": { "type": "Point", "coordinates": [ -52.1080247, -32.0325209 ] } },
{ "type": "Feature", "properties": { "co_cnes": 3739821, "no_fantasia": "FONOCLIN", "municipio": "Rio Grande", "tp_unidade": 16.0, "tp_unidade_label": "Ambulatorio", "rua": "RUA AQUIDABAN", "numero": "683", "complemento": null, "bairro": "CENTRO", "cep": 96200480, "vinc_sus": 0.0, "leitos_total": 0, "qtd_profissionais": 1, "endereco_geocode": "RUA AQUIDABAN, 683, CENTRO, 96200480, Rio Grande - RS", "co_tipo_estabelecimento": "Ambulatório", "no_razao_social": "FONOCLIN", "staff_acs_endemias": 0, "staff_admin_gestao_apoio": 0, "staff_diag_lab_imagem": 0, "staff_enfermagem": 0, "staff_farmacia": 0, "staff_medicos": 0, "staff_odontologia": 0, "staff_outros": 0, "staff_outros_superior_saude": 1, "staff_servicos_gerais": 0, "staff_transporte_urgencia": 0 }, "geometry": { "type": "Point", "coordinates": [ -52.1050185, -32.0323159 ] } },
{ "type": "Feature", "properties": { "co_cnes": 4062558, "no_fantasia": "PSICOLOGA LUCILENE GULARTE DO AMARAL", "municipio": "Rio Grande", "tp_unidade": 16.0, "tp_unidade_label": "Ambulatorio", "rua": "CARAMURU", "numero": "147", "complemento": null, "bairro": "CIDADE NOVA", "cep": 96211500, "vinc_sus": 0.0, "leitos_total": 0, "qtd_profissionais": 1, "endereco_geocode": "CARAMURU, 147, CIDADE NOVA, 96211500, Rio Grande - RS", "co_tipo_estabelecimento": "Ambulatório", "no_razao_social": "PSICOLOGA LUCILENE GULARTE DO AMARAL", "staff_acs_endemias": 0, "staff_admin_gestao_apoio": 0, "staff_diag_lab_imagem": 0, "staff_enfermagem": 0, "staff_farmacia": 0, "staff_medicos": 0, "staff_odontologia": 0, "staff_outros": 1, "staff_outros_superior_saude": 0, "staff_servicos_gerais": 0, "staff_transporte_urgencia": 0 }, "geometry": { "type": "Point", "coordinates": [ -52.11240291595459, -32.032563877190583 ] } },
{ "type": "Feature", "properties": { "co_cnes": 5491118, "no_fantasia": "DRA ELIANE ROSA GOEDEL", "municipio": "Rio Grande", "tp_unidade": 16.0, "tp_unidade_label": "Ambulatorio", "rua": "GENERAL BACELAR", "numero": "378", "complemento": "SALA 902 ED ANTARES", "bairro": "CENTRO", "cep": 96200370, "vinc_sus": 0.0, "leitos_total": 0, "qtd_profissionais": 1, "endereco_geocode": "GENERAL BACELAR, 378, CENTRO, 96200370, Rio Grande - RS", "co_tipo_estabelecimento": "Ambulatório", "no_razao_social": "DRA ELIANE ROSA GOEDEL", "staff_acs_endemias": 0, "staff_admin_gestao_apoio": 0, "staff_diag_lab_imagem": 0, "staff_enfermagem": 0, "staff_farmacia": 0, "staff_medicos": 1, "staff_odontologia": 0, "staff_outros": 0, "staff_outros_superior_saude": 0, "staff_servicos_gerais": 0, "staff_transporte_urgencia": 0 }, "geometry": { "type": "Point", "coordinates": [ -52.092018127441406, -32.031999964607721 ] } },
{ "type": "Feature", "properties": { "co_cnes": 4165233, "no_fantasia": "ALCEMIR TORRES DE MORAES LTDA", "municipio": "Rio Grande", "tp_unidade": 16.0, "tp_unidade_label": "Ambulatorio", "rua": "GENERAL BACELAR", "numero": "283", "complemento": "1", "bairro": "CENTRO", "cep": 96200340, "vinc_sus": 0.0, "leitos_total": 0, "qtd_profissionais": 2, "endereco_geocode": "GENERAL BACELAR, 283, CENTRO, 96200340, Rio Grande - RS", "co_tipo_estabelecimento": "Ambulatório", "no_razao_social": "ALCEMIR TORRES DE MORAES LTDA", "staff_acs_endemias": 0, "staff_admin_gestao_apoio": 1, "staff_diag_lab_imagem": 0, "staff_enfermagem": 0, "staff_farmacia": 0, "staff_medicos": 0, "staff_odontologia": 1, "staff_outros": 0, "staff_outros_superior_saude": 0, "staff_servicos_gerais": 0, "staff_transporte_urgencia": 0 }, "geometry": { "type": "Point", "coordinates": [ -52.091460227966309, -32.032090918484997 ] } },
{ "type": "Feature", "properties": { "co_cnes": 4098331, "no_fantasia": "UNIMED LITORAL SUL RS CENTRAL DE CONSULTAS", "municipio": "Rio Grande", "tp_unidade": 16.0, "tp_unidade_label": "Ambulatorio", "rua": "GENERAL OSORIO", "numero": "487", "complemento": null, "bairro": "CENTRO", "cep": 96200400, "vinc_sus": 0.0, "leitos_total": 0, "qtd_profissionais": 16, "endereco_geocode": "GENERAL OSORIO, 487, CENTRO, 96200400, Rio Grande - RS", "co_tipo_estabelecimento": "Ambulatório", "no_razao_social": "UNIMED LITORAL SUL RS CENTRAL DE CONSULTAS", "staff_acs_endemias": 0, "staff_admin_gestao_apoio": 2, "staff_diag_lab_imagem": 0, "staff_enfermagem": 0, "staff_farmacia": 0, "staff_medicos": 14, "staff_odontologia": 0, "staff_outros": 0, "staff_outros_superior_saude": 0, "staff_servicos_gerais": 0, "staff_transporte_urgencia": 0 }, "geometry": { "type": "Point", "coordinates": [ -52.098530530929565, -32.030026243222622 ] } },
{ "type": "Feature", "properties": { "co_cnes": 4207807, "no_fantasia": "MAUARA ESTETICA SAUDE", "municipio": "Rio Grande", "tp_unidade": 16.0, "tp_unidade_label": "Ambulatorio", "rua": "BENJAMIN CONSTANT", "numero": "470", "complemento": null, "bairro": "CENTRO", "cep": 96200090, "vinc_sus": 0.0, "leitos_total": 0, "qtd_profissionais": 2, "endereco_geocode": "BENJAMIN CONSTANT, 470, CENTRO, 96200090, Rio Grande - RS", "co_tipo_estabelecimento": "Ambulatório", "no_razao_social": "MAUARA ESTETICA SAUDE", "staff_acs_endemias": 0, "staff_admin_gestao_apoio": 0, "staff_diag_lab_imagem": 0, "staff_enfermagem": 0, "staff_farmacia": 0, "staff_medicos": 0, "staff_odontologia": 0, "staff_outros": 0, "staff_outros_superior_saude": 2, "staff_servicos_gerais": 0, "staff_transporte_urgencia": 0 }, "geometry": { "type": "Point", "coordinates": [ -52.094850540161133, -32.038512033895081 ] } },
{ "type": "Feature", "properties": { "co_cnes": 4150694, "no_fantasia": "VIVAMENTE TERAPIAS COGNITIVAS", "municipio": "Rio Grande", "tp_unidade": 16.0, "tp_unidade_label": "Ambulatorio", "rua": "VICE ALMIRANTE ABREU", "numero": "773", "complemento": null, "bairro": "CEBTRO", "cep": 96200270, "vinc_sus": 0.0, "leitos_total": 0, "qtd_profissionais": 9, "endereco_geocode": "VICE ALMIRANTE ABREU, 773, CEBTRO, 96200270, Rio Grande - RS", "co_tipo_estabelecimento": "Ambulatório", "no_razao_social": "VIVAMENTE TERAPIAS COGNITIVAS", "staff_acs_endemias": 0, "staff_admin_gestao_apoio": 1, "staff_diag_lab_imagem": 0, "staff_enfermagem": 0, "staff_farmacia": 0, "staff_medicos": 0, "staff_odontologia": 0, "staff_outros": 5, "staff_outros_superior_saude": 3, "staff_servicos_gerais": 0, "staff_transporte_urgencia": 0 }, "geometry": { "type": "Point", "coordinates": [ -52.093369960784912, -32.039057716994044 ] } },
{ "type": "Feature", "properties": { "co_cnes": 4115902, "no_fantasia": "ANDREIA APARECIDA ROMEU DE OLIVEIRA COLOSSI", "municipio": "Rio Grande", "tp_unidade": 16.0, "tp_unidade_label": "Ambulatorio", "rua": "NAPOLEAO LAUREANO", "numero": "317", "complemento": null, "bairro": "CENTRO", "cep": 96200100, "vinc_sus": 0.0, "leitos_total": 0, "qtd_profissionais": 1, "endereco_geocode": "NAPOLEAO LAUREANO, 317, CENTRO, 96200100, Rio Grande - RS", "co_tipo_estabelecimento": "Ambulatório", "no_razao_social": "ANDREIA APARECIDA ROMEU DE OLIVEIRA COLOSSI", "staff_acs_endemias": 0, "staff_admin_gestao_apoio": 0, "staff_diag_lab_imagem": 0, "staff_enfermagem": 0, "staff_farmacia": 0, "staff_medicos": 0, "staff_odontologia": 0, "staff_outros": 0, "staff_outros_superior_saude": 1, "staff_servicos_gerais": 0, "staff_transporte_urgencia": 0 }, "geometry": { "type": "Point", "coordinates": [ -52.093970775604248, -32.038421086395715 ] } },
{ "type": "Feature", "properties": { "co_cnes": 4430816, "no_fantasia": "MODERNA RADIOLOGIA E DIAGNOSTICO POR IMAGEM LTDA", "municipio": "Rio Grande", "tp_unidade": 18.0, "tp_unidade_label": "Unidade de Apoio Diagnostico", "rua": "GENERAL CANABARRO", "numero": "210", "complemento": null, "bairro": "CENTRO", "cep": 96200200, "vinc_sus": 0.0, "leitos_total": 0, "qtd_profissionais": 1, "endereco_geocode": "GENERAL CANABARRO, 210, CENTRO, 96200200, Rio Grande - RS", "co_tipo_estabelecimento": "Unidade de Apoio Diagnostico", "no_razao_social": "MODERNA RADIOLOGIA E DIAGNOSTICO POR IMAGEM LTDA", "staff_acs_endemias": 0, "staff_admin_gestao_apoio": 0, "staff_diag_lab_imagem": 0, "staff_enfermagem": 0, "staff_farmacia": 0, "staff_medicos": 1, "staff_odontologia": 0, "staff_outros": 0, "staff_outros_superior_saude": 0, "staff_servicos_gerais": 0, "staff_transporte_urgencia": 0 }, "geometry": { "type": "Point", "coordinates": [ -52.102877442329913, -32.032097249487101 ] } },
{ "type": "Feature", "properties": { "co_cnes": 4357175, "no_fantasia": "TOMATIS SERVICOS MEDICOS", "municipio": "Rio Grande", "tp_unidade": 16.0, "tp_unidade_label": "Ambulatorio", "rua": "DUQUE DE CAIXIAS", "numero": "346", "complemento": null, "bairro": "CENTRO", "cep": 96200020, "vinc_sus": 0.0, "leitos_total": 0, "qtd_profissionais": 1, "endereco_geocode": "DUQUE DE CAIXIAS, 346, CENTRO, 96200020, Rio Grande - RS", "co_tipo_estabelecimento": "Ambulatório", "no_razao_social": "TOMATIS SERVICOS MEDICOS", "staff_acs_endemias": 0, "staff_admin_gestao_apoio": 0, "staff_diag_lab_imagem": 0, "staff_enfermagem": 0, "staff_farmacia": 0, "staff_medicos": 1, "staff_odontologia": 0, "staff_outros": 0, "staff_outros_superior_saude": 0, "staff_servicos_gerais": 0, "staff_transporte_urgencia": 0 }, "geometry": { "type": "Point", "coordinates": [ -52.097854614257812, -32.037447942497522 ] } },
{ "type": "Feature", "properties": { "co_cnes": 4372476, "no_fantasia": "MONALLISA COCCO MARIANI", "municipio": "Rio Grande", "tp_unidade": 16.0, "tp_unidade_label": "Ambulatorio", "rua": "VISCONDE DE PARANAGUA", "numero": "17", "complemento": "A SALA 402", "bairro": "CENTRO", "cep": 96200210, "vinc_sus": 0.0, "leitos_total": 0, "qtd_profissionais": 1, "endereco_geocode": "VISCONDE DE PARANAGUA, 17, CENTRO, 96200210, Rio Grande - RS", "co_tipo_estabelecimento": "Ambulatório", "no_razao_social": "MONALLISA COCCO MARIANI", "staff_acs_endemias": 0, "staff_admin_gestao_apoio": 0, "staff_diag_lab_imagem": 0, "staff_enfermagem": 0, "staff_farmacia": 0, "staff_medicos": 1, "staff_odontologia": 0, "staff_outros": 0, "staff_outros_superior_saude": 0, "staff_servicos_gerais": 0, "staff_transporte_urgencia": 0 }, "geometry": { "type": "Point", "coordinates": [ -52.102046301845292, -32.029446335081005 ] } },
{ "type": "Feature", "properties": { "co_cnes": 4352807, "no_fantasia": "ANA PAULA KIRCHHOF SARAIVA", "municipio": "Rio Grande", "tp_unidade": 16.0, "tp_unidade_label": "Ambulatorio", "rua": "ANDRADE NEVES", "numero": "318", "complemento": null, "bairro": "CENTRO", "cep": 96200140, "vinc_sus": 0.0, "leitos_total": 0, "qtd_profissionais": 1, "endereco_geocode": "ANDRADE NEVES, 318, CENTRO, 96200140, Rio Grande - RS", "co_tipo_estabelecimento": "Ambulatório", "no_razao_social": "ANA PAULA KIRCHHOF SARAIVA", "staff_acs_endemias": 0, "staff_admin_gestao_apoio": 0, "staff_diag_lab_imagem": 0, "staff_enfermagem": 0, "staff_farmacia": 0, "staff_medicos": 0, "staff_odontologia": 0, "staff_outros": 0, "staff_outros_superior_saude": 1, "staff_servicos_gerais": 0, "staff_transporte_urgencia": 0 }, "geometry": { "type": "Point", "coordinates": [ -52.092211246490479, -32.035819949673908 ] } },
{ "type": "Feature", "properties": { "co_cnes": 4272021, "no_fantasia": "RDL SOLUCOES", "municipio": "Rio Grande", "tp_unidade": 16.0, "tp_unidade_label": "Ambulatorio", "rua": "AQUIDABAN", "numero": "714", "complemento": "SALA 90", "bairro": "CENTRO", "cep": 96200480, "vinc_sus": 0.0, "leitos_total": 0, "qtd_profissionais": 3, "endereco_geocode": "AQUIDABAN, 714, CENTRO, 96200480, Rio Grande - RS", "co_tipo_estabelecimento": "Ambulatório", "no_razao_social": "RDL SOLUCOES", "staff_acs_endemias": 0, "staff_admin_gestao_apoio": 1, "staff_diag_lab_imagem": 0, "staff_enfermagem": 1, "staff_farmacia": 0, "staff_medicos": 1, "staff_odontologia": 0, "staff_outros": 0, "staff_outros_superior_saude": 0, "staff_servicos_gerais": 0, "staff_transporte_urgencia": 0 }, "geometry": { "type": "Point", "coordinates": [ -52.1050185, -32.0323159 ] } }
]
}
