{
"type": "FeatureCollection",
"name": "rio_grande_limite",
"crs": { "type": "name", "properties": { "name": "urn:ogc:def:crs:EPSG::4674" } },
"features": [
{ "type": "Feature", "properties": { "code_muni": 4315602.0, "name_muni": "Rio Grande", "code_state": 43.0, "abbrev_state": "RS", "name_state": "Rio Grande do Sul", "code_region": 4.0, "name_region": "Sul" }, "geometry": { "type": "MultiPolygon", "coordinates": [ [ [ [ -52.095432, -32.0486304 ], [ -52.0934809, -32.0478895 ], [ -52.0922121, -32.0499711 ], [ -52.0895844, -32.0493227 ], [ -52.0863348, -32.0518603 ], [ -52.0878863, -32.0581009 ], [ -52.085068, -32.0546688 ], [ -52.0854489, -32.0520922 ], [ -52.0833837, -32.0495779 ], [ -52.0800247, -32.0500788 ], [ -52.0816265, -32.0523598 ], [ -52.0787265, -32.050446 ], [ -52.0712788, -32.0522555 ], [ -52.0773961, -32.0334276 ], [ -52.0753494, -32.0314924 ], [ -52.0729382, -32.0341416 ], [ -52.0721805, -32.0404337 ], [ -52.0705343, -32.0409111 ], [ -52.0713486, -32.043652 ], [ -52.0672926, -32.0442964 ], [ -52.065079, -32.0475401 ], [ -52.0662082, -32.0504318 ], [ -52.0659534, -32.0503351 ], [ -52.0640887, -32.0459807 ], [ -52.0667423, -32.0385457 ], [ -52.0692342, -32.036546 ], [ -52.0696169, -32.0295509 ], [ -52.0738663, -32.029508 ], [ -52.0771166, -32.0319568 ], [ -52.0788824, -32.0288003 ], [ -52.0804586, -32.0283281 ], [ -52.0883776, -32.030307 ], [ -52.0950798, -32.0295415 ], [ -52.1095508, -32.0246273 ], [ -52.1113462, -32.026287599999989 ], [ -52.1104478, -32.0282865 ], [ -52.1162121, -32.0320695 ], [ -52.1163185, -32.033567 ], [ -52.1361896, -32.0456902 ], [ -52.1498103, -32.0482084 ], [ -52.164689, -32.0561031 ], [ -52.1713536, -32.0555378 ], [ -52.1793281, -32.0595569 ], [ -52.1803627, -32.0617858 ], [ -52.191463, -32.0673382 ], [ -52.2033618, -32.0757213 ], [ -52.206727, -32.0745293 ], [ -52.2042714, -32.0708875 ], [ -52.207097399999988, -32.0705611 ], [ -52.2103191, -32.0736255 ], [ -52.2107334, -32.0762802 ], [ -52.2126455, -32.0765386 ], [ -52.2130433, -32.0810666 ], [ -52.2156355, -32.0840106 ], [ -52.2271061, -32.0848577 ], [ -52.2305749, -32.0816753 ], [ -52.2325191, -32.0835362 ], [ -52.2359052, -32.0810967 ], [ -52.239657, -32.0802264 ], [ -52.237895699999989, -32.0766552 ], [ -52.2347092, -32.0756704 ], [ -52.2336642, -32.0739015 ], [ -52.232566, -32.0751971 ], [ -52.2314944, -32.0744888 ], [ -52.2313948, -32.0729011 ], [ -52.2332835, -32.071355 ], [ -52.2314874, -32.0698437 ], [ -52.2225766, -32.0683971 ], [ -52.2148393, -32.072179 ], [ -52.2135733, -32.0683971 ], [ -52.2144974, -32.0664032 ], [ -52.2093031, -32.0600262 ], [ -52.2019198, -32.058207 ], [ -52.194657, -32.0587301 ], [ -52.1941848, -32.0574247 ], [ -52.1997697, -32.0470558 ], [ -52.2020267, -32.0390645 ], [ -52.1956218, -32.027615499999989 ], [ -52.1858015, -32.0284881 ], [ -52.180043, -32.0302934 ], [ -52.1727732, -32.0277104 ], [ -52.1599255, -32.0272198 ], [ -52.1453373, -32.0202809 ], [ -52.1373292, -32.0179433 ], [ -52.1340549, -32.0150949 ], [ -52.1283709, -32.0145225 ], [ -52.1135953, -32.0094491 ], [ -52.1020865, -32.0030241 ], [ -52.098072, -32.0035194 ], [ -52.0989098, -32.0071763 ], [ -52.0969425, -32.0062042 ], [ -52.0972467, -31.9941679 ], [ -52.1091581, -31.984066 ], [ -52.1094055, -31.980928 ], [ -52.1133019, -31.9778964 ], [ -52.1190974, -31.9775286 ], [ -52.1207017, -31.9796724 ], [ -52.1252661, -31.9805851 ], [ -52.1251734, -31.9745388 ], [ -52.1271199, -31.9732756 ], [ -52.1243964, -31.9696907 ], [ -52.1212498, -31.9712551 ], [ -52.1205532, -31.9682524 ], [ -52.1220933, -31.9674708 ], [ -52.1249326, -31.9690444 ], [ -52.1321455, -31.9640906 ], [ -52.1287493, -31.9611996 ], [ -52.1290167, -31.9582858 ], [ -52.1316621, -31.9561121 ], [ -52.1355137, -31.9561754 ], [ -52.1405673, -31.9579551 ], [ -52.1366044, -31.9601716 ], [ -52.1343261, -31.9635027 ], [ -52.1245999, -31.9693577 ], [ -52.127985099999989, -31.9731143 ], [ -52.125992, -31.9747157 ], [ -52.1253821, -31.9805974 ], [ -52.1399214, -31.9826572 ], [ -52.1498905, -31.9797854 ], [ -52.1632149, -31.9820949 ], [ -52.165927, -31.980202 ], [ -52.1750583, -31.9784525 ], [ -52.1797282, -31.9807111 ], [ -52.1874595, -31.9816922 ], [ -52.189321, -31.9837266 ], [ -52.1892506, -31.9861376 ], [ -52.1948992, -31.9898447 ], [ -52.1960852, -31.9920072 ], [ -52.1955089, -31.9951404 ], [ -52.1920356, -31.9973516 ], [ -52.1935584, -32.0044162 ], [ -52.2026028, -32.0073755 ], [ -52.2062689, -32.01058 ], [ -52.2021481, -32.021841 ], [ -52.1988742, -32.026133 ], [ -52.1962458, -32.0271881 ], [ -52.2023228, -32.0389419 ], [ -52.2133316, -32.0350247 ], [ -52.2276352, -32.0359317 ], [ -52.23478, -32.0436411 ], [ -52.2439817, -32.0454423 ], [ -52.2463603, -32.0496904 ], [ -52.2519387, -32.05339 ], [ -52.2528457, -32.0470597 ], [ -52.2495278, -32.0438736 ], [ -52.2492305, -32.0366675 ], [ -52.2456465, -32.0282964 ], [ -52.2418358, -32.0242381 ], [ -52.2360259, -32.0218827 ], [ -52.2346979, -32.0189165 ], [ -52.2358223, -32.010432 ], [ -52.2383154, -32.0044162 ], [ -52.23683, -32.0018757 ], [ -52.2417883, -31.9937985 ], [ -52.2392733, -31.9892589 ], [ -52.2394406, -31.9847156 ], [ -52.2299965, -31.978173 ], [ -52.2297468, -31.9757132 ], [ -52.2234701, -31.9718708 ], [ -52.2195954, -31.9594745 ], [ -52.2136261, -31.9596618 ], [ -52.2070615, -31.9656392 ], [ -52.2018945, -31.9624626 ], [ -52.1883122, -31.9631978 ], [ -52.1873504, -31.9615425 ], [ -52.1885688, -31.9570066 ], [ -52.1853853, -31.949567 ], [ -52.175023499999988, -31.9523967 ], [ -52.1719926, -31.9483371 ], [ -52.168867, -31.9469592 ], [ -52.1665505, -31.9428995 ], [ -52.1568452, -31.9489381 ], [ -52.153271, -31.95039 ], [ -52.1506817, -31.9500386 ], [ -52.1490981, -31.9461084 ], [ -52.1545703, -31.9406662 ], [ -52.1561193, -31.9341005 ], [ -52.1547229, -31.9297449 ], [ -52.1507557, -31.927433 ], [ -52.1467723, -31.9273359 ], [ -52.1450153, -31.9284271 ], [ -52.1445899, -31.932533 ], [ -52.1416145, -31.9384145 ], [ -52.1426317, -31.9417621 ], [ -52.1450592, -31.9419077 ], [ -52.1457135, -31.9436578 ], [ -52.1457875, -31.9481706 ], [ -52.1438062, -31.9507322 ], [ -52.140939499999988, -31.9510558 ], [ -52.129232699999989, -31.9480162 ], [ -52.1209696, -31.9433645 ], [ -52.1182229, -31.9459458 ], [ -52.115763, -31.9450488 ], [ -52.1129215, -31.9470302 ], [ -52.1139446, -31.9496439 ], [ -52.1128377, -31.9527801 ], [ -52.1122345, -31.9479577 ], [ -52.1148111, -31.9419594 ], [ -52.1231611, -31.9334602 ], [ -52.1273616, -31.9328822 ], [ -52.1295369, -31.9276944 ], [ -52.1393116, -31.9183147 ], [ -52.1761477, -31.9076569 ], [ -52.1898029, -31.9007381 ], [ -52.2062696, -31.8879577 ], [ -52.2210686, -31.8720921 ], [ -52.2267758, -31.871998499999989 ], [ -52.2327825, -31.8745621 ], [ -52.2373482, -31.8782952 ], [ -52.2369553, -31.8820563 ], [ -52.2282915, -31.8842924 ], [ -52.2281231, -31.8910849 ], [ -52.2297698, -31.8952858 ], [ -52.2346162, -31.8936204 ], [ -52.2415865, -31.8825522 ], [ -52.2496421, -31.8754696 ], [ -52.2530618, -31.8691776 ], [ -52.2551763, -31.8611127 ], [ -52.2566086, -31.8497968 ], [ -52.2543587, -31.8432133 ], [ -52.2478037, -31.8387704 ], [ -52.238485, -31.8386581 ], [ -52.2314547, -31.841904 ], [ -52.2264577, -31.8483089 ], [ -52.2231878, -31.8429338 ], [ -52.2219341, -31.8337087 ], [ -52.2226171, -31.819319 ], [ -52.2313323, -31.8090671 ], [ -52.2294377, -31.8084578 ], [ -52.2302855, -31.8059223 ], [ -52.2288389, -31.8059492 ], [ -52.2236817, -31.813177 ], [ -52.2200488, -31.8084438 ], [ -52.2189226, -31.8036996 ], [ -52.2165005, -31.8044633 ], [ -52.217204, -31.8066556 ], [ -52.2155275, -31.8080923 ], [ -52.2161307, -31.8102676 ], [ -52.2173206, -31.80968 ], [ -52.2170504, -31.8113372 ], [ -52.213315, -31.8069977 ], [ -52.2176539, -31.7956558 ], [ -52.2163171, -31.7955394 ], [ -52.224451699999989, -31.790755 ], [ -52.2235517, -31.7889463 ], [ -52.2420955, -31.7864108 ], [ -52.2540081, -31.7803153 ], [ -52.2685849, -31.7761144 ], [ -52.3020142, -31.7735672 ], [ -52.3064116, -31.7747087 ], [ -52.3192692, -31.7827409 ], [ -52.3299211, -31.7825959 ], [ -52.3414057, -31.785819 ], [ -52.3464171, -31.7892586 ], [ -52.3512027, -31.7963084 ], [ -52.354533499999988, -31.7987036 ], [ -52.3641329, -31.8007468 ], [ -52.373938, -31.8002567 ], [ -52.3803002, -31.8035126 ], [ -52.3895253, -31.814665 ], [ -52.39338, -31.8255836 ], [ -52.3901615, -31.8413018 ], [ -52.3896375, -31.852866 ], [ -52.3945775, -31.8570107 ], [ -52.4054774, -31.8591673 ], [ -52.408045, -31.8633313 ], [ -52.4070118, -31.8691035 ], [ -52.401211, -31.8793203 ], [ -52.3838905, -31.896691 ], [ -52.3803282, -31.9103077 ], [ -52.3902387, -31.9455638 ], [ -52.4029442, -31.9601406 ], [ -52.4151446, -31.9659226 ], [ -52.4189575, -31.9692479 ], [ -52.4174368, -31.9828478 ], [ -52.4214038, -31.9994081 ], [ -52.4181853, -32.0127124 ], [ -52.4195419, -32.0247116 ], [ -52.4178953, -32.0266483 ], [ -52.4110466, -32.0277523 ], [ -52.408483, -32.0298107 ], [ -52.4077533, -32.0344887 ], [ -52.4095498, -32.0385212 ], [ -52.4141809, -32.0427314 ], [ -52.4261099, -32.0462493 ], [ -52.4332626, -32.0502303 ], [ -52.4376413, -32.0617103 ], [ -52.4414857, -32.0642552 ], [ -52.4488028, -32.06399 ], [ -52.4583931, -32.0615435 ], [ -52.4703666, -32.0559563 ], [ -52.4819775, -32.0567703 ], [ -52.4917967, -32.0552826 ], [ -52.4944304, -32.0604098 ], [ -52.508195, -32.069318 ], [ -52.5120199, -32.0770636 ], [ -52.5145998, -32.0754286 ], [ -52.5157553, -32.0758988 ], [ -52.5219911, -32.0822609 ], [ -52.5251254, -32.0888944 ], [ -52.5306516, -32.0932395 ], [ -52.5461579, -32.100234 ], [ -52.5618668, -32.0994668 ], [ -52.5662829, -32.1028069 ], [ -52.5686874, -32.1095339 ], [ -52.5716626, -32.1124156 ], [ -52.580831599999989, -32.1126308 ], [ -52.5886205, -32.1182823 ], [ -52.5988444, -32.1206794 ], [ -52.6074286, -32.1262416 ], [ -52.6177577, -32.1300589 ], [ -52.6203026, -32.1345123 ], [ -52.6226977, -32.1466004 ], [ -52.6289383, -32.1516153 ], [ -52.6301352, -32.1540303 ], [ -52.6307177, -32.1581131 ], [ -52.627894499999989, -32.1591844 ], [ -52.6285026, -32.1621643 ], [ -52.6479118, -32.1914676 ], [ -52.65622, -32.2089822 ], [ -52.6681958, -32.2405683 ], [ -52.6830533, -32.2728281 ], [ -52.6906879, -32.29663 ], [ -52.6922421, -32.3090409 ], [ -52.6884085, -32.319529 ], [ -52.6390083, -32.3930305 ], [ -52.6354904, -32.401189 ], [ -52.6159549, -32.4321015 ], [ -52.6023283, -32.4606441 ], [ -52.5859499, -32.5085782 ], [ -52.5858751, -32.5276272 ], [ -52.5876106, -32.5377458 ], [ -52.6019816, -32.5821311 ], [ -52.6090671, -32.6123019 ], [ -52.6209426, -32.6379171 ], [ -52.6174805, -32.6379584 ], [ -52.6128491, -32.6340406 ], [ -52.6086167, -32.6353695 ], [ -52.6078095, -32.6379186 ], [ -52.5849815, -32.6434573 ], [ -52.4229395, -32.6287995 ], [ -52.4157339, -32.6052336 ], [ -52.3864302, -32.5258308 ], [ -52.3681675, -32.4817519 ], [ -52.3220209, -32.3885452 ], [ -52.2992589, -32.3485289 ], [ -52.2768146, -32.3140729 ], [ -52.2509215, -32.2798444 ], [ -52.2338785, -32.2602256 ], [ -52.1990058, -32.2266002 ], [ -52.1476907, -32.1843765 ], [ -52.133079, -32.1739267 ], [ -52.1169475, -32.1656037 ], [ -52.1107425, -32.1635396 ], [ -52.0972038, -32.1616693 ], [ -52.0994781, -32.1591438 ], [ -52.0992086, -32.1545367 ], [ -52.1022098, -32.1508295 ], [ -52.1008961, -32.149747 ], [ -52.1038965, -32.1389818 ], [ -52.103514, -32.1345442 ], [ -52.1052528, -32.1316508 ], [ -52.1046364, -32.1304362 ], [ -52.1028202, -32.1304266 ], [ -52.1022611, -32.1222705 ], [ -52.1045355, -32.1195527 ], [ -52.1048451, -32.1047742 ], [ -52.0993425, -32.0831285 ], [ -52.0863113, -32.0673521 ], [ -52.0847939, -32.0645601 ], [ -52.0855416, -32.061065 ], [ -52.0888669, -32.0598217 ], [ -52.1031301, -32.0679567 ], [ -52.1086574, -32.0748564 ], [ -52.1123298, -32.0835554 ], [ -52.1159003, -32.085537599999988 ], [ -52.1194336, -32.0912689 ], [ -52.1357371, -32.100413 ], [ -52.1491866, -32.1163664 ], [ -52.1536659, -32.1166353 ], [ -52.1566914, -32.1140264 ], [ -52.1550029, -32.1124074 ], [ -52.1577999, -32.1113302 ], [ -52.1560074, -32.1100837 ], [ -52.1535144, -32.1036356 ], [ -52.1552334, -32.1017968 ], [ -52.1565637, -32.0961624 ], [ -52.1538192, -32.0902338 ], [ -52.1540782, -32.085684 ], [ -52.1528779, -32.085005 ], [ -52.1502441, -32.0753287 ], [ -52.1445609, -32.0669327 ], [ -52.1342175, -32.0575323 ], [ -52.1192455, -32.0524864 ], [ -52.1130485, -32.05184 ], [ -52.1093814, -32.0501892 ], [ -52.1079673, -32.0510962 ], [ -52.1027103, -32.048756 ], [ -52.1016967, -32.0458937 ], [ -52.095432, -32.0486304 ] ] ] ] } }
]
}
